ProximityRank,Distance,Facility Name,Address,City/Town,State,Zipcode,Latitude,Longitude,Zipcode-1,Latitude-1,Longitude-1,City,State-1
1,12.043676017,ORANGE CITY AREA HEALTH SYSTEM,1000 LINCOLN CIRCLE SE,ORANGE CITY,IA,51041,43.02443,-96.07701,51022,42.97819,-95.84722,Granville,IA
1,14.294495081,MERCYONE NEWTON MEDICAL CENTER,204 N 4TH AVE E,NEWTON,IA,50208,41.71129,-93.03924,50228,41.57008,-93.24154,Prairie City,IA
1,9.364242089,MADISON COUNTY HEALTH CARE SYSTEM,300 WEST HUTCHINGS STREET,WINTERSET,IA,50273,41.32838,-94.05606,50218,41.34844,-93.87755,Patterson,IA
1,7.473684310,MERCYONE CENTERVILLE MEDICAL CENTER,ONE ST JOSEPH'S DRIVE,CENTERVILLE,IA,52544,40.71774,-92.90831,52555,40.63905,-92.81046,Exline,IA
1,6.353806375,CLARINDA REGIONAL HEALTH CENTER,220 ESSIE DAVISON DRIVE,CLARINDA,IA,51632,40.7478,-95.04939,51651,40.65652,-95.03473,Shambaugh,IA
1,17.443468688,CRAWFORD COUNTY MEMORIAL HOSPITAL,100 MEDICAL PARKWAY,DENISON,IA,51442,42.02696,-95.35915,51060,42.04189,-95.69844,Ute,IA
1,13.927516951,WASHINGTON COUNTY HOSPITAL AND CLINICS,400 EAST POLK STREET,WASHINGTON,IA,52353,41.29923,-91.71596,52356,41.4749,-91.84769,Wellman,IA
1,12.079163582,GENESIS MEDICAL CENTER-DAVENPORT,1227 EAST RUSHOLME STREET,DAVENPORT,IA,52803,41.53871,-90.55623,52726,41.50092,-90.78419,Blue Grass,IA
1,14.261506344,BUENA VISTA REGIONAL MEDICAL CENTER,1525 WEST 5TH STREET,STORM LAKE,IA,50588,42.65777,-95.16391,50535,42.45138,-95.16167,Early,IA
1,7.655454323,KEOKUK COUNTY HEALTH CENTER,23019 HIGHWAY 149,SIGOURNEY,IA,52591,41.31988,-92.19465,52231,41.36371,-92.05912,Harper,IA
1,15.614475168,CHI HEALTH MERCY COUNCIL BLUFFS,800 MERCY DRIVE,COUNCIL BLUFFS,IA,51503,41.2304,-95.77795,51561,41.00571,-95.80992,Pacific Junction,IA
1,15.614475168,METHODIST JENNIE EDMUNDSON,933 EAST PIERCE STREET,COUNCIL BLUFFS,IA,51503,41.2304,-95.77795,51561,41.00571,-95.80992,Pacific Junction,IA
1,0,HENRY COUNTY HEALTH CENTER,407 S WHITE ST,MOUNT PLEASANT,IA,52641,40.98799,-91.58531,52641,40.98799,-91.58531,Mount Pleasant,IA
1,9.294381756,GREENE COUNTY MEDICAL CENTER,1000 WEST LINCOLN WAY,JEFFERSON,IA,50129,42.01335,-94.3764,51462,42.01319,-94.55744,Scranton,IA
1,11.973563568,WASHINGTON COUNTY HOSPITAL AND CLINICS,400 EAST POLK STREET,WASHINGTON,IA,52353,41.29923,-91.71596,52248,41.34386,-91.93891,Keota,IA
1,8.571877621,SHENANDOAH MEDICAL CENTER,300 PERSHING AVENUE,SHENANDOAH,IA,51601,40.72938,-95.35037,51647,40.60539,-95.34509,Northboro,IA
1,12.692446167,TRINITY MUSCATINE,1518 MULBERRY AVENUE,MUSCATINE,IA,52761,41.43798,-91.05802,52766,41.46407,-91.30061,Nichols,IA
1,0,MONTGOMERY COUNTY MEMORIAL HOSPITAL,2301 EASTERN AVENUE,RED OAK,IA,51566,41.0151,-95.22994,51566,41.0151,-95.22994,Red Oak,IA
1,9.840603600,CLARKE COUNTY HOSPITAL,800 S FILLMORE ST,OSCEOLA,IA,50213,41.03292,-93.76557,50264,40.89919,-93.70071,Weldon,IA
1,7.937351147,CASS COUNTY MEMORIAL HOSPITAL,1501 EAST TENTH STREET,ATLANTIC,IA,50022,41.41737,-95.00352,50274,41.38261,-94.85756,Wiota,IA
1,9.519237744,CHI HEALTH MERCY COUNCIL BLUFFS,800 MERCY DRIVE,COUNCIL BLUFFS,IA,51503,41.2304,-95.77795,51548,41.31713,-95.63553,McClelland,IA
1,9.519237744,METHODIST JENNIE EDMUNDSON,933 EAST PIERCE STREET,COUNCIL BLUFFS,IA,51503,41.2304,-95.77795,51548,41.31713,-95.63553,McClelland,IA
1,11.216894522,BOONE COUNTY HOSPITAL,1015 UNION STREET,BOONE,IA,50036,42.0892,-93.85378,50212,42.03515,-94.05996,Ogden,IA
1,8.165894719,WAVERLY HEALTH CENTER,312  9TH STREET SW,WAVERLY,IA,50677,42.76363,-92.43775,50622,42.67358,-92.33358,Denver,IA
1,10.889779997,ST ANTHONY REGIONAL HOSPITAL & NURSING HOME,311 SOUTH CLARK STREET,CARROLL,IA,51401,42.06516,-94.87068,51436,42.18254,-95.01247,Breda,IA
1,9.090427191,GENESIS MEDICAL CENTER-DEWITT,1118 11TH STREET,DEWITT,IA,52742,41.83616,-90.51076,52731,41.96637,-90.48551,Charlotte,IA
1,9.117207558,BURGESS HEALTH CENTER,1600 DIAMOND STREET,ONAWA,IA,51040,42.03073,-96.0706,51063,42.13103,-96.18611,Whiting,IA
1,7.531349059,HORN MEMORIAL HOSPITAL,701 E 2ND ST,IDA GROVE,IA,51445,42.32719,-95.46724,51006,42.31088,-95.61299,Battle Creek,IA
1,6.767533201,HUMBOLDT COUNTY MEMORIAL HOSPITAL,1000 NORTH 15TH STREET,HUMBOLDT,IA,50548,42.71275,-94.22645,50582,42.79338,-94.30217,Rutland,IA
1,12.927976101,MARY GREELEY MEDICAL CENTER,1111 DUFF AVENUE,AMES,IA,50010,42.03316,-93.58761,50243,41.86457,-93.6967,Sheldahl,IA
1,5.290181148,SOUTHEAST IOWA REGIONAL MEDICAL CENTER,1221 SOUTH GEAR AVENUE,WEST BURLINGTON,IA,52655,40.84768,-91.21174,52601,40.8551,-91.111,Burlington,IA
1,12.484312001,SOUTHEAST IOWA REGIONAL MEDICAL CENTER,1221 SOUTH GEAR AVENUE,WEST BURLINGTON,IA,52655,40.84768,-91.21174,52637,41.01949,-91.13774,Mediapolis,IA
1,7.624872831,STORY COUNTY HOSPITAL,640 SOUTH 19TH STREET,NEVADA,IA,50201,42.03337,-93.44434,50056,42.01925,-93.29701,Colo,IA
1,14.904254413,SOUTHEAST IOWA REGIONAL MEDICAL CENTER,1221 SOUTH GEAR AVENUE,WEST BURLINGTON,IA,52655,40.84768,-91.21174,52627,40.65973,-91.35145,Fort Madison,IA
1,15.311960467,MERCYONE ELKADER MEDICAL CENTER,901 DAVIDSON STREET NW,ELKADER,IA,52043,42.84403,-91.42201,52157,43.01661,-91.23216,McGregor,IA
1,10.811330573,MERCYONE DES MOINES MEDICAL CENTER,1111 6TH AVE,DES MOINES,IA,50314,41.6049,-93.63102,50111,41.69353,-93.80358,Grimes,IA
1,10.811330573,BROADLAWNS MEDICAL CENTER,1801 HICKMAN ROAD,DES MOINES,IA,50314,41.6049,-93.63102,50111,41.69353,-93.80358,Grimes,IA
1,7.747482888,CHI HEALTH MERCY COUNCIL BLUFFS,800 MERCY DRIVE,COUNCIL BLUFFS,IA,51503,41.2304,-95.77795,51554,41.14512,-95.68122,Mineola,IA
1,7.747482888,METHODIST JENNIE EDMUNDSON,933 EAST PIERCE STREET,COUNCIL BLUFFS,IA,51503,41.2304,-95.77795,51554,41.14512,-95.68122,Mineola,IA
1,9.353193436,MADISON COUNTY HEALTH CARE SYSTEM,300 WEST HUTCHINGS STREET,WINTERSET,IA,50273,41.32838,-94.05606,50222,41.21701,-93.95369,Peru,IA
1,19.650833032,UNIVERSITY OF IOWA HEALTH CARE MEDICAL CENTER DOWN,500 E MARKET STREET,IOWA CITY,IA,52245,41.67071,-91.50666,52772,41.75006,-91.14083,Tipton,IA
1,0,TRINITY - BETTENDORF,4500 UTICA RIDGE ROAD,BETTENDORF,IA,52722,41.56633,-90.4673,52722,41.56633,-90.4673,Bettendorf,IA
1,0,MERCYONE ELKADER MEDICAL CENTER,901 DAVIDSON STREET NW,ELKADER,IA,52043,42.84403,-91.42201,52043,42.84403,-91.42201,Elkader,IA
1,0,WASHINGTON COUNTY HOSPITAL AND CLINICS,400 EAST POLK STREET,WASHINGTON,IA,52353,41.29923,-91.71596,52353,41.29923,-91.71596,Washington,IA
1,7.882643657,MERCYONE DES MOINES MEDICAL CENTER,1111 6TH AVE,DES MOINES,IA,50314,41.6049,-93.63102,50131,41.69749,-93.72021,Johnston,IA
1,7.882643657,BROADLAWNS MEDICAL CENTER,1801 HICKMAN ROAD,DES MOINES,IA,50314,41.6049,-93.63102,50131,41.69749,-93.72021,Johnston,IA
1,11.090598626,MARY GREELEY MEDICAL CENTER,1111 DUFF AVENUE,AMES,IA,50010,42.03316,-93.58761,50248,42.19256,-93.61297,Story City,IA
1,18.454161346,MYRTUE MEDICAL CENTER,1213 GARFIELD AVENUE,HARLAN,IA,51537,41.64646,-95.29531,51536,41.38385,-95.36025,Hancock,IA
1,11.075508460,MERCYONE DYERSVILLE MEDICAL CENTER,1111 3RD STREET SW,DYERSVILLE,IA,52040,42.51114,-91.13884,52053,42.60656,-90.96399,Holy Cross,IA
1,9.204121402,CHI HEALTH MISSOURI VALLEY,631 N 8TH ST,MISSOURI VALLEY,IA,51555,41.55937,-95.91398,51546,41.6399,-95.77209,Logan,IA
1,10.153694390,COMPASS MEMORIAL HEALTHCARE,300 W MAY ST,MARENGO,IA,52301,41.78658,-92.09013,52257,41.91836,-92.17742,Luzerne,IA
1,12.248446507,ST ANTHONY REGIONAL HOSPITAL & NURSING HOME,311 SOUTH CLARK STREET,CARROLL,IA,51401,42.06516,-94.87068,51467,42.07377,-95.10919,Westside,IA
1,0,GREATER REGIONAL MEDICAL CENTER,1700 WEST TOWNLINE STREET,CRESTON,IA,50801,41.07959,-94.39224,50801,41.07959,-94.39224,Creston,IA
1,0,GUTHRIE COUNTY HOSPITAL,710 NORTH 12TH STREET,GUTHRIE CENTER,IA,50115,41.68765,-94.55501,50115,41.68765,-94.55501,Guthrie Center,IA
1,14.844181805,UNITYPOINT HEALTH - DES MOINES IOWA METHODIST MEDI,1200 PLEASANT STREET,DES MOINES,IA,50309,41.58448,-93.62152,50169,41.65617,-93.35062,Mitchellville,IA
1,10.219429356,BUCHANAN COUNTY HEALTH CENTER,1600 FIRST ST EAST,INDEPENDENCE,IA,50644,42.47751,-91.89721,50648,42.45182,-92.09465,Jesup,IA
1,0,MERCYONE DYERSVILLE MEDICAL CENTER,1111 3RD STREET SW,DYERSVILLE,IA,52040,42.51114,-91.13884,52040,42.51114,-91.13884,Dyersville,IA
1,7.662924968,PELLA REGIONAL HEALTH CENTER,404 JEFFERSON STREET,PELLA,IA,50219,41.42243,-92.90132,50143,41.34245,-92.79893,Leighton,IA
1,10.213545336,KNOXVILLE HOSPITAL & CLINICS,1002 SOUTH LINCOLN STREET,KNOXVILLE,IA,50138,41.30246,-93.10534,50225,41.3823,-93.27103,Pleasantville,IA
1,12.298529374,GUTHRIE COUNTY HOSPITAL,710 NORTH 12TH STREET,GUTHRIE CENTER,IA,50115,41.68765,-94.55501,50048,41.51167,-94.51936,Casey,IA
1,10.652932797,GUTTENBERG MUNICIPAL HOSPITAL,200 MAIN STREET,GUTTENBERG,IA,52052,42.7411,-91.12083,52049,42.8823,-91.20521,Garnavillo,IA
1,8.065197113,VAN BUREN COUNTY HOSPITAL,304 FRANKLIN STREET,KEOSAUQUA,IA,52565,40.74005,-91.94332,52573,40.62378,-91.92979,Mount Sterling,IA
1,6.844511804,HAWARDEN REGIONAL HEALTHCARE,1111 11TH STREET,HAWARDEN,IA,51023,43.00893,-96.46845,51011,42.91562,-96.51388,Chatsworth,IA
1,0,GENESIS MEDICAL CENTER-DAVENPORT,1227 EAST RUSHOLME STREET,DAVENPORT,IA,52803,41.53871,-90.55623,52803,41.53871,-90.55623,Davenport,IA
1,7.914966400,"SARTORI MEMORIAL HOSPITAL, INC",515 COLLEGE STREET,CEDAR FALLS,IA,50613,42.53358,-92.49069,50647,42.64787,-92.48026,Janesville,IA
1,14.878814810,GRINNELL REGIONAL MEDICAL CENTER,210 FOURTH AVENUE,GRINNELL,IA,50112,41.7319,-92.71591,52339,41.92313,-92.58307,Tama,IA
1,11.401920277,GRINNELL REGIONAL MEDICAL CENTER,210 FOURTH AVENUE,GRINNELL,IA,50112,41.7319,-92.71591,50106,41.88213,-92.80749,Gilman,IA
1,0,JONES REGIONAL MEDICAL CENTER,1795 HIGHWAY 64 EAST,ANAMOSA,IA,52205,42.11754,-91.28806,52205,42.11754,-91.28806,Anamosa,IA
1,15.054685776,BURGESS HEALTH CENTER,1600 DIAMOND STREET,ONAWA,IA,51040,42.03073,-96.0706,51026,42.24857,-96.07592,Hornick,IA
1,7.925593238,OTTUMWA REGIONAL HEALTH CENTER,1001 E PENNSYLVANIA,OTTUMWA,IA,52501,41.03828,-92.43252,52530,40.98953,-92.29492,Agency,IA
1,10.058812144,KOSSUTH REGIONAL HEALTH CENTER,1515 SOUTH PHILLIPS STREET,ALGONA,IA,50511,43.07483,-94.21894,50560,42.95581,-94.1043,Lu Verne,IA
1,11.110252470,STORY COUNTY HOSPITAL,640 SOUTH 19TH STREET,NEVADA,IA,50201,42.03337,-93.44434,50278,42.1528,-93.29926,Zearing,IA
1,13.763916660,TRINITY REGIONAL MEDICAL CENTER,802 KENYON RD,FORT DODGE,IA,50501,42.49244,-94.18967,50586,42.40472,-94.43204,Somers,IA
1,5.774176307,BROADLAWNS MEDICAL CENTER,1801 HICKMAN ROAD,DES MOINES,IA,50314,41.6049,-93.63102,50322,41.63383,-93.73589,Urbandale,IA
1,5.774176307,MERCYONE DES MOINES MEDICAL CENTER,1111 6TH AVE,DES MOINES,IA,50314,41.6049,-93.63102,50322,41.63383,-93.73589,Urbandale,IA
1,15.701958208,KEOKUK COUNTY HEALTH CENTER,23019 HIGHWAY 149,SIGOURNEY,IA,52591,41.31988,-92.19465,50104,41.49458,-92.38841,Gibson,IA
1,5.716611043,MERCYONE WATERLOO MEDICAL CENTER,3421 WEST NINTH STREET,WATERLOO,IA,50702,42.45745,-92.31283,50634,42.4181,-92.21422,Gilbertville,IA
1,9.463233864,OSCEOLA COMMUNITY HOSPITAL,600 9TH AVENUE NORTH,SIBLEY,IA,51249,43.41068,-95.73203,51354,43.41267,-95.54352,Ocheyedan,IA
1,12.723726779,MONROE COUNTY HOSPITAL,6580 165TH STREET,ALBIA,IA,52531,41.02684,-92.81562,50044,41.20247,-92.88907,Bussey,IA
1,8.604544428,MERCYONE SIOUXLAND MEDICAL CENTER,801 5TH ST,SIOUX CITY,IA,51101,42.49413,-96.39361,51054,42.37832,-96.33159,Sergeant Bluff,IA
1,12.936323216,MITCHELL COUNTY REGIONAL HEALTH,616 NORTH EIGHTH STREET,OSAGE,IA,50461,43.29995,-92.81412,50426,43.41507,-93.01718,Carpenter,IA
1,11.258621845,MAHASKA  HEALTH PARTNERSHIP,1229 C AVENUE EAST,OSKALOOSA,IA,52577,41.27174,-92.6602,52586,41.34573,-92.46694,Rose Hill,IA
1,10.444710678,MARY GREELEY MEDICAL CENTER,1111 DUFF AVENUE,AMES,IA,50010,42.03316,-93.58761,50046,41.88974,-93.5234,Cambridge,IA
1,9.284194156,COMMUNITY MEMORIAL HOSPITAL MEDICAL CENTER,909 WEST FIRST STREET,SUMNER,IA,50674,42.84202,-92.11746,50630,42.95651,-92.21346,Fredericksburg,IA
1,11.030308405,KEOKUK COUNTY HEALTH CENTER,23019 HIGHWAY 149,SIGOURNEY,IA,52591,41.31988,-92.19465,52563,41.17295,-92.27765,Hedrick,IA
1,11.100627628,HUMBOLDT COUNTY MEMORIAL HOSPITAL,1000 NORTH 15TH STREET,HUMBOLDT,IA,50548,42.71275,-94.22645,50558,42.86717,-94.16607,Livermore,IA
1,11.082411418,GUNDERSEN PALMER LUTHERAN HOSPITAL AND CLINICS,112 JEFFERSON STREET,WEST UNION,IA,52175,42.99372,-91.82389,52133,43.10702,-91.66854,Castalia,IA
1,0,CHI HEALTH - MERCY CORNING,603 ROSARY DRIVE,CORNING,IA,50841,41.01147,-94.76342,50841,41.01147,-94.76342,Corning,IA
1,7.580253687,WAVERLY HEALTH CENTER,312  9TH STREET SW,WAVERLY,IA,50677,42.76363,-92.43775,50666,42.85995,-92.50933,Plainfield,IA
1,8.716251086,KEOKUK COUNTY HEALTH CENTER,23019 HIGHWAY 149,SIGOURNEY,IA,52591,41.31988,-92.19465,52550,41.31635,-92.36254,Delta,IA
1,8.554511928,VIRGINIA GAY HOSPITAL,502 NORTH 9TH AVENUE,VINTON,IA,52349,42.17246,-92.00566,52229,42.14609,-92.16884,Garrison,IA
1,13.125830833,BOONE COUNTY HOSPITAL,1015 UNION STREET,BOONE,IA,50036,42.0892,-93.85378,50156,41.90349,-93.80001,Madrid,IA
1,10.185406734,STEWART MEMORIAL COMMUNITY HOSPITAL,1301 WEST MAIN STREET,LAKE CITY,IA,51449,42.26614,-94.73475,50579,42.39356,-94.6345,Rockwell City,IA
1,12.093738199,KOSSUTH REGIONAL HEALTH CENTER,1515 SOUTH PHILLIPS STREET,ALGONA,IA,50511,43.07483,-94.21894,50519,42.90314,-94.26542,Bode,IA
1,10.060303862,CRAWFORD COUNTY MEMORIAL HOSPITAL,100 MEDICAL PARKWAY,DENISON,IA,51442,42.02696,-95.35915,51528,41.92724,-95.50185,Dow City,IA
1,14.396386612,MERCYONE NEWTON MEDICAL CENTER,204 N 4TH AVE E,NEWTON,IA,50208,41.71129,-93.03924,50234,41.89165,-93.17916,Rhodes,IA
1,8.681087972,ADAIR COUNTY MEMORIAL HOSPITAL,609 SE KENT,GREENFIELD,IA,50849,41.30004,-94.40176,50846,41.31081,-94.56839,Fontanelle,IA
1,12.215072444,DALLAS COUNTY HOSPITAL,610 TENTH STREET,PERRY,IA,50220,41.8366,-94.12293,50277,41.77867,-94.347,Yale,IA
1,11.468574556,LAKES REGIONAL HEALTHCARE,2301 HIGHWAY 71,SPIRIT LAKE,IA,51360,43.43626,-95.08556,51347,43.42547,-95.31363,Lake Park,IA
1,11.629501350,MERCYONE ELKADER MEDICAL CENTER,901 DAVIDSON STREET NW,ELKADER,IA,52043,42.84403,-91.42201,52042,42.68098,-91.36517,Edgewood,IA
1,13.042072999,STORY COUNTY HOSPITAL,640 SOUTH 19TH STREET,NEVADA,IA,50201,42.03337,-93.44434,50161,41.84764,-93.39914,Maxwell,IA
1,7.628010208,VIRGINIA GAY HOSPITAL,502 NORTH 9TH AVENUE,VINTON,IA,52349,42.17246,-92.00566,52313,42.25955,-92.09726,Mount Auburn,IA
1,7.241337182,MERCYONE OELWEIN MEDICAL CENTER,201 EIGHTH AVENUE SE,OELWEIN,IA,50662,42.68748,-91.93396,50671,42.6523,-91.7997,Stanley,IA
1,8.047485241,PALO ALTO COUNTY HOSPITAL,3201 1ST STREET,EMMETSBURG,IA,50536,43.11605,-94.69716,50528,43.13717,-94.54023,Cylinder,IA
1,20.256179843,GENESIS MEDICAL CENTER-DEWITT,1118 11TH STREET,DEWITT,IA,52742,41.83616,-90.51076,52765,41.72182,-90.87274,New Liberty,IA
1,0,"SARTORI MEMORIAL HOSPITAL, INC",515 COLLEGE STREET,CEDAR FALLS,IA,50613,42.53358,-92.49069,50613,42.53358,-92.49069,Cedar Falls,IA
1,7.394738224,TRINITY MUSCATINE,1518 MULBERRY AVENUE,MUSCATINE,IA,52761,41.43798,-91.05802,52749,41.34608,-91.13112,Fruitland,IA
1,13.656690345,HORN MEMORIAL HOSPITAL,701 E 2ND ST,IDA GROVE,IA,51445,42.32719,-95.46724,51018,42.44884,-95.67814,Cushing,IA
1,16.717328406,KNOXVILLE HOSPITAL & CLINICS,1002 SOUTH LINCOLN STREET,KNOXVILLE,IA,50138,41.30246,-93.10534,50166,41.28289,-93.42629,Milo,IA
1,8.974410545,CHEROKEE REGIONAL MEDICAL CENTER,300 SIOUX VALLEY DRIVE,CHEROKEE,IA,51012,42.74474,-95.56171,51049,42.63005,-95.64463,Quimby,IA
1,17.891986217,JONES REGIONAL MEDICAL CENTER,1795 HIGHWAY 64 EAST,ANAMOSA,IA,52205,42.11754,-91.28806,52337,41.88217,-91.14282,Stanwood,IA
1,11.425968044,WAYNE COUNTY HOSPITAL,417 SOUTH EAST STREET,CORYDON,IA,50060,40.75508,-93.31922,52590,40.6654,-93.13594,Seymour,IA
1,8.828107379,SIOUX CENTER HEALTH,1101 9TH STREET SE,SIOUX CENTER,IA,51250,43.08437,-96.21232,51239,43.20238,-96.14522,Hull,IA
1,11.931270041,TRINITY MUSCATINE,1518 MULBERRY AVENUE,MUSCATINE,IA,52761,41.43798,-91.05802,52720,41.59064,-91.16578,Atalissa,IA
1,14.793956454,FLOYD COUNTY MEDICAL CENTER,800 11TH ST,CHARLES CITY,IA,50616,43.07978,-92.66104,50636,42.89439,-92.80745,Greene,IA
1,12.975071742,WINNMED,901 MONTGOMERY STREET,DECORAH,IA,52101,43.35741,-91.76494,52132,43.2067,-91.91881,Calmar,IA
1,0,SOUTHEAST IOWA REGIONAL MEDICAL CENTER,1221 SOUTH GEAR AVENUE,WEST BURLINGTON,IA,52655,40.84768,-91.21174,52655,40.84768,-91.21174,West Burlington,IA
1,13.620130841,DALLAS COUNTY HOSPITAL,610 TENTH STREET,PERRY,IA,50220,41.8366,-94.12293,50063,41.69669,-93.93677,Dallas Center,IA
1,16.791131320,MADISON COUNTY HEALTH CARE SYSTEM,300 WEST HUTCHINGS STREET,WINTERSET,IA,50273,41.32838,-94.05606,50241,41.30771,-93.73368,Saint Marys,IA
1,11.300617130,COMPASS MEMORIAL HEALTHCARE,300 W MAY ST,MARENGO,IA,52301,41.78658,-92.09013,52208,41.88568,-92.26475,Belle Plaine,IA
1,11.105325730,HENRY COUNTY HEALTH CENTER,407 S WHITE ST,MOUNT PLEASANT,IA,52641,40.98799,-91.58531,52654,41.13581,-91.66898,Wayland,IA
1,9.787661752,HANCOCK COUNTY HEALTH SYSTEM,532 1ST ST NW,BRITT,IA,50423,43.11054,-93.81244,50438,43.11018,-93.61841,Garner,IA
1,12.126864053,UNITYPOINT HEALTH - MARSHALLTOWN,55 UNITYPOINT WAY,MARSHALLTOWN,IA,50158,42.05016,-92.90143,50162,41.92563,-93.06781,Melbourne,IA
1,9.469886225,VETERANS MEMORIAL HOSPITAL,40 1ST STREET SE,WAUKON,IA,52172,43.27117,-91.48382,52170,43.22886,-91.30485,Waterville,IA
1,15.067508940,UNITYPOINT HEALTH - DES MOINES IOWA METHODIST MEDI,1200 PLEASANT STREET,DES MOINES,IA,50309,41.58448,-93.62152,50038,41.52186,-93.90064,Booneville,IA
1,13.557491347,UNITYPOINT HEALTH - MARSHALLTOWN,55 UNITYPOINT WAY,MARSHALLTOWN,IA,50158,42.05016,-92.90143,50051,42.13875,-93.13736,Clemons,IA
1,12.706362076,BOONE COUNTY HOSPITAL,1015 UNION STREET,BOONE,IA,50036,42.0892,-93.85378,50249,42.26991,-93.89973,Stratford,IA
1,6.282045471,COMPASS MEMORIAL HEALTHCARE,300 W MAY ST,MARENGO,IA,52301,41.78658,-92.09013,52220,41.72661,-91.99853,Conroy,IA
1,9.664738377,"SARTORI MEMORIAL HOSPITAL, INC",515 COLLEGE STREET,CEDAR FALLS,IA,50613,42.53358,-92.49069,50624,42.46874,-92.65879,Dike,IA
1,16.099218788,CLARKE COUNTY HOSPITAL,800 S FILLMORE ST,OSCEOLA,IA,50213,41.03292,-93.76557,50254,40.99045,-94.06917,Thayer,IA
1,12.772388065,IOWA SPECIALTY HOSPITAL - BELMOND,403 FIRST STREET SE,BELMOND,IA,50421,42.84246,-93.62148,50479,42.94121,-93.4082,Thornton,IA
1,8.186133871,IOWA SPECIALTY HOSPITAL - BELMOND,403 FIRST STREET SE,BELMOND,IA,50421,42.84246,-93.62148,50457,42.91418,-93.4928,Meservey,IA
1,9.682858044,JEFFERSON COUNTY HEALTH CENTER,2000 S MAIN,FAIRFIELD,IA,52556,41.01842,-91.9264,52567,40.93174,-92.07224,Libertyville,IA
1,12.022085870,VETERANS MEMORIAL HOSPITAL,40 1ST STREET SE,WAUKON,IA,52172,43.27117,-91.48382,52140,43.44173,-91.53108,Dorchester,IA
1,12.402364979,HAWARDEN REGIONAL HEALTHCARE,1111 11TH STREET,HAWARDEN,IA,51023,43.00893,-96.46845,51001,42.83854,-96.54551,Akron,IA
1,15.781376854,BOONE COUNTY HOSPITAL,1015 UNION STREET,BOONE,IA,50036,42.0892,-93.85378,50530,42.27021,-94.04173,Dayton,IA
1,8.327885363,WAVERLY HEALTH CENTER,312  9TH STREET SW,WAVERLY,IA,50677,42.76363,-92.43775,50676,42.7943,-92.27895,Tripoli,IA
1,12.142283886,CRAWFORD COUNTY MEMORIAL HOSPITAL,100 MEDICAL PARKWAY,DENISON,IA,51442,42.02696,-95.35915,51439,42.08298,-95.58347,Charter Oak,IA
1,0,SIOUX CENTER HEALTH,1101 9TH STREET SE,SIOUX CENTER,IA,51250,43.08437,-96.21232,51250,43.08437,-96.21232,Sioux Center,IA
1,9.585503398,FLOYD VALLEY HEALTHCARE,714 LINCOLN ST NE,LE MARS,IA,51031,42.80282,-96.18092,51038,42.7056,-96.31569,Merrill,IA
1,26.129404863,KOSSUTH REGIONAL HEALTH CENTER,1515 SOUTH PHILLIPS STREET,ALGONA,IA,50511,43.07483,-94.21894,50556,43.45276,-94.20114,Ledyard,IA
1,12.929001937,MERCYONE DYERSVILLE MEDICAL CENTER,1111 3RD STREET SW,DYERSVILLE,IA,52040,42.51114,-91.13884,52237,42.34368,-91.25193,Hopkinton,IA
1,12.031185183,TRINITY REGIONAL MEDICAL CENTER,802 KENYON RD,FORT DODGE,IA,50501,42.49244,-94.18967,50557,42.35544,-94.04409,Lehigh,IA
1,10.416672992,DALLAS COUNTY HOSPITAL,610 TENTH STREET,PERRY,IA,50220,41.8366,-94.12293,50276,41.85997,-93.923,Woodward,IA
1,9.641669726,MERCYONE CENTERVILLE MEDICAL CENTER,ONE ST JOSEPH'S DRIVE,CENTERVILLE,IA,52544,40.71774,-92.90831,52593,40.77363,-92.73955,Udell,IA
1,11.589326793,POCAHONTAS COMMUNITY HOSPITAL,606 N W 7TH STREET,POCAHONTAS,IA,50574,42.71891,-94.69967,50573,42.8768,-94.62255,Plover,IA
1,15.767608951,UNITYPOINT HEALTH - DES MOINES IOWA METHODIST MEDI,1200 PLEASANT STREET,DES MOINES,IA,50309,41.58448,-93.62152,50160,41.37385,-93.7387,Martensdale,IA
1,9.319761025,HANCOCK COUNTY HEALTH SYSTEM,532 1ST ST NW,BRITT,IA,50423,43.11054,-93.81244,50483,43.11174,-93.99719,Wesley,IA
1,9.300438231,CRAWFORD COUNTY MEMORIAL HOSPITAL,100 MEDICAL PARKWAY,DENISON,IA,51442,42.02696,-95.35915,51465,42.08964,-95.19872,Vail,IA
1,6.189552990,WASHINGTON COUNTY HOSPITAL AND CLINICS,400 EAST POLK STREET,WASHINGTON,IA,52353,41.29923,-91.71596,52359,41.35428,-91.81006,West Chester,IA
1,13.668185334,GUTHRIE COUNTY HOSPITAL,710 NORTH 12TH STREET,GUTHRIE CENTER,IA,50115,41.68765,-94.55501,50058,41.85773,-94.69044,Coon Rapids,IA
1,11.842308058,POCAHONTAS COMMUNITY HOSPITAL,606 N W 7TH STREET,POCAHONTAS,IA,50574,42.71891,-94.69967,50581,42.84735,-94.54506,Rolfe,IA
1,11.171943351,JACKSON COUNTY REGIONAL HEALTH CENTER,700 W GROVE ST,MAQUOKETA,IA,52060,42.10217,-90.67961,52075,42.16577,-90.47916,Springbrook,IA
1,13.016360438,MARY GREELEY MEDICAL CENTER,1111 DUFF AVENUE,AMES,IA,50010,42.03316,-93.58761,50244,41.85083,-93.65126,Slater,IA
1,13.204880693,DECATUR COUNTY HOSPITAL,1405 NW CHURCH STREET,LEON,IA,50144,40.73327,-93.73615,50108,40.82479,-93.9577,Grand River,IA
1,6.697284530,TRINITY REGIONAL MEDICAL CENTER,802 KENYON RD,FORT DODGE,IA,50501,42.49244,-94.18967,50569,42.4032,-94.13841,Otho,IA
1,10.225234034,CLARKE COUNTY HOSPITAL,800 S FILLMORE ST,OSCEOLA,IA,50213,41.03292,-93.76557,50174,41.03723,-93.96167,Murray,IA
1,13.581998910,CASS COUNTY MEMORIAL HOSPITAL,1501 EAST TENTH STREET,ATLANTIC,IA,50022,41.41737,-95.00352,50843,41.24057,-94.88913,Cumberland,IA
1,0,CLARINDA REGIONAL HEALTH CENTER,220 ESSIE DAVISON DRIVE,CLARINDA,IA,51632,40.7478,-95.04939,51632,40.7478,-95.04939,Clarinda,IA
1,11.439738060,MYRTUE MEDICAL CENTER,1213 GARFIELD AVENUE,HARLAN,IA,51537,41.64646,-95.29531,51531,41.58751,-95.08837,Elk Horn,IA
1,10.190772636,MERCYONE SIOUXLAND MEDICAL CENTER,801 5TH ST,SIOUX CITY,IA,51101,42.49413,-96.39361,51030,42.49791,-96.19365,Lawton,IA
1,10.586278454,BOONE COUNTY HOSPITAL,1015 UNION STREET,BOONE,IA,50036,42.0892,-93.85378,50223,42.17117,-94.02831,Pilot Mound,IA
1,7.479115583,MONTGOMERY COUNTY MEMORIAL HOSPITAL,2301 EASTERN AVENUE,RED OAK,IA,51566,41.0151,-95.22994,51573,40.97949,-95.09451,Stanton,IA
1,11.604951982,AUDUBON COUNTY MEMORIAL HOSPITAL,515 PACIFIC AVENUE,AUDUBON,IA,50025,41.75628,-94.92034,50076,41.595,-94.8576,Exira,IA
1,8.013064116,ST LUKES HOSPITAL,1026 A AVE NE,CEDAR RAPIDS,IA,52402,42.02272,-91.66001,52324,42.06421,-91.80583,Palo,IA
1,13.495936082,BURGESS HEALTH CENTER,1600 DIAMOND STREET,ONAWA,IA,51040,42.03073,-96.0706,51545,41.83897,-96.02072,Little Sioux,IA
1,11.206598992,HUMBOLDT COUNTY MEMORIAL HOSPITAL,1000 NORTH 15TH STREET,HUMBOLDT,IA,50548,42.71275,-94.22645,50541,42.71569,-94.44715,Gilmore City,IA
1,12.960444485,OTTUMWA REGIONAL HEALTH CENTER,1001 E PENNSYLVANIA,OTTUMWA,IA,52501,41.03828,-92.43252,52554,40.92562,-92.23387,Eldon,IA
1,8.378468462,REGIONAL MEDICAL CENTER,709 W MAIN STREET,MANCHESTER,IA,52057,42.4916,-91.45333,52038,42.58586,-91.55685,Dundee,IA
1,8.734055120,GRUNDY COUNTY MEMORIAL HOSPITAL,201 EAST J AVENUE,GRUNDY CENTER,IA,50638,42.35654,-92.79495,50609,42.23066,-92.81046,Beaman,IA
1,10.203493215,JONES REGIONAL MEDICAL CENTER,1795 HIGHWAY 64 EAST,ANAMOSA,IA,52205,42.11754,-91.28806,52212,42.10954,-91.08929,Center Junction,IA
1,0,IOWA SPECIALTY HOSPITAL - CLARION,1316 SOUTH MAIN STREET,CLARION,IA,50525,42.73875,-93.74907,50525,42.73875,-93.74907,Clarion,IA
1,7.588684412,HUMBOLDT COUNTY MEMORIAL HOSPITAL,1000 NORTH 15TH STREET,HUMBOLDT,IA,50548,42.71275,-94.22645,50516,42.62566,-94.13545,Badger,IA
1,12.510844687,GREENE COUNTY MEDICAL CENTER,1000 WEST LINCOLN WAY,JEFFERSON,IA,50129,42.01335,-94.3764,50050,42.16459,-94.51054,Churdan,IA
1,9.503343660,SPENCER MUNICIPAL HOSPITAL,1200 1ST AVENUE EAST,SPENCER,IA,51301,43.15314,-95.14973,51343,43.01804,-95.11445,Greenville,IA
1,15.152050149,LUCAS COUNTY HEALTH CENTER,1200 NORTH 7TH STREET,CHARITON,IA,50049,41.03741,-93.29566,50145,41.20387,-93.48515,Liberty Center,IA
1,8.217570959,GREENE COUNTY MEDICAL CENTER,1000 WEST LINCOLN WAY,JEFFERSON,IA,50129,42.01335,-94.3764,50107,42.03547,-94.2191,Grand Junction,IA
1,8.292482800,FRANKLIN GENERAL HOSPITAL,1720 CENTRAL AVENUE EAST,HAMPTON,IA,50441,42.73938,-93.22146,50452,42.77969,-93.37542,Latimer,IA
1,10.159269633,IOWA SPECIALTY HOSPITAL - CLARION,1316 SOUTH MAIN STREET,CLARION,IA,50525,42.73875,-93.74907,50533,42.65251,-93.91109,Eagle Grove,IA
1,11.286916743,COMPASS MEMORIAL HEALTHCARE,300 W MAY ST,MARENGO,IA,52301,41.78658,-92.09013,52347,41.71345,-92.28591,Victor,IA
1,8.123099084,ST ANTHONY REGIONAL HOSPITAL & NURSING HOME,311 SOUTH CLARK STREET,CARROLL,IA,51401,42.06516,-94.87068,51430,42.0869,-95.02633,Arcadia,IA
1,12.175478900,STEWART MEMORIAL COMMUNITY HOSPITAL,1301 WEST MAIN STREET,LAKE CITY,IA,51449,42.26614,-94.73475,50561,42.42122,-94.84794,Lytton,IA
1,11.640462729,WAVERLY HEALTH CENTER,312  9TH STREET SW,WAVERLY,IA,50677,42.76363,-92.43775,50619,42.79725,-92.66266,Clarksville,IA
1,0,GUNDERSEN PALMER LUTHERAN HOSPITAL AND CLINICS,112 JEFFERSON STREET,WEST UNION,IA,52175,42.99372,-91.82389,52175,42.99372,-91.82389,West Union,IA
1,0,COMPASS MEMORIAL HEALTHCARE,300 W MAY ST,MARENGO,IA,52301,41.78658,-92.09013,52301,41.78658,-92.09013,Marengo,IA
1,12.944331528,TRINITY MUSCATINE,1518 MULBERRY AVENUE,MUSCATINE,IA,52761,41.43798,-91.05802,52759,41.46043,-90.80989,Montpelier,IA
1,7.535455375,FRANKLIN GENERAL HOSPITAL,1720 CENTRAL AVENUE EAST,HAMPTON,IA,50441,42.73938,-93.22146,50431,42.73648,-93.36989,Coulter,IA
1,10.498130940,GUNDERSEN PALMER LUTHERAN HOSPITAL AND CLINICS,112 JEFFERSON STREET,WEST UNION,IA,52175,42.99372,-91.82389,52141,42.93924,-91.63007,Elgin,IA
1,16.697455288,FRANKLIN GENERAL HOSPITAL,1720 CENTRAL AVENUE EAST,HAMPTON,IA,50441,42.73938,-93.22146,50649,42.66249,-92.90973,Kesley,IA
1,0,LUCAS COUNTY HEALTH CENTER,1200 NORTH 7TH STREET,CHARITON,IA,50049,41.03741,-93.29566,50049,41.03741,-93.29566,Chariton,IA
1,6.090874528,ALLEN HOSPITAL,1825 LOGAN AVENUE,WATERLOO,IA,50703,42.54817,-92.28195,50626,42.58028,-92.17049,Dunkerton,IA
1,15.070993617,SOUTHEAST IOWA REGIONAL MEDICAL CENTER,1221 SOUTH GEAR AVENUE,WEST BURLINGTON,IA,52655,40.84768,-91.21174,52656,40.73844,-91.4611,West Point,IA
1,10.269527794,HUMBOLDT COUNTY MEMORIAL HOSPITAL,1000 NORTH 15TH STREET,HUMBOLDT,IA,50548,42.71275,-94.22645,50524,42.59992,-94.35799,Clare,IA
1,15.282627530,STEWART MEMORIAL COMMUNITY HOSPITAL,1301 WEST MAIN STREET,LAKE CITY,IA,51449,42.26614,-94.73475,51450,42.31205,-95.02722,Lake View,IA
1,12.370099579,CHEROKEE REGIONAL MEDICAL CENTER,300 SIOUX VALLEY DRIVE,CHEROKEE,IA,51012,42.74474,-95.56171,51035,42.78086,-95.80054,Marcus,IA
1,0,OSCEOLA COMMUNITY HOSPITAL,600 9TH AVENUE NORTH,SIBLEY,IA,51249,43.41068,-95.73203,51249,43.41068,-95.73203,Sibley,IA
1,11.834121521,FLOYD VALLEY HEALTHCARE,714 LINCOLN ST NE,LE MARS,IA,51031,42.80282,-96.18092,51050,42.79545,-95.94772,Remsen,IA
1,14.307661739,JACKSON COUNTY REGIONAL HEALTH CENTER,700 W GROVE ST,MAQUOKETA,IA,52060,42.10217,-90.67961,52054,42.30569,-90.62811,La Motte,IA
1,21.967534470,JACKSON COUNTY REGIONAL HEALTH CENTER,700 W GROVE ST,MAQUOKETA,IA,52060,42.10217,-90.67961,52255,41.86294,-90.96129,Lowden,IA
1,7.249544031,MERCYONE DYERSVILLE MEDICAL CENTER,1111 3RD STREET SW,DYERSVILLE,IA,52040,42.51114,-91.13884,52056,42.60401,-91.07257,Luxemburg,IA
1,9.396315791,CHI HEALTH MISSOURI VALLEY,631 N 8TH ST,MISSOURI VALLEY,IA,51555,41.55937,-95.91398,51550,41.69203,-95.87399,Magnolia,IA
1,17.511210304,MERCYONE SIOUXLAND MEDICAL CENTER,801 5TH ST,SIOUX CITY,IA,51101,42.49413,-96.39361,51039,42.45655,-96.05381,Moville,IA
1,8.230705954,TRINITY - BETTENDORF,4500 UTICA RIDGE ROAD,BETTENDORF,IA,52722,41.56633,-90.4673,52748,41.66471,-90.55713,Eldridge,IA
1,11.571355773,TRINITY MUSCATINE,1518 MULBERRY AVENUE,MUSCATINE,IA,52761,41.43798,-91.05802,52754,41.34254,-91.24144,Letts,IA
1,8.385933270,POCAHONTAS COMMUNITY HOSPITAL,606 N W 7TH STREET,POCAHONTAS,IA,50574,42.71891,-94.69967,50571,42.63485,-94.5806,Palmer,IA
1,9.410132236,DAVIS COUNTY HOSPITAL,509 NORTH MADISON STREET,BLOOMFIELD,IA,52537,40.7355,-92.41426,52552,40.83552,-92.53633,Drakesville,IA
1,15.847428207,BURGESS HEALTH CENTER,1600 DIAMOND STREET,ONAWA,IA,51040,42.03073,-96.0706,51055,42.21162,-96.26069,Sloan,IA
1,8.293479697,VAN DIEST MEDICAL CENTER,2350 HOSPITAL DRIVE,WEBSTER CITY,IA,50595,42.46097,-93.82154,50599,42.58089,-93.81471,Woolstock,IA
1,8.369194032,GUNDERSEN PALMER LUTHERAN HOSPITAL AND CLINICS,112 JEFFERSON STREET,WEST UNION,IA,52175,42.99372,-91.82389,52135,43.01945,-91.66204,Clermont,IA
1,11.569432127,MYRTUE MEDICAL CENTER,1213 GARFIELD AVENUE,HARLAN,IA,51537,41.64646,-95.29531,51530,41.78247,-95.42613,Earling,IA
1,11.858906301,HORN MEMORIAL HOSPITAL,701 E 2ND ST,IDA GROVE,IA,51445,42.32719,-95.46724,51458,42.32141,-95.23524,Odebolt,IA
1,0,PELLA REGIONAL HEALTH CENTER,404 JEFFERSON STREET,PELLA,IA,50219,41.42243,-92.90132,50219,41.42243,-92.90132,Pella,IA
1,4.414617639,FLOYD VALLEY HEALTHCARE,714 LINCOLN ST NE,LE MARS,IA,51031,42.80282,-96.18092,51008,42.81127,-96.26724,Brunsville,IA
1,0,AUDUBON COUNTY MEMORIAL HOSPITAL,515 PACIFIC AVENUE,AUDUBON,IA,50025,41.75628,-94.92034,50025,41.75628,-94.92034,Audubon,IA
1,10.371441450,GEORGE C GRAPE COMMUNITY HOSPITAL,2959 US HIGHWAY 275,HAMBURG,IA,51640,40.62262,-95.6634,51652,40.77032,-95.62815,Sidney,IA
1,6.259865256,ADAIR COUNTY MEMORIAL HOSPITAL,609 SE KENT,GREENFIELD,IA,50849,41.30004,-94.40176,50858,41.20961,-94.40902,Orient,IA
1,13.381003455,MADISON COUNTY HEALTH CARE SYSTEM,300 WEST HUTCHINGS STREET,WINTERSET,IA,50273,41.32838,-94.05606,50069,41.52104,-94.02993,De Soto,IA
1,13.476177066,HANSEN FAMILY HOSPITAL,920 SOUTH OAK STREET,IOWA FALLS,IA,50126,42.50875,-93.24815,50627,42.34982,-93.095,Eldora,IA
1,6.558408091,GUTTENBERG MUNICIPAL HOSPITAL,200 MAIN STREET,GUTTENBERG,IA,52052,42.7411,-91.12083,52035,42.65996,-91.18784,Colesburg,IA
1,8.457427259,JONES REGIONAL MEDICAL CENTER,1795 HIGHWAY 64 EAST,ANAMOSA,IA,52205,42.11754,-91.28806,52310,42.21983,-91.19737,Monticello,IA
1,12.934262295,COMPASS MEMORIAL HEALTHCARE,300 W MAY ST,MARENGO,IA,52301,41.78658,-92.09013,52232,41.80128,-92.34043,Hartwick,IA
1,10.360654525,DAVIS COUNTY HOSPITAL,509 NORTH MADISON STREET,BLOOMFIELD,IA,52537,40.7355,-92.41426,52584,40.65273,-92.24936,Pulaski,IA
1,13.581328923,UNIVERSITY OF IOWA HOSPITAL & CLINICS,200 HAWKINS DRIVE,IOWA CITY,IA,52242,41.66195,-91.54317,52247,41.51503,-91.71774,Kalona,IA
1,8.159734347,"SARTORI MEMORIAL HOSPITAL, INC",515 COLLEGE STREET,CEDAR FALLS,IA,50613,42.53358,-92.49069,50660,42.58099,-92.63752,New Hartford,IA
1,8.884393941,MAHASKA  HEALTH PARTNERSHIP,1229 C AVENUE EAST,OSKALOOSA,IA,52577,41.27174,-92.6602,52543,41.20065,-92.51773,Cedar,IA
1,0,TRINITY REGIONAL MEDICAL CENTER,802 KENYON RD,FORT DODGE,IA,50501,42.49244,-94.18967,50501,42.49244,-94.18967,Fort Dodge,IA
1,14.615611140,MERCYONE ELKADER MEDICAL CENTER,901 DAVIDSON STREET NW,ELKADER,IA,52043,42.84403,-91.42201,52156,43.05316,-91.46534,Luana,IA
1,15.516616896,GENESIS MEDICAL CENTER-DAVENPORT,1227 EAST RUSHOLME STREET,DAVENPORT,IA,52803,41.53871,-90.55623,52769,41.60836,-90.8416,Stockton,IA
1,10.590043328,GUTHRIE COUNTY HOSPITAL,710 NORTH 12TH STREET,GUTHRIE CENTER,IA,50115,41.68765,-94.55501,50216,41.69798,-94.35023,Panora,IA
1,14.775428193,KOSSUTH REGIONAL HEALTH CENTER,1515 SOUTH PHILLIPS STREET,ALGONA,IA,50511,43.07483,-94.21894,50480,43.25097,-94.05272,Titonka,IA
1,16.020586930,REGIONAL HEALTH SERVICES OF HOWARD COUNTY,235 8TH AVENUE WEST,CRESCO,IA,52136,43.37139,-92.11289,52134,43.47156,-92.40078,Chester,IA
1,12.225230938,JEFFERSON COUNTY HEALTH CENTER,2000 S MAIN,FAIRFIELD,IA,52556,41.01842,-91.9264,52585,41.18902,-91.98863,Richland,IA
1,7.825533116,RINGGOLD COUNTY HOSPITAL,504 NORTH CLEVELAND STREET,MOUNT AYR,IA,50854,40.69089,-94.21977,50835,40.70769,-94.3675,Benton,IA
1,7.065467575,MERCY MEDICAL CENTER - CEDAR RAPIDS,701 10TH STREET SE,CEDAR RAPIDS,IA,52403,41.96813,-91.57964,52314,41.93439,-91.44985,Mount Vernon,IA
1,11.390116084,WAYNE COUNTY HOSPITAL,417 SOUTH EAST STREET,CORYDON,IA,50060,40.75508,-93.31922,50123,40.83938,-93.50634,Humeston,IA
1,14.907478710,CHI HEALTH - MERCY CORNING,603 ROSARY DRIVE,CORNING,IA,50841,41.01147,-94.76342,50862,40.81304,-94.65136,Sharpsburg,IA
1,6.062768491,OTTUMWA REGIONAL HEALTH CENTER,1001 E PENNSYLVANIA,OTTUMWA,IA,52501,41.03828,-92.43252,52548,41.0855,-92.5306,Chillicothe,IA
1,9.204202650,MERCYONE ELKADER MEDICAL CENTER,901 DAVIDSON STREET NW,ELKADER,IA,52043,42.84403,-91.42201,52047,42.96401,-91.34301,Farmersburg,IA
1,10.899063560,JONES REGIONAL MEDICAL CENTER,1795 HIGHWAY 64 EAST,ANAMOSA,IA,52205,42.11754,-91.28806,52320,41.99997,-91.14643,Olin,IA
1,5.875919567,REGIONAL MEDICAL CENTER,709 W MAIN STREET,MANCHESTER,IA,52057,42.4916,-91.45333,52036,42.47285,-91.34086,Delaware,IA
1,11.949516244,GRUNDY COUNTY MEMORIAL HOSPITAL,201 EAST J AVENUE,GRUNDY CENTER,IA,50638,42.35654,-92.79495,50635,42.19886,-92.69896,Gladbrook,IA
1,9.912321512,TRINITY REGIONAL MEDICAL CENTER,802 KENYON RD,FORT DODGE,IA,50501,42.49244,-94.18967,50518,42.51212,-94.38241,Barnum,IA
1,11.073024389,METHODIST JENNIE EDMUNDSON,933 EAST PIERCE STREET,COUNCIL BLUFFS,IA,51503,41.2304,-95.77795,51526,41.37186,-95.87818,Crescent,IA
1,11.073024389,CHI HEALTH MERCY COUNCIL BLUFFS,800 MERCY DRIVE,COUNCIL BLUFFS,IA,51503,41.2304,-95.77795,51526,41.37186,-95.87818,Crescent,IA
1,11.679422153,MERCYONE CENTERVILLE MEDICAL CENTER,ONE ST JOSEPH'S DRIVE,CENTERVILLE,IA,52544,40.71774,-92.90831,52572,40.67795,-92.69163,Moulton,IA
1,11.778370775,CLARKE COUNTY HOSPITAL,800 S FILLMORE ST,OSCEOLA,IA,50213,41.03292,-93.76557,50257,41.19092,-93.85048,Truro,IA
1,9.878432298,MITCHELL COUNTY REGIONAL HEALTH,616 NORTH EIGHTH STREET,OSAGE,IA,50461,43.29995,-92.81412,50471,43.16486,-92.87834,Rudd,IA
1,12.610865583,AUDUBON COUNTY MEMORIAL HOSPITAL,515 PACIFIC AVENUE,AUDUBON,IA,50025,41.75628,-94.92034,51455,41.90829,-95.0559,Manning,IA
1,15.559014566,RINGGOLD COUNTY HOSPITAL,504 NORTH CLEVELAND STREET,MOUNT AYR,IA,50854,40.69089,-94.21977,50840,40.79378,-94.48413,Clearfield,IA
1,7.831181414,MARY GREELEY MEDICAL CENTER,1111 DUFF AVENUE,AMES,IA,50010,42.03316,-93.58761,50134,41.93992,-93.67429,Kelley,IA
1,0,DAVIS COUNTY HOSPITAL,509 NORTH MADISON STREET,BLOOMFIELD,IA,52537,40.7355,-92.41426,52537,40.7355,-92.41426,Bloomfield,IA
1,14.057743374,JACKSON COUNTY REGIONAL HEALTH CENTER,700 W GROVE ST,MAQUOKETA,IA,52060,42.10217,-90.67961,52031,42.24874,-90.48922,Bellevue,IA
1,11.330231522,LUCAS COUNTY HEALTH CENTER,1200 NORTH 7TH STREET,CHARITON,IA,50049,41.03741,-93.29566,50139,41.19237,-93.36683,Lacona,IA
1,0,VIRGINIA GAY HOSPITAL,502 NORTH 9TH AVENUE,VINTON,IA,52349,42.17246,-92.00566,52349,42.17246,-92.00566,Vinton,IA
1,6.497076172,SHENANDOAH MEDICAL CENTER,300 PERSHING AVENUE,SHENANDOAH,IA,51601,40.72938,-95.35037,51639,40.71859,-95.47362,Farragut,IA
1,12.567025419,MERCYONE CLINTON MEDICAL CENTER,1410 NORTH 4TH STREET,CLINTON,IA,52732,41.90126,-90.25083,52070,42.08146,-90.21771,Sabula,IA
1,12.510919226,DECATUR COUNTY HOSPITAL,1405 NW CHURCH STREET,LEON,IA,50144,40.73327,-93.73615,50147,40.62381,-93.54597,Lineville,IA
1,13.072037077,CASS COUNTY MEMORIAL HOSPITAL,1501 EAST TENTH STREET,ATLANTIC,IA,50022,41.41737,-95.00352,50020,41.43364,-94.75215,Anita,IA
1,0,SHENANDOAH MEDICAL CENTER,300 PERSHING AVENUE,SHENANDOAH,IA,51601,40.72938,-95.35037,51601,40.72938,-95.35037,Shenandoah,IA
1,18.096459163,GEORGE C GRAPE COMMUNITY HOSPITAL,2959 US HIGHWAY 275,HAMBURG,IA,51640,40.62262,-95.6634,51653,40.88444,-95.67179,Tabor,IA
1,9.854364690,GRUNDY COUNTY MEMORIAL HOSPITAL,201 EAST J AVENUE,GRUNDY CENTER,IA,50638,42.35654,-92.79495,50621,42.24738,-92.91904,Conrad,IA
1,9.053446759,PALO ALTO COUNTY HOSPITAL,3201 1ST STREET,EMMETSBURG,IA,50536,43.11605,-94.69716,51342,43.24359,-94.73832,Graettinger,IA
1,13.831522301,MERCYONE DES MOINES MEDICAL CENTER,1111 6TH AVE,DES MOINES,IA,50314,41.6049,-93.63102,50226,41.79716,-93.70566,Polk City,IA
1,13.831522301,BROADLAWNS MEDICAL CENTER,1801 HICKMAN ROAD,DES MOINES,IA,50314,41.6049,-93.63102,50226,41.79716,-93.70566,Polk City,IA
1,10.247131321,CLARINDA REGIONAL HEALTH CENTER,220 ESSIE DAVISON DRIVE,CLARINDA,IA,51632,40.7478,-95.04939,51631,40.60267,-95.00918,Braddyville,IA
1,15.102340682,SPENCER MUNICIPAL HOSPITAL,1200 1ST AVENUE EAST,SPENCER,IA,51301,43.15314,-95.14973,51366,42.96008,-95.0095,Webb,IA
1,6.965738463,LAKES REGIONAL HEALTHCARE,2301 HIGHWAY 71,SPIRIT LAKE,IA,51360,43.43626,-95.08556,51363,43.43363,-94.94678,Superior,IA
1,11.651466109,FRANKLIN GENERAL HOSPITAL,1720 CENTRAL AVENUE EAST,HAMPTON,IA,50441,42.73938,-93.22146,50605,42.83559,-93.03276,Aredale,IA
1,13.409684850,VAN DIEST MEDICAL CENTER,2350 HOSPITAL DRIVE,WEBSTER CITY,IA,50595,42.46097,-93.82154,50130,42.30074,-93.67331,Jewell,IA
1,11.795077021,KEOKUK COUNTY HEALTH CENTER,23019 HIGHWAY 149,SIGOURNEY,IA,52591,41.31988,-92.19465,50255,41.45593,-92.33207,Thornburg,IA
1,12.985437355,JACKSON COUNTY REGIONAL HEALTH CENTER,700 W GROVE ST,MAQUOKETA,IA,52060,42.10217,-90.67961,52079,42.28781,-90.71908,Zwingle,IA
1,8.982614717,GENESIS MEDICAL CENTER-DEWITT,1118 11TH STREET,DEWITT,IA,52742,41.83616,-90.51076,52751,41.8519,-90.68398,Grand Mound,IA
1,7.185742262,CHEROKEE REGIONAL MEDICAL CENTER,300 SIOUX VALLEY DRIVE,CHEROKEE,IA,51012,42.74474,-95.56171,51005,42.72044,-95.42405,Aurelia,IA
1,12.586904094,GREATER REGIONAL MEDICAL CENTER,1700 WEST TOWNLINE STREET,CRESTON,IA,50801,41.07959,-94.39224,50831,40.94938,-94.22341,Arispe,IA
1,12.643200006,HORN MEMORIAL HOSPITAL,701 E 2ND ST,IDA GROVE,IA,51445,42.32719,-95.46724,51025,42.4973,-95.55853,Holstein,IA
1,3.827322576,SOUTHEAST IOWA REGIONAL MEDICAL CENTER,1221 SOUTH GEAR AVENUE,WEST BURLINGTON,IA,52655,40.84768,-91.21174,52638,40.79864,-91.24577,Middletown,IA
1,11.701886916,GRINNELL REGIONAL MEDICAL CENTER,210 FOURTH AVENUE,GRINNELL,IA,50112,41.7319,-92.71591,50242,41.56332,-92.69428,Searsboro,IA
1,9.524732458,UNITYPOINT HEALTH - DES MOINES IOWA METHODIST MEDI,1200 PLEASANT STREET,DES MOINES,IA,50309,41.58448,-93.62152,50211,41.45614,-93.6887,Norwalk,IA
1,11.580523959,GUNDERSEN PALMER LUTHERAN HOSPITAL AND CLINICS,112 JEFFERSON STREET,WEST UNION,IA,52175,42.99372,-91.82389,52142,42.82752,-91.79441,Fayette,IA
1,11.293950580,PALO ALTO COUNTY HOSPITAL,3201 1ST STREET,EMMETSBURG,IA,50536,43.11605,-94.69716,50515,43.01993,-94.87812,Ayrshire,IA
1,11.330793213,OTTUMWA REGIONAL HEALTH CENTER,1001 E PENNSYLVANIA,OTTUMWA,IA,52501,41.03828,-92.43252,52536,40.95291,-92.61802,Blakesburg,IA
1,10.948834102,MERCYONE WATERLOO MEDICAL CENTER,3421 WEST NINTH STREET,WATERLOO,IA,50702,42.45745,-92.31283,50651,42.32271,-92.19993,La Porte City,IA
1,13.958052913,CHEROKEE REGIONAL MEDICAL CENTER,300 SIOUX VALLEY DRIVE,CHEROKEE,IA,51012,42.74474,-95.56171,51061,42.57983,-95.72036,Washta,IA
1,5.379018301,ORANGE CITY AREA HEALTH SYSTEM,1000 LINCOLN CIRCLE SE,ORANGE CITY,IA,51041,43.02443,-96.07701,51003,42.98355,-95.98642,Alton,IA
1,8.531899593,ST ANTHONY REGIONAL HOSPITAL & NURSING HOME,311 SOUTH CLARK STREET,CARROLL,IA,51401,42.06516,-94.87068,51443,42.07748,-94.70517,Glidden,IA
1,11.026858259,MERCYONE ELKADER MEDICAL CENTER,901 DAVIDSON STREET NW,ELKADER,IA,52043,42.84403,-91.42201,52076,42.69805,-91.50984,Strawberry Point,IA
1,12.328065379,TRINITY MUSCATINE,1518 MULBERRY AVENUE,MUSCATINE,IA,52761,41.43798,-91.05802,52778,41.61115,-91.00066,Wilton,IA
1,19.197732374,MERCYONE SIOUXLAND MEDICAL CENTER,801 5TH ST,SIOUX CITY,IA,51101,42.49413,-96.39361,51015,42.33936,-96.08107,Climbing Hill,IA
1,11.933631112,VIRGINIA GAY HOSPITAL,502 NORTH 9TH AVENUE,VINTON,IA,52349,42.17246,-92.00566,52315,42.00181,-91.96985,Newhall,IA
1,9.491020880,GUTHRIE COUNTY HOSPITAL,710 NORTH 12TH STREET,GUTHRIE CENTER,IA,50115,41.68765,-94.55501,50029,41.82497,-94.55075,Bayard,IA
1,12.855122076,MERCY MEDICAL CENTER-NEW HAMPTON,308 NORTH MAPLE AVENUE,NEW HAMPTON,IA,50659,43.08749,-92.3221,50628,43.26655,-92.39134,Elma,IA
1,6.262782291,MERCYONE OELWEIN MEDICAL CENTER,201 EIGHTH AVENUE SE,OELWEIN,IA,50662,42.68748,-91.93396,50641,42.59746,-91.91961,Hazleton,IA
1,17.271779522,HANSEN FAMILY HOSPITAL,920 SOUTH OAK STREET,IOWA FALLS,IA,50126,42.50875,-93.24815,50230,42.30655,-93.44718,Radcliffe,IA
1,11.094915318,LUCAS COUNTY HEALTH CENTER,1200 NORTH 7TH STREET,CHARITON,IA,50049,41.03741,-93.29566,50068,40.94229,-93.46704,Derby,IA
1,15.904135299,VAN DIEST MEDICAL CENTER,2350 HOSPITAL DRIVE,WEBSTER CITY,IA,50595,42.46097,-93.82154,50075,42.33516,-93.56054,Ellsworth,IA
1,13.189530239,MERCYONE NEWTON MEDICAL CENTER,204 N 4TH AVE E,NEWTON,IA,50208,41.71129,-93.03924,50170,41.52911,-93.11546,Monroe,IA
1,21.394276803,HANCOCK COUNTY HEALTH SYSTEM,532 1ST ST NW,BRITT,IA,50423,43.11054,-93.81244,50424,43.40366,-93.94939,Buffalo Center,IA
1,13.699677395,UNIVERSITY OF IOWA HEALTH CARE MEDICAL CENTER DOWN,500 E MARKET STREET,IOWA CITY,IA,52245,41.67071,-91.50666,52755,41.48015,-91.43349,Lone Tree,IA
1,18.238174446,MERCYONE ELKADER MEDICAL CENTER,901 DAVIDSON STREET NW,ELKADER,IA,52043,42.84403,-91.42201,52158,43.04388,-91.18647,Marquette,IA
1,14.712001571,MADISON COUNTY HEALTH CARE SYSTEM,300 WEST HUTCHINGS STREET,WINTERSET,IA,50273,41.32838,-94.05606,50229,41.37416,-93.77906,Prole,IA
1,11.044575271,BUCHANAN COUNTY HEALTH CENTER,1600 FIRST ST EAST,INDEPENDENCE,IA,50644,42.47751,-91.89721,52210,42.33905,-92.00537,Brandon,IA
1,9.584809642,DECATUR COUNTY HOSPITAL,1405 NW CHURCH STREET,LEON,IA,50144,40.73327,-93.73615,50262,40.85625,-93.82091,Van Wert,IA
1,9.057438217,WASHINGTON COUNTY HOSPITAL AND CLINICS,400 EAST POLK STREET,WASHINGTON,IA,52353,41.29923,-91.71596,52201,41.33218,-91.54704,Ainsworth,IA
1,11.528206967,UNIVERSITY OF IOWA HOSPITAL & CLINICS,200 HAWKINS DRIVE,IOWA CITY,IA,52242,41.66195,-91.54317,52322,41.69221,-91.76284,Oxford,IA
1,7.857075715,HANSEN FAMILY HOSPITAL,920 SOUTH OAK STREET,IOWA FALLS,IA,50126,42.50875,-93.24815,50006,42.51354,-93.40227,Alden,IA
1,10.892616827,POCAHONTAS COMMUNITY HOSPITAL,606 N W 7TH STREET,POCAHONTAS,IA,50574,42.71891,-94.69967,50540,42.60019,-94.8407,Fonda,IA
1,5.673272331,MERCYONE ELKADER MEDICAL CENTER,901 DAVIDSON STREET NW,ELKADER,IA,52043,42.84403,-91.42201,52072,42.92022,-91.38025,Saint Olaf,IA
1,13.941156498,CRAWFORD COUNTY MEMORIAL HOSPITAL,100 MEDICAL PARKWAY,DENISON,IA,51442,42.02696,-95.35915,51432,41.91009,-95.13795,Aspinwall,IA
1,11.653460625,COMPASS MEMORIAL HEALTHCARE,300 W MAY ST,MARENGO,IA,52301,41.78658,-92.09013,52236,41.73143,-91.87647,Homestead,IA
1,13.065368678,BURGESS HEALTH CENTER,1600 DIAMOND STREET,ONAWA,IA,51040,42.03073,-96.0706,51051,42.20443,-95.96988,Rodney,IA
1,10.263027165,MARY GREELEY MEDICAL CENTER,1111 DUFF AVENUE,AMES,IA,50010,42.03316,-93.58761,50124,41.88516,-93.60446,Huxley,IA
1,7.769714447,COMPASS MEMORIAL HEALTHCARE,300 W MAY ST,MARENGO,IA,52301,41.78658,-92.09013,52251,41.71218,-92.20314,Ladora,IA
1,9.686503677,JACKSON COUNTY REGIONAL HEALTH CENTER,700 W GROVE ST,MAQUOKETA,IA,52060,42.10217,-90.67961,52037,41.96712,-90.62899,Delmar,IA
1,13.956891130,BOONE COUNTY HOSPITAL,1015 UNION STREET,BOONE,IA,50036,42.0892,-93.85378,50040,42.17363,-94.10121,Boxholm,IA
1,9.344745043,MERCYONE NEWTON MEDICAL CENTER,204 N 4TH AVE E,NEWTON,IA,50208,41.71129,-93.03924,50137,41.60872,-92.92126,Killduff,IA
1,0,BOONE COUNTY HOSPITAL,1015 UNION STREET,BOONE,IA,50036,42.0892,-93.85378,50036,42.0892,-93.85378,Boone,IA
1,14.355610928,HUMBOLDT COUNTY MEMORIAL HOSPITAL,1000 NORTH 15TH STREET,HUMBOLDT,IA,50548,42.71275,-94.22645,50570,42.89359,-94.36585,Ottosen,IA
1,10.007264958,TRINITY - BETTENDORF,4500 UTICA RIDGE ROAD,BETTENDORF,IA,52722,41.56633,-90.4673,52768,41.69906,-90.38977,Princeton,IA
1,7.441003126,MERCYONE CENTERVILLE MEDICAL CENTER,ONE ST JOSEPH'S DRIVE,CENTERVILLE,IA,52544,40.71774,-92.90831,52549,40.61392,-92.94602,Cincinnati,IA
1,20.310279941,HANCOCK COUNTY HEALTH SYSTEM,532 1ST ST NW,BRITT,IA,50423,43.11054,-93.81244,50478,43.40377,-93.78448,Thompson,IA
1,11.359299071,GREENE COUNTY MEDICAL CENTER,1000 WEST LINCOLN WAY,JEFFERSON,IA,50129,42.01335,-94.3764,50026,41.85823,-94.44958,Bagley,IA
1,13.621442311,KOSSUTH REGIONAL HEALTH CENTER,1515 SOUTH PHILLIPS STREET,ALGONA,IA,50511,43.07483,-94.21894,50597,42.97379,-94.45048,West Bend,IA
1,7.576375111,GUNDERSEN PALMER LUTHERAN HOSPITAL AND CLINICS,112 JEFFERSON STREET,WEST UNION,IA,52175,42.99372,-91.82389,52147,42.94957,-91.96106,Hawkeye,IA
1,15.332164743,KNOXVILLE HOSPITAL & CLINICS,1002 SOUTH LINCOLN STREET,KNOXVILLE,IA,50138,41.30246,-93.10534,50252,41.45881,-93.31518,Swan,IA
1,23.164658895,HORN MEMORIAL HOSPITAL,701 E 2ND ST,IDA GROVE,IA,51445,42.32719,-95.46724,51004,42.3762,-95.916,Anthon,IA
1,0,CRAWFORD COUNTY MEMORIAL HOSPITAL,100 MEDICAL PARKWAY,DENISON,IA,51442,42.02696,-95.35915,51442,42.02696,-95.35915,Denison,IA
1,10.527768607,COMPASS MEMORIAL HEALTHCARE,300 W MAY ST,MARENGO,IA,52301,41.78658,-92.09013,52354,41.91883,-91.98856,Watkins,IA
1,17.563044045,CHI HEALTH MERCY COUNCIL BLUFFS,800 MERCY DRIVE,COUNCIL BLUFFS,IA,51503,41.2304,-95.77795,51553,41.41577,-95.54638,Minden,IA
1,17.563044045,METHODIST JENNIE EDMUNDSON,933 EAST PIERCE STREET,COUNCIL BLUFFS,IA,51503,41.2304,-95.77795,51553,41.41577,-95.54638,Minden,IA
1,12.470659904,MERCYONE WATERLOO MEDICAL CENTER,3421 WEST NINTH STREET,WATERLOO,IA,50702,42.45745,-92.31283,50612,42.28546,-92.38687,Buckingham,IA
1,20.871486846,COMPASS MEMORIAL HEALTHCARE,300 W MAY ST,MARENGO,IA,52301,41.78658,-92.09013,52348,41.99331,-92.38597,Vining,IA
1,12.600749956,DALLAS COUNTY HOSPITAL,610 TENTH STREET,PERRY,IA,50220,41.8366,-94.12293,50146,41.68038,-94.24905,Linden,IA
1,11.411559919,CLARKE COUNTY HOSPITAL,800 S FILLMORE ST,OSCEOLA,IA,50213,41.03292,-93.76557,50210,41.18998,-93.6978,New Virginia,IA
1,9.970084943,PELLA REGIONAL HEALTH CENTER,404 JEFFERSON STREET,PELLA,IA,50219,41.42243,-92.90132,50232,41.55761,-92.96868,Reasnor,IA
1,10.917593432,LUCAS COUNTY HEALTH CENTER,1200 NORTH 7TH STREET,CHARITON,IA,50049,41.03741,-93.29566,50151,41.08074,-93.49717,Lucas,IA
1,9.175169465,MERCYONE NORTH IOWA MEDICAL CENTER,1000 FOURTH STREET SW,MASON CITY,IA,50401,43.15389,-93.20006,50464,43.25146,-93.0765,Plymouth,IA
1,9.369534279,STEWART MEMORIAL COMMUNITY HOSPITAL,1301 WEST MAIN STREET,LAKE CITY,IA,51449,42.26614,-94.73475,51453,42.26366,-94.55155,Lohrville,IA
1,12.891287593,ADAIR COUNTY MEMORIAL HOSPITAL,609 SE KENT,GREENFIELD,IA,50849,41.30004,-94.40176,50250,41.48088,-94.34062,Stuart,IA
1,13.584786414,GREATER REGIONAL MEDICAL CENTER,1700 WEST TOWNLINE STREET,CRESTON,IA,50801,41.07959,-94.39224,50861,40.91163,-94.25685,Shannon City,IA
1,14.595179669,CHI HEALTH - MERCY CORNING,603 ROSARY DRIVE,CORNING,IA,50841,41.01147,-94.76342,50847,41.14168,-94.98405,Grant,IA
1,10.408903569,AUDUBON COUNTY MEMORIAL HOSPITAL,515 PACIFIC AVENUE,AUDUBON,IA,50025,41.75628,-94.92034,51543,41.65792,-95.07317,Kimballton,IA
1,13.000885766,MITCHELL COUNTY REGIONAL HEALTH,616 NORTH EIGHTH STREET,OSAGE,IA,50461,43.29995,-92.81412,50440,43.33213,-93.06891,Grafton,IA
1,10.035176739,BUENA VISTA REGIONAL MEDICAL CENTER,1525 WEST 5TH STREET,STORM LAKE,IA,50588,42.65777,-95.16391,50576,42.80267,-95.17727,Rembrandt,IA
1,10.933180148,POCAHONTAS COMMUNITY HOSPITAL,606 N W 7TH STREET,POCAHONTAS,IA,50574,42.71891,-94.69967,50593,42.65796,-94.89832,Varina,IA
1,11.276489393,MERCYONE DYERSVILLE MEDICAL CENTER,1111 3RD STREET SW,DYERSVILLE,IA,52040,42.51114,-91.13884,52045,42.45485,-90.93113,Epworth,IA
1,6.401071558,MARY GREELEY MEDICAL CENTER,1111 DUFF AVENUE,AMES,IA,50010,42.03316,-93.58761,50105,42.11754,-93.63912,Gilbert,IA
1,8.190338862,BURGESS HEALTH CENTER,1600 DIAMOND STREET,ONAWA,IA,51040,42.03073,-96.0706,51523,41.9122,-96.07172,Blencoe,IA
1,9.250001503,UNIVERSITY OF IOWA HEALTH CARE MEDICAL CENTER DOWN,500 E MARKET STREET,IOWA CITY,IA,52245,41.67071,-91.50666,52333,41.80376,-91.48685,Solon,IA
1,7.311854267,MERCYONE PRIMGHAR MEDICAL CENTER,255 N WELCH AVENUE,PRIMGHAR,IA,51245,43.07788,-95.60149,51231,43.10567,-95.74131,Archer,IA
1,0,CHEROKEE REGIONAL MEDICAL CENTER,300 SIOUX VALLEY DRIVE,CHEROKEE,IA,51012,42.74474,-95.56171,51012,42.74474,-95.56171,Cherokee,IA
1,14.992555952,CLARINDA REGIONAL HEALTH CENTER,220 ESSIE DAVISON DRIVE,CLARINDA,IA,51632,40.7478,-95.04939,50848,40.78685,-94.76758,Gravity,IA
1,11.847152474,HORN MEMORIAL HOSPITAL,701 E 2ND ST,IDA GROVE,IA,51445,42.32719,-95.46724,51448,42.20238,-95.30839,Kiron,IA
1,9.696192641,REGIONAL HEALTH SERVICES OF HOWARD COUNTY,235 8TH AVENUE WEST,CRESCO,IA,52136,43.37139,-92.11289,52155,43.41412,-92.29683,Lime Springs,IA
1,9.995343592,TRINITY REGIONAL MEDICAL CENTER,802 KENYON RD,FORT DODGE,IA,50501,42.49244,-94.18967,50594,42.58561,-94.03949,Vincent,IA
1,0,KOSSUTH REGIONAL HEALTH CENTER,1515 SOUTH PHILLIPS STREET,ALGONA,IA,50511,43.07483,-94.21894,50511,43.07483,-94.21894,Algona,IA
1,6.199139327,BROADLAWNS MEDICAL CENTER,1801 HICKMAN ROAD,DES MOINES,IA,50314,41.6049,-93.63102,50032,41.66591,-93.54301,Berwick,IA
1,6.199139327,MERCYONE DES MOINES MEDICAL CENTER,1111 6TH AVE,DES MOINES,IA,50314,41.6049,-93.63102,50032,41.66591,-93.54301,Berwick,IA
1,10.654856570,AVERA HOLY FAMILY HOSPITAL,826 NORTH 8TH STREET,ESTHERVILLE,IA,51334,43.40379,-94.80698,51364,43.2993,-94.96293,Terril,IA
1,10.110181562,TRINITY REGIONAL MEDICAL CENTER,802 KENYON RD,FORT DODGE,IA,50501,42.49244,-94.18967,50523,42.36783,-94.29357,Callender,IA
1,17.132542614,STEWART MEMORIAL COMMUNITY HOSPITAL,1301 WEST MAIN STREET,LAKE CITY,IA,51449,42.26614,-94.73475,50583,42.43049,-94.98595,Sac City,IA
1,0,AVERA MERRILL PIONEER HOSPITAL,1100 S 10TH AVE,ROCK RAPIDS,IA,51246,43.42764,-96.16564,51246,43.42764,-96.16564,Rock Rapids,IA
1,17.492467241,HENRY COUNTY HEALTH CENTER,407 S WHITE ST,MOUNT PLEASANT,IA,52641,40.98799,-91.58531,52640,41.09649,-91.28205,Morning Sun,IA
1,10.153725533,BUENA VISTA REGIONAL MEDICAL CENTER,1525 WEST 5TH STREET,STORM LAKE,IA,50588,42.65777,-95.16391,50567,42.52146,-95.08935,Nemaha,IA
1,0,LAKES REGIONAL HEALTHCARE,2301 HIGHWAY 71,SPIRIT LAKE,IA,51360,43.43626,-95.08556,51360,43.43626,-95.08556,Spirit Lake,IA
1,7.467444302,SPENCER MUNICIPAL HOSPITAL,1200 1ST AVENUE EAST,SPENCER,IA,51301,43.15314,-95.14973,51333,43.1324,-95.00437,Dickens,IA
1,6.927350542,AUDUBON COUNTY MEMORIAL HOSPITAL,515 PACIFIC AVENUE,AUDUBON,IA,50025,41.75628,-94.92034,50117,41.66903,-94.85419,Hamlin,IA
1,0,REGIONAL MEDICAL CENTER,709 W MAIN STREET,MANCHESTER,IA,52057,42.4916,-91.45333,52057,42.4916,-91.45333,Manchester,IA
1,13.768762179,HORN MEMORIAL HOSPITAL,701 E 2ND ST,IDA GROVE,IA,51445,42.32719,-95.46724,51019,42.2721,-95.72615,Danbury,IA
1,5.787928714,DALLAS COUNTY HOSPITAL,610 TENTH STREET,PERRY,IA,50220,41.8366,-94.12293,50066,41.8051,-94.22708,Dawson,IA
1,7.414771934,MYRTUE MEDICAL CENTER,1213 GARFIELD AVENUE,HARLAN,IA,51537,41.64646,-95.29531,51447,41.72101,-95.19196,Kirkman,IA
1,13.229083524,TRINITY MUSCATINE,1518 MULBERRY AVENUE,MUSCATINE,IA,52761,41.43798,-91.05802,52752,41.27465,-91.1911,Grandview,IA
1,9.064686585,HUMBOLDT COUNTY MEMORIAL HOSPITAL,1000 NORTH 15TH STREET,HUMBOLDT,IA,50548,42.71275,-94.22645,50591,42.67683,-94.05478,Thor,IA
1,9.266776920,CLARINDA REGIONAL HEALTH CENTER,220 ESSIE DAVISON DRIVE,CLARINDA,IA,51632,40.7478,-95.04939,51646,40.75315,-94.8725,New Market,IA
1,7.489426419,SOUTHEAST IOWA REGIONAL MEDICAL CENTER,1221 SOUTH GEAR AVENUE,WEST BURLINGTON,IA,52655,40.84768,-91.21174,52650,40.94782,-91.15687,Sperry,IA
1,14.850507048,MERCYONE NORTH IOWA MEDICAL CENTER,1000 FOURTH STREET SW,MASON CITY,IA,50401,43.15389,-93.20006,50434,43.25857,-93.45758,Fertile,IA
1,0,VETERANS MEMORIAL HOSPITAL,40 1ST STREET SE,WAUKON,IA,52172,43.27117,-91.48382,52172,43.27117,-91.48382,Waukon,IA
1,15.245199018,UNITYPOINT HEALTH - MARSHALLTOWN,55 UNITYPOINT WAY,MARSHALLTOWN,IA,50158,42.05016,-92.90143,50258,42.22781,-93.07788,Union,IA
1,11.108387066,UNITYPOINT HEALTH - MARSHALLTOWN,55 UNITYPOINT WAY,MARSHALLTOWN,IA,50158,42.05016,-92.90143,50173,41.97461,-92.71044,Montour,IA
1,9.318573213,MERCYONE NEWTON MEDICAL CENTER,204 N 4TH AVE E,NEWTON,IA,50208,41.71129,-93.03924,50028,41.81729,-93.15102,Baxter,IA
1,19.184855472,KEOKUK COUNTY HEALTH CENTER,23019 HIGHWAY 149,SIGOURNEY,IA,52591,41.31988,-92.19465,52222,41.57623,-92.33693,Deep River,IA
1,6.453713510,UNITYPOINT HEALTH - DES MOINES IOWA METHODIST MEDI,1200 PLEASANT STREET,DES MOINES,IA,50309,41.58448,-93.62152,50265,41.55129,-93.73821,West Des Moines,IA
1,0,MERCYONE OELWEIN MEDICAL CENTER,201 EIGHTH AVENUE SE,OELWEIN,IA,50662,42.68748,-91.93396,50662,42.68748,-91.93396,Oelwein,IA
1,13.827207098,VAN BUREN COUNTY HOSPITAL,304 FRANKLIN STREET,KEOSAUQUA,IA,52565,40.74005,-91.94332,52626,40.63201,-91.72119,Farmington,IA
1,14.034944411,TRINITY REGIONAL MEDICAL CENTER,802 KENYON RD,FORT DODGE,IA,50501,42.49244,-94.18967,50552,42.45638,-94.46068,Knierim,IA
1,0,GEORGE C GRAPE COMMUNITY HOSPITAL,2959 US HIGHWAY 275,HAMBURG,IA,51640,40.62262,-95.6634,51640,40.62262,-95.6634,Hamburg,IA
1,13.615471255,ST LUKES HOSPITAL,1026 A AVE NE,CEDAR RAPIDS,IA,52402,42.02272,-91.66001,52351,41.87496,-91.83529,Walford,IA
1,8.279444750,RINGGOLD COUNTY HOSPITAL,504 NORTH CLEVELAND STREET,MOUNT AYR,IA,50854,40.69089,-94.21977,50860,40.62253,-94.34949,Redding,IA
1,7.737395528,JACKSON COUNTY REGIONAL HEALTH CENTER,700 W GROVE ST,MAQUOKETA,IA,52060,42.10217,-90.67961,52207,42.09286,-90.83,Baldwin,IA
1,0,ADAIR COUNTY MEMORIAL HOSPITAL,609 SE KENT,GREENFIELD,IA,50849,41.30004,-94.40176,50849,41.30004,-94.40176,Greenfield,IA
1,0,WINNMED,901 MONTGOMERY STREET,DECORAH,IA,52101,43.35741,-91.76494,52101,43.35741,-91.76494,Decorah,IA
1,9.440593827,ST LUKES HOSPITAL,1026 A AVE NE,CEDAR RAPIDS,IA,52402,42.02272,-91.66001,52202,42.15836,-91.63792,Alburnett,IA
1,12.924172868,UNIVERSITY OF IOWA HOSPITAL & CLINICS,200 HAWKINS DRIVE,IOWA CITY,IA,52242,41.66195,-91.54317,52327,41.477,-91.58046,Riverside,IA
1,11.795370501,DAVIS COUNTY HOSPITAL,509 NORTH MADISON STREET,BLOOMFIELD,IA,52537,40.7355,-92.41426,52560,40.85491,-92.25312,Floris,IA
1,4.221746737,BROADLAWNS MEDICAL CENTER,1801 HICKMAN ROAD,DES MOINES,IA,50314,41.6049,-93.63102,50324,41.60471,-93.71273,Windsor Heights,IA
1,4.221746737,MERCYONE DES MOINES MEDICAL CENTER,1111 6TH AVE,DES MOINES,IA,50314,41.6049,-93.63102,50324,41.60471,-93.71273,Windsor Heights,IA
1,13.801152045,ADAIR COUNTY MEMORIAL HOSPITAL,609 SE KENT,GREENFIELD,IA,50849,41.30004,-94.40176,50164,41.49921,-94.42176,Menlo,IA
1,10.206983130,TRINITY MUSCATINE,1518 MULBERRY AVENUE,MUSCATINE,IA,52761,41.43798,-91.05802,52760,41.58255,-91.09853,Moscow,IA
1,13.630191310,MITCHELL COUNTY REGIONAL HEALTH,616 NORTH EIGHTH STREET,OSAGE,IA,50461,43.29995,-92.81412,50455,43.45695,-92.64981,McIntire,IA
1,9.162829244,BUCHANAN COUNTY HEALTH CENTER,1600 FIRST ST EAST,INDEPENDENCE,IA,50644,42.47751,-91.89721,52326,42.39513,-91.75641,Quasqueton,IA
1,13.173927958,MERCYONE NORTH IOWA MEDICAL CENTER,1000 FOURTH STREET SW,MASON CITY,IA,50401,43.15389,-93.20006,50477,42.98743,-93.32731,Swaledale,IA
1,15.448465720,JACKSON COUNTY REGIONAL HEALTH CENTER,700 W GROVE ST,MAQUOKETA,IA,52060,42.10217,-90.67961,52032,42.29006,-90.84317,Bernard,IA
1,13.035775569,BURGESS HEALTH CENTER,1600 DIAMOND STREET,ONAWA,IA,51040,42.03073,-96.0706,51558,41.91497,-95.87023,Moorhead,IA
1,13.780635917,UNITYPOINT HEALTH - MARSHALLTOWN,55 UNITYPOINT WAY,MARSHALLTOWN,IA,50158,42.05016,-92.90143,50247,42.01832,-93.1665,State Center,IA
1,16.409322276,BUENA VISTA REGIONAL MEDICAL CENTER,1525 WEST 5TH STREET,STORM LAKE,IA,50588,42.65777,-95.16391,50565,42.86118,-94.99698,Marathon,IA
1,14.793880179,CASS COUNTY MEMORIAL HOSPITAL,1501 EAST TENTH STREET,ATLANTIC,IA,50022,41.41737,-95.00352,51535,41.2264,-95.13241,Griswold,IA
1,19.440796924,TRINITY MUSCATINE,1518 MULBERRY AVENUE,MUSCATINE,IA,52761,41.43798,-91.05802,52653,41.16642,-91.15597,Wapello,IA
1,1.445941016,HUMBOLDT COUNTY MEMORIAL HOSPITAL,1000 NORTH 15TH STREET,HUMBOLDT,IA,50548,42.71275,-94.22645,50529,42.72216,-94.20101,Dakota City,IA
1,12.864767962,SHENANDOAH MEDICAL CENTER,300 PERSHING AVENUE,SHENANDOAH,IA,51601,40.72938,-95.35037,51649,40.8518,-95.53565,Randolph,IA
1,5.455012274,LAKES REGIONAL HEALTHCARE,2301 HIGHWAY 71,SPIRIT LAKE,IA,51360,43.43626,-95.08556,51331,43.36431,-95.13028,Arnolds Park,IA
1,0,HEGG MEMORIAL HEALTH CENTER,1202 21ST AVENUE,ROCK VALLEY,IA,51247,43.19259,-96.33723,51247,43.19259,-96.33723,Rock Valley,IA
1,12.067167382,SHENANDOAH MEDICAL CENTER,300 PERSHING AVENUE,SHENANDOAH,IA,51601,40.72938,-95.35037,51630,40.60101,-95.19427,Blanchard,IA
1,12.579461633,CHI HEALTH MISSOURI VALLEY,631 N 8TH ST,MISSOURI VALLEY,IA,51555,41.55937,-95.91398,51557,41.72903,-96.00233,Mondamin,IA
1,6.871931063,UNITYPOINT HEALTH - DES MOINES IOWA METHODIST MEDI,1200 PLEASANT STREET,DES MOINES,IA,50309,41.58448,-93.62152,50327,41.58402,-93.48856,Pleasant Hill,IA
1,8.506915147,KEOKUK COUNTY HEALTH CENTER,23019 HIGHWAY 149,SIGOURNEY,IA,52591,41.31988,-92.19465,52576,41.21337,-92.1125,Ollie,IA
1,10.829698791,CASS COUNTY MEMORIAL HOSPITAL,1501 EAST TENTH STREET,ATLANTIC,IA,50022,41.41737,-95.00352,51577,41.4644,-95.20296,Walnut,IA
1,8.532643059,REGIONAL MEDICAL CENTER,709 W MAIN STREET,MANCHESTER,IA,52057,42.4916,-91.45333,52223,42.41315,-91.32408,Delhi,IA
1,11.085653347,JEFFERSON COUNTY HEALTH CENTER,2000 S MAIN,FAIRFIELD,IA,52556,41.01842,-91.9264,52580,41.12039,-92.09069,Packwood,IA
1,0,JEFFERSON COUNTY HEALTH CENTER,2000 S MAIN,FAIRFIELD,IA,52556,41.01842,-91.9264,52556,41.01842,-91.9264,Fairfield,IA
1,10.703828712,KNOXVILLE HOSPITAL & CLINICS,1002 SOUTH LINCOLN STREET,KNOXVILLE,IA,50138,41.30246,-93.10534,50116,41.17812,-92.98247,Hamilton,IA
1,7.147658345,UNITYPOINT HEALTH - MARSHALLTOWN,55 UNITYPOINT WAY,MARSHALLTOWN,IA,50158,42.05016,-92.90143,50142,42.0055,-92.77582,Le Grand,IA
1,6.925563477,GEORGE C GRAPE COMMUNITY HOSPITAL,2959 US HIGHWAY 275,HAMBURG,IA,51640,40.62262,-95.6634,51650,40.673,-95.5492,Riverton,IA
1,17.595872302,UNITYPOINT HEALTH - MARSHALLTOWN,55 UNITYPOINT WAY,MARSHALLTOWN,IA,50158,42.05016,-92.90143,52342,42.05047,-92.55849,Toledo,IA
1,17.495962835,WASHINGTON COUNTY HOSPITAL AND CLINICS,400 EAST POLK STREET,WASHINGTON,IA,52353,41.29923,-91.71596,52738,41.2736,-91.38072,Columbus Junction,IA
1,6.419000700,ST ANTHONY REGIONAL HOSPITAL & NURSING HOME,311 SOUTH CLARK STREET,CARROLL,IA,51401,42.06516,-94.87068,51444,42.01228,-94.97352,Halbur,IA
1,11.464018487,KEOKUK COUNTY HEALTH CENTER,23019 HIGHWAY 149,SIGOURNEY,IA,52591,41.31988,-92.19465,50136,41.46984,-92.28927,Keswick,IA
1,0,MAHASKA  HEALTH PARTNERSHIP,1229 C AVENUE EAST,OSKALOOSA,IA,52577,41.27174,-92.6602,52577,41.27174,-92.6602,Oskaloosa,IA
1,7.999322995,GRINNELL REGIONAL MEDICAL CENTER,210 FOURTH AVENUE,GRINNELL,IA,50112,41.7319,-92.71591,50157,41.74545,-92.56183,Malcom,IA
1,0,CHI HEALTH MERCY COUNCIL BLUFFS,800 MERCY DRIVE,COUNCIL BLUFFS,IA,51503,41.2304,-95.77795,51503,41.2304,-95.77795,Council Bluffs,IA
1,0,METHODIST JENNIE EDMUNDSON,933 EAST PIERCE STREET,COUNCIL BLUFFS,IA,51503,41.2304,-95.77795,51503,41.2304,-95.77795,Council Bluffs,IA
1,9.308726241,MERCYONE NORTH IOWA MEDICAL CENTER,1000 FOURTH STREET SW,MASON CITY,IA,50401,43.15389,-93.20006,50456,43.28812,-93.21579,Manly,IA
1,10.732167662,HORN MEMORIAL HOSPITAL,701 E 2ND ST,IDA GROVE,IA,51445,42.32719,-95.46724,51461,42.172,-95.47579,Schleswig,IA
1,15.632060790,HENRY COUNTY HEALTH CENTER,407 S WHITE ST,MOUNT PLEASANT,IA,52641,40.98799,-91.58531,52657,40.76784,-91.5164,Saint Paul,IA
1,13.081870320,HORN MEMORIAL HOSPITAL,701 E 2ND ST,IDA GROVE,IA,51445,42.32719,-95.46724,51020,42.51215,-95.41249,Galva,IA
1,12.495590729,RINGGOLD COUNTY HOSPITAL,504 NORTH CLEVELAND STREET,MOUNT AYR,IA,50854,40.69089,-94.21977,50140,40.63753,-93.99198,Lamoni,IA
1,7.064381403,COMMUNITY MEMORIAL HOSPITAL MEDICAL CENTER,909 WEST FIRST STREET,SUMNER,IA,50674,42.84202,-92.11746,50681,42.77754,-92.00931,Westgate,IA
1,11.576416055,GRINNELL REGIONAL MEDICAL CENTER,210 FOURTH AVENUE,GRINNELL,IA,50112,41.7319,-92.71591,50153,41.57669,-92.80033,Lynnville,IA
1,10.451601621,AUDUBON COUNTY MEMORIAL HOSPITAL,515 PACIFIC AVENUE,AUDUBON,IA,50025,41.75628,-94.92034,51463,41.90743,-94.91265,Templeton,IA
1,8.350352368,BUENA VISTA REGIONAL MEDICAL CENTER,1525 WEST 5TH STREET,STORM LAKE,IA,50588,42.65777,-95.16391,51002,42.69859,-95.31863,Alta,IA
1,11.059602308,RINGGOLD COUNTY HOSPITAL,504 NORTH CLEVELAND STREET,MOUNT AYR,IA,50854,40.69089,-94.21977,50863,40.84701,-94.17318,Tingley,IA
1,16.009769863,COMPASS MEMORIAL HEALTHCARE,300 W MAY ST,MARENGO,IA,52301,41.78658,-92.09013,52221,41.64151,-92.33215,Guernsey,IA
1,11.568267324,GENESIS MEDICAL CENTER-DEWITT,1118 11TH STREET,DEWITT,IA,52742,41.83616,-90.51076,52746,41.71945,-90.67172,Donahue,IA
1,10.343130495,UNITYPOINT HEALTH - MARSHALLTOWN,55 UNITYPOINT WAY,MARSHALLTOWN,IA,50158,42.05016,-92.90143,50632,42.07667,-92.70299,Garwin,IA
1,11.931372719,KEOKUK COUNTY HEALTH CENTER,23019 HIGHWAY 149,SIGOURNEY,IA,52591,41.31988,-92.19465,52335,41.45935,-92.05895,South English,IA
1,14.066730477,MERCYONE DES MOINES MEDICAL CENTER,1111 6TH AVE,DES MOINES,IA,50314,41.6049,-93.63102,50073,41.79234,-93.52463,Elkhart,IA
1,14.066730477,BROADLAWNS MEDICAL CENTER,1801 HICKMAN ROAD,DES MOINES,IA,50314,41.6049,-93.63102,50073,41.79234,-93.52463,Elkhart,IA
1,13.030549327,GUTHRIE COUNTY HOSPITAL,710 NORTH 12TH STREET,GUTHRIE CENTER,IA,50115,41.68765,-94.55501,50002,41.51236,-94.64801,Adair,IA
1,13.992081310,MONTGOMERY COUNTY MEMORIAL HOSPITAL,2301 EASTERN AVENUE,RED OAK,IA,51566,41.0151,-95.22994,51540,41.02488,-95.49802,Hastings,IA
1,8.724316002,VAN BUREN COUNTY HOSPITAL,304 FRANKLIN STREET,KEOSAUQUA,IA,52565,40.74005,-91.94332,52535,40.86533,-91.96407,Birmingham,IA
1,11.436215717,WASHINGTON COUNTY HOSPITAL AND CLINICS,400 EAST POLK STREET,WASHINGTON,IA,52353,41.29923,-91.71596,52621,41.20821,-91.53209,Crawfordsville,IA
1,17.041655713,MAHASKA  HEALTH PARTNERSHIP,1229 C AVENUE EAST,OSKALOOSA,IA,52577,41.27174,-92.6602,50027,41.4739,-92.47194,Barnes City,IA
1,13.384223349,MERCYONE CLINTON MEDICAL CENTER,1410 NORTH 4TH STREET,CLINTON,IA,52732,41.90126,-90.25083,52064,42.08977,-90.31076,Miles,IA
1,12.386331543,VAN DIEST MEDICAL CENTER,2350 HOSPITAL DRIVE,WEBSTER CITY,IA,50595,42.46097,-93.82154,50246,42.28411,-93.78198,Stanhope,IA
1,6.400521359,FLOYD COUNTY MEDICAL CENTER,800 11TH ST,CHARLES CITY,IA,50616,43.07978,-92.66104,50620,43.15712,-92.5912,Colwell,IA
1,7.410075718,SHENANDOAH MEDICAL CENTER,300 PERSHING AVENUE,SHENANDOAH,IA,51601,40.72938,-95.35037,51636,40.66713,-95.23519,Coin,IA
1,0,GRINNELL REGIONAL MEDICAL CENTER,210 FOURTH AVENUE,GRINNELL,IA,50112,41.7319,-92.71591,50112,41.7319,-92.71591,Grinnell,IA
1,14.150542873,MARY GREELEY MEDICAL CENTER,1111 DUFF AVENUE,AMES,IA,50010,42.03316,-93.58761,50231,42.23765,-93.60257,Randall,IA
1,8.324768957,GENESIS MEDICAL CENTER-DEWITT,1118 11TH STREET,DEWITT,IA,52742,41.83616,-90.51076,52757,41.80337,-90.3552,Low Moor,IA
1,9.360320158,HEGG MEMORIAL HEALTH CENTER,1202 21ST AVENUE,ROCK VALLEY,IA,51247,43.19259,-96.33723,51235,43.29488,-96.21531,Doon,IA
1,9.099278453,DALLAS COUNTY HOSPITAL,610 TENTH STREET,PERRY,IA,50220,41.8366,-94.12293,50128,41.85173,-94.29853,Jamaica,IA
1,14.833694563,STORY COUNTY HOSPITAL,640 SOUTH 19TH STREET,NEVADA,IA,50201,42.03337,-93.44434,50102,42.24554,-93.40022,Garden City,IA
1,9.565313794,MERCYONE NORTH IOWA MEDICAL CENTER,1000 FOURTH STREET SW,MASON CITY,IA,50401,43.15389,-93.20006,50428,43.13573,-93.38815,Clear Lake,IA
1,6.774354543,VIRGINIA GAY HOSPITAL,502 NORTH 9TH AVENUE,VINTON,IA,52349,42.17246,-92.00566,52345,42.22239,-91.89177,Urbana,IA
1,7.776823387,LUCAS COUNTY HEALTH CENTER,1200 NORTH 7TH STREET,CHARITON,IA,50049,41.03741,-93.29566,50238,40.97124,-93.17502,Russell,IA
1,18.799336949,MONTGOMERY COUNTY MEMORIAL HOSPITAL,2301 EASTERN AVENUE,RED OAK,IA,51566,41.0151,-95.22994,51551,40.99129,-95.58907,Malvern,IA
1,2.613517365,MAHASKA  HEALTH PARTNERSHIP,1229 C AVENUE EAST,OSKALOOSA,IA,52577,41.27174,-92.6602,52595,41.28847,-92.61506,University Park,IA
1,7.805314899,SANFORD SHELDON MEDICAL CENTER,118 NORTH 7TH AVENUE,SHELDON,IA,51201,43.18331,-95.8657,51234,43.19412,-96.01992,Boyden,IA
1,18.097836441,MONTGOMERY COUNTY MEMORIAL HOSPITAL,2301 EASTERN AVENUE,RED OAK,IA,51566,41.0151,-95.22994,51525,41.23443,-95.41999,Carson,IA
1,5.451158659,SANFORD SHELDON MEDICAL CENTER,118 NORTH 7TH AVENUE,SHELDON,IA,51201,43.18331,-95.8657,51244,43.2443,-95.93436,Matlock,IA
1,0,WAYNE COUNTY HOSPITAL,417 SOUTH EAST STREET,CORYDON,IA,50060,40.75508,-93.31922,50060,40.75508,-93.31922,Corydon,IA
1,0,AVERA HOLY FAMILY HOSPITAL,826 NORTH 8TH STREET,ESTHERVILLE,IA,51334,43.40379,-94.80698,51334,43.40379,-94.80698,Estherville,IA
1,15.711037306,CHI HEALTH - MERCY CORNING,603 ROSARY DRIVE,CORNING,IA,50841,41.01147,-94.76342,50853,41.23869,-94.77455,Massena,IA
1,8.440728332,PELLA REGIONAL HEALTH CENTER,404 JEFFERSON STREET,PELLA,IA,50219,41.42243,-92.90132,50214,41.46246,-93.05528,Otley,IA
1,0,MERCYONE NEWTON MEDICAL CENTER,204 N 4TH AVE E,NEWTON,IA,50208,41.71129,-93.03924,50208,41.71129,-93.03924,Newton,IA
1,5.563750076,CLARINDA REGIONAL HEALTH CENTER,220 ESSIE DAVISON DRIVE,CLARINDA,IA,51632,40.7478,-95.04939,51656,40.73527,-95.15437,Yorktown,IA
1,9.281169826,AVERA MERRILL PIONEER HOSPITAL,1100 S 10TH AVE,ROCK RAPIDS,IA,51246,43.42764,-96.16564,51230,43.3562,-96.32217,Alvord,IA
1,5.039156266,BUENA VISTA REGIONAL MEDICAL CENTER,1525 WEST 5TH STREET,STORM LAKE,IA,50588,42.65777,-95.16391,50592,42.72927,-95.18345,Truesdale,IA
1,12.299747316,JONES REGIONAL MEDICAL CENTER,1795 HIGHWAY 64 EAST,ANAMOSA,IA,52205,42.11754,-91.28806,52214,42.19056,-91.50704,Central City,IA
1,1.065760932,MAHASKA  HEALTH PARTNERSHIP,1229 C AVENUE EAST,OSKALOOSA,IA,52577,41.27174,-92.6602,52534,41.27342,-92.6806,Beacon,IA
1,5.028411732,MERCY MEDICAL CENTER - CEDAR RAPIDS,701 10TH STREET SE,CEDAR RAPIDS,IA,52403,41.96813,-91.57964,52227,41.89647,-91.5626,Ely,IA
1,11.962523497,MYRTUE MEDICAL CENTER,1213 GARFIELD AVENUE,HARLAN,IA,51537,41.64646,-95.29531,51562,41.72591,-95.50128,Panama,IA
1,8.826387436,BURGESS HEALTH CENTER,1600 DIAMOND STREET,ONAWA,IA,51040,42.03073,-96.0706,51010,42.09309,-95.92044,Castana,IA
1,0,JACKSON COUNTY REGIONAL HEALTH CENTER,700 W GROVE ST,MAQUOKETA,IA,52060,42.10217,-90.67961,52060,42.10217,-90.67961,Maquoketa,IA
1,10.635001971,JACKSON COUNTY REGIONAL HEALTH CENTER,700 W GROVE ST,MAQUOKETA,IA,52060,42.10217,-90.67961,52074,42.10966,-90.4724,Spragueville,IA
1,8.450107042,CHI HEALTH MISSOURI VALLEY,631 N 8TH ST,MISSOURI VALLEY,IA,51555,41.55937,-95.91398,51556,41.63548,-96.04198,Modale,IA
1,18.743808328,WAVERLY HEALTH CENTER,312  9TH STREET SW,WAVERLY,IA,50677,42.76363,-92.43775,50602,42.74036,-92.80581,Allison,IA
1,0,FRANKLIN GENERAL HOSPITAL,1720 CENTRAL AVENUE EAST,HAMPTON,IA,50441,42.73938,-93.22146,50441,42.73938,-93.22146,Hampton,IA
1,19.961552022,JONES REGIONAL MEDICAL CENTER,1795 HIGHWAY 64 EAST,ANAMOSA,IA,52205,42.11754,-91.28806,52216,41.89321,-91.0431,Clarence,IA
1,8.267438426,MERCY MEDICAL CENTER-NEW HAMPTON,308 NORTH MAPLE AVENUE,NEW HAMPTON,IA,50659,43.08749,-92.3221,52154,43.12201,-92.16519,Lawler,IA
1,7.618539890,GUNDERSEN PALMER LUTHERAN HOSPITAL AND CLINICS,112 JEFFERSON STREET,WEST UNION,IA,52175,42.99372,-91.82389,52166,43.06791,-91.93547,Saint Lucas,IA
1,10.404127788,HENRY COUNTY HEALTH CENTER,407 S WHITE ST,MOUNT PLEASANT,IA,52641,40.98799,-91.58531,52649,40.83827,-91.60647,Salem,IA
1,15.001985227,VIRGINIA GAY HOSPITAL,502 NORTH 9TH AVENUE,VINTON,IA,52349,42.17246,-92.00566,52224,42.16386,-92.29836,Dysart,IA
1,11.444131642,UNITYPOINT HEALTH - DES MOINES IOWA METHODIST MEDI,1200 PLEASANT STREET,DES MOINES,IA,50309,41.58448,-93.62152,50061,41.48022,-93.79343,Cumming,IA
1,7.534981560,SANFORD SHELDON MEDICAL CENTER,118 NORTH 7TH AVENUE,SHELDON,IA,51201,43.18331,-95.8657,51238,43.0758,-95.89071,Hospers,IA
1,8.045342530,MERCYONE NEWTON MEDICAL CENTER,204 N 4TH AVE E,NEWTON,IA,50208,41.71129,-93.03924,50135,41.7475,-92.89096,Kellogg,IA
1,8.657899809,AVERA MERRILL PIONEER HOSPITAL,1100 S 10TH AVE,ROCK RAPIDS,IA,51246,43.42764,-96.16564,51242,43.43227,-96.33806,Lester,IA
1,11.252637685,PALO ALTO COUNTY HOSPITAL,3201 1ST STREET,EMMETSBURG,IA,50536,43.11605,-94.69716,50527,42.96899,-94.79288,Curlew,IA
1,16.525599208,TRINITY REGIONAL MEDICAL CENTER,802 KENYON RD,FORT DODGE,IA,50501,42.49244,-94.18967,50544,42.2537,-94.17042,Harcourt,IA
1,14.121210473,DAVIS COUNTY HOSPITAL,509 NORTH MADISON STREET,BLOOMFIELD,IA,52537,40.7355,-92.41426,52594,40.83561,-92.64957,Unionville,IA
1,10.684339602,ST LUKES HOSPITAL,1026 A AVE NE,CEDAR RAPIDS,IA,52402,42.02272,-91.66001,52228,41.90282,-91.79132,Fairfax,IA
1,14.338752090,MERCYONE NORTH IOWA MEDICAL CENTER,1000 FOURTH STREET SW,MASON CITY,IA,50401,43.15389,-93.20006,50468,43.04631,-92.95703,Rockford,IA
1,16.055906318,DALLAS COUNTY HOSPITAL,610 TENTH STREET,PERRY,IA,50220,41.8366,-94.12293,50003,41.61192,-94.04352,Adel,IA
1,0,MERCYONE DUBUQUE MEDICAL CENTER,250 MERCY DRIVE,DUBUQUE,IA,52001,42.54819,-90.69348,52001,42.54819,-90.69348,Dubuque,IA
1,0,FINLEY HOSPITAL,350 NORTH GRANDVIEW AVENUE,DUBUQUE,IA,52001,42.54819,-90.69348,52001,42.54819,-90.69348,Dubuque,IA
1,9.734664796,VAN DIEST MEDICAL CENTER,2350 HOSPITAL DRIVE,WEBSTER CITY,IA,50595,42.46097,-93.82154,50034,42.52921,-93.65438,Blairsburg,IA
1,7.640577605,FLOYD COUNTY MEDICAL CENTER,800 11TH ST,CHARLES CITY,IA,50616,43.07978,-92.66104,50435,43.15752,-92.76877,Floyd,IA
1,8.507189744,MAHASKA  HEALTH PARTNERSHIP,1229 C AVENUE EAST,OSKALOOSA,IA,52577,41.27174,-92.6602,52553,41.14865,-92.65668,Eddyville,IA
1,9.343492056,MERCYONE PRIMGHAR MEDICAL CENTER,255 N WELCH AVENUE,PRIMGHAR,IA,51245,43.07788,-95.60149,51058,42.98367,-95.46879,Sutherland,IA
1,18.927147901,CLARINDA REGIONAL HEALTH CENTER,220 ESSIE DAVISON DRIVE,CLARINDA,IA,51632,40.7478,-95.04939,50833,40.66956,-94.70309,Bedford,IA
1,12.742636359,GREENE COUNTY MEDICAL CENTER,1000 WEST LINCOLN WAY,JEFFERSON,IA,50129,42.01335,-94.3764,50217,42.17206,-94.24984,Paton,IA
1,9.513334417,SPENCER MUNICIPAL HOSPITAL,1200 1ST AVENUE EAST,SPENCER,IA,51301,43.15314,-95.14973,51338,43.2065,-95.32378,Everly,IA
1,6.725376032,SOUTHEAST IOWA REGIONAL MEDICAL CENTER,1221 SOUTH GEAR AVENUE,WEST BURLINGTON,IA,52655,40.84768,-91.21174,52623,40.85569,-91.33998,Danville,IA
1,0,KNOXVILLE HOSPITAL & CLINICS,1002 SOUTH LINCOLN STREET,KNOXVILLE,IA,50138,41.30246,-93.10534,50138,41.30246,-93.10534,Knoxville,IA
1,11.803739892,MYRTUE MEDICAL CENTER,1213 GARFIELD AVENUE,HARLAN,IA,51537,41.64646,-95.29531,51565,41.64555,-95.52391,Portsmouth,IA
1,0,MERCYONE PRIMGHAR MEDICAL CENTER,255 N WELCH AVENUE,PRIMGHAR,IA,51245,43.07788,-95.60149,51245,43.07788,-95.60149,Primghar,IA
1,15.624851607,HANSEN FAMILY HOSPITAL,920 SOUTH OAK STREET,IOWA FALLS,IA,50126,42.50875,-93.24815,50608,42.58815,-92.96075,Austinville,IA
1,15.100444947,RINGGOLD COUNTY HOSPITAL,504 NORTH CLEVELAND STREET,MOUNT AYR,IA,50854,40.69089,-94.21977,50836,40.63116,-94.49689,Blockton,IA
1,10.107296985,HEGG MEMORIAL HEALTH CENTER,1202 21ST AVENUE,ROCK VALLEY,IA,51247,43.19259,-96.33723,51240,43.30986,-96.45727,Inwood,IA
1,10.248744114,STORY COUNTY HOSPITAL,640 SOUTH 19TH STREET,NEVADA,IA,50201,42.03337,-93.44434,50154,42.17625,-93.39068,McCallsburg,IA
1,16.236005863,JACKSON COUNTY REGIONAL HEALTH CENTER,700 W GROVE ST,MAQUOKETA,IA,52060,42.10217,-90.67961,52323,41.98445,-90.95344,Oxford Junction,IA
1,13.572290941,ST LUKES REGIONAL MEDICAL CENTER,2720 STONE PARK BOULEVARD,SIOUX CITY,IA,51104,42.53518,-96.40389,51062,42.70623,-96.53511,Westfield,IA
1,20.609038833,CHI HEALTH MERCY COUNCIL BLUFFS,800 MERCY DRIVE,COUNCIL BLUFFS,IA,51503,41.2304,-95.77795,51560,41.31746,-95.39838,Oakland,IA
1,20.609038833,METHODIST JENNIE EDMUNDSON,933 EAST PIERCE STREET,COUNCIL BLUFFS,IA,51503,41.2304,-95.77795,51560,41.31746,-95.39838,Oakland,IA
1,11.927713588,FRANKLIN GENERAL HOSPITAL,1720 CENTRAL AVENUE EAST,HAMPTON,IA,50441,42.73938,-93.22146,50625,42.75071,-92.98691,Dumont,IA
1,15.325074264,JONES REGIONAL MEDICAL CENTER,1795 HIGHWAY 64 EAST,ANAMOSA,IA,52205,42.11754,-91.28806,52306,41.89729,-91.25296,Mechanicsville,IA
1,6.232308744,GRUNDY COUNTY MEMORIAL HOSPITAL,201 EAST J AVENUE,GRUNDY CENTER,IA,50638,42.35654,-92.79495,50657,42.34454,-92.67399,Morrison,IA
1,5.794554706,MERCYONE CLINTON MEDICAL CENTER,1410 NORTH 4TH STREET,CLINTON,IA,52732,41.90126,-90.25083,52727,41.95834,-90.33341,Bryant,IA
1,8.483557372,BUCHANAN COUNTY HEALTH CENTER,1600 FIRST ST EAST,INDEPENDENCE,IA,50644,42.47751,-91.89721,52329,42.35894,-91.85405,Rowley,IA
1,12.029760333,ST ANTHONY REGIONAL HOSPITAL & NURSING HOME,311 SOUTH CLARK STREET,CARROLL,IA,51401,42.06516,-94.87068,51459,42.04495,-94.63779,Ralston,IA
1,0,ST ANTHONY REGIONAL HOSPITAL & NURSING HOME,311 SOUTH CLARK STREET,CARROLL,IA,51401,42.06516,-94.87068,51401,42.06516,-94.87068,Carroll,IA
1,15.325337395,UNITYPOINT HEALTH - DES MOINES IOWA METHODIST MEDI,1200 PLEASANT STREET,DES MOINES,IA,50309,41.58448,-93.62152,50118,41.45957,-93.37673,Hartford,IA
1,8.066017190,MITCHELL COUNTY REGIONAL HEALTH,616 NORTH EIGHTH STREET,OSAGE,IA,50461,43.29995,-92.81412,50460,43.2259,-92.6902,Orchard,IA
1,7.466151793,IOWA SPECIALTY HOSPITAL - BELMOND,403 FIRST STREET SE,BELMOND,IA,50421,42.84246,-93.62148,50470,42.74652,-93.55374,Rowan,IA
1,8.536932960,JONES REGIONAL MEDICAL CENTER,1795 HIGHWAY 64 EAST,ANAMOSA,IA,52205,42.11754,-91.28806,52336,42.0689,-91.44111,Springville,IA
1,16.209988219,TRINITY REGIONAL MEDICAL CENTER,802 KENYON RD,FORT DODGE,IA,50501,42.49244,-94.18967,50543,42.27434,-94.30666,Gowrie,IA
1,11.505896982,VETERANS MEMORIAL HOSPITAL,40 1ST STREET SE,WAUKON,IA,52172,43.27117,-91.48382,52151,43.34706,-91.28013,Lansing,IA
1,8.077189635,CHEROKEE REGIONAL MEDICAL CENTER,300 SIOUX VALLEY DRIVE,CHEROKEE,IA,51012,42.74474,-95.56171,51014,42.78428,-95.71155,Cleghorn,IA
1,10.385031859,AVERA HOLY FAMILY HOSPITAL,826 NORTH 8TH STREET,ESTHERVILLE,IA,51334,43.40379,-94.80698,50531,43.45841,-94.61417,Dolliver,IA
1,9.481935041,STORY COUNTY HOSPITAL,640 SOUTH 19TH STREET,NEVADA,IA,50201,42.03337,-93.44434,50236,42.1675,-93.4834,Roland,IA
1,11.211112375,SHENANDOAH MEDICAL CENTER,300 PERSHING AVENUE,SHENANDOAH,IA,51601,40.72938,-95.35037,51645,40.88206,-95.4229,Imogene,IA
1,8.109833530,MERCYONE DYERSVILLE MEDICAL CENTER,1111 3RD STREET SW,DYERSVILLE,IA,52040,42.51114,-91.13884,52078,42.39506,-91.11534,Worthington,IA
1,10.450026898,MERCYONE WATERLOO MEDICAL CENTER,3421 WEST NINTH STREET,WATERLOO,IA,50702,42.45745,-92.31283,50643,42.36413,-92.47402,Hudson,IA
1,13.381713742,MERCYONE OELWEIN MEDICAL CENTER,201 EIGHTH AVENUE SE,OELWEIN,IA,50662,42.68748,-91.93396,50606,42.74669,-91.68299,Arlington,IA
1,11.365579965,VAN BUREN COUNTY HOSPITAL,304 FRANKLIN STREET,KEOSAUQUA,IA,52565,40.74005,-91.94332,52570,40.68656,-92.14853,Milton,IA
1,21.727417731,VIRGINIA GAY HOSPITAL,502 NORTH 9TH AVENUE,VINTON,IA,52349,42.17246,-92.00566,52217,42.07948,-92.41067,Clutier,IA
1,14.306567236,VAN BUREN COUNTY HOSPITAL,304 FRANKLIN STREET,KEOSAUQUA,IA,52565,40.74005,-91.94332,52588,40.86325,-92.16315,Selma,IA
1,13.901468076,FLOYD COUNTY MEDICAL CENTER,800 11TH ST,CHARLES CITY,IA,50616,43.07978,-92.66104,50653,42.96737,-92.88927,Marble Rock,IA
1,5.341619266,MERCYONE DYERSVILLE MEDICAL CENTER,1111 3RD STREET SW,DYERSVILLE,IA,52040,42.51114,-91.13884,52065,42.58353,-91.10202,New Vienna,IA
1,17.473054897,MERCYONE DYERSVILLE MEDICAL CENTER,1111 3RD STREET SW,DYERSVILLE,IA,52040,42.51114,-91.13884,52033,42.27941,-91.00177,Cascade,IA
1,0,FLOYD VALLEY HEALTHCARE,714 LINCOLN ST NE,LE MARS,IA,51031,42.80282,-96.18092,51031,42.80282,-96.18092,Le Mars,IA
1,10.781272017,METHODIST JENNIE EDMUNDSON,933 EAST PIERCE STREET,COUNCIL BLUFFS,IA,51503,41.2304,-95.77795,51576,41.3777,-95.70945,Underwood,IA
1,10.781272017,CHI HEALTH MERCY COUNCIL BLUFFS,800 MERCY DRIVE,COUNCIL BLUFFS,IA,51503,41.2304,-95.77795,51576,41.3777,-95.70945,Underwood,IA
1,7.322397118,OTTUMWA REGIONAL HEALTH CENTER,1001 E PENNSYLVANIA,OTTUMWA,IA,52501,41.03828,-92.43252,52566,41.12887,-92.50547,Kirkville,IA
1,6.846947676,MERCYONE ELKADER MEDICAL CENTER,901 DAVIDSON STREET NW,ELKADER,IA,52043,42.84403,-91.42201,52077,42.82258,-91.55393,Volga,IA
1,0,HAWARDEN REGIONAL HEALTHCARE,1111 11TH STREET,HAWARDEN,IA,51023,43.00893,-96.46845,51023,43.00893,-96.46845,Hawarden,IA
1,4.692051801,KEOKUK COUNTY HEALTH CENTER,23019 HIGHWAY 149,SIGOURNEY,IA,52591,41.31988,-92.19465,52562,41.26539,-92.24858,Hayesville,IA
1,10.571684361,KEOKUK COUNTY HEALTH CENTER,23019 HIGHWAY 149,SIGOURNEY,IA,52591,41.31988,-92.19465,50268,41.40695,-92.36227,What Cheer,IA
1,21.875631598,KOSSUTH REGIONAL HEALTH CENTER,1515 SOUTH PHILLIPS STREET,ALGONA,IA,50511,43.07483,-94.21894,50451,43.37746,-94.09134,Lakota,IA
1,9.745893444,UNIVERSITY OF IOWA HEALTH CARE MEDICAL CENTER DOWN,500 E MARKET STREET,IOWA CITY,IA,52245,41.67071,-91.50666,52358,41.69644,-91.32097,West Branch,IA
1,14.657316011,BURGESS HEALTH CENTER,1600 DIAMOND STREET,ONAWA,IA,51040,42.03073,-96.0706,51572,41.9896,-95.79053,Soldier,IA
1,10.081497274,MERCYONE CENTERVILLE MEDICAL CENTER,ONE ST JOSEPH'S DRIVE,CENTERVILLE,IA,52544,40.71774,-92.90831,52581,40.80504,-93.06265,Plano,IA
1,0,KEOKUK COUNTY HEALTH CENTER,23019 HIGHWAY 149,SIGOURNEY,IA,52591,41.31988,-92.19465,52591,41.31988,-92.19465,Sigourney,IA
1,0,MERCYONE CLINTON MEDICAL CENTER,1410 NORTH 4TH STREET,CLINTON,IA,52732,41.90126,-90.25083,52732,41.90126,-90.25083,Clinton,IA
1,10.273361604,MONTGOMERY COUNTY MEMORIAL HOSPITAL,2301 EASTERN AVENUE,RED OAK,IA,51566,41.0151,-95.22994,51532,41.13408,-95.11167,Elliott,IA
1,0,HANSEN FAMILY HOSPITAL,920 SOUTH OAK STREET,IOWA FALLS,IA,50126,42.50875,-93.24815,50126,42.50875,-93.24815,Iowa Falls,IA
1,8.850628191,OSCEOLA COMMUNITY HOSPITAL,600 9TH AVENUE NORTH,SIBLEY,IA,51249,43.41068,-95.73203,51243,43.4425,-95.90287,Little Rock,IA
1,0,ST LUKES REGIONAL MEDICAL CENTER,2720 STONE PARK BOULEVARD,SIOUX CITY,IA,51104,42.53518,-96.40389,51104,42.53518,-96.40389,Sioux City,IA
1,0,MERCYONE SIOUXLAND MEDICAL CENTER,801 5TH ST,SIOUX CITY,IA,51101,42.49413,-96.39361,51101,42.49413,-96.39361,Sioux City,IA
1,6.696077022,FRANKLIN GENERAL HOSPITAL,1720 CENTRAL AVENUE EAST,HAMPTON,IA,50441,42.73938,-93.22146,50633,42.67203,-93.12664,Geneva,IA
1,18.903919836,GRUNDY COUNTY MEMORIAL HOSPITAL,201 EAST J AVENUE,GRUNDY CENTER,IA,50638,42.35654,-92.79495,50675,42.19884,-92.4928,Traer,IA
1,10.235173532,SOUTHEAST IOWA REGIONAL MEDICAL CENTER,1221 SOUTH GEAR AVENUE,WEST BURLINGTON,IA,52655,40.84768,-91.21174,52658,40.69998,-91.22657,Wever,IA
1,0,MADISON COUNTY HEALTH CARE SYSTEM,300 WEST HUTCHINGS STREET,WINTERSET,IA,50273,41.32838,-94.05606,50273,41.32838,-94.05606,Winterset,IA
1,10.374865467,MERCYONE PRIMGHAR MEDICAL CENTER,255 N WELCH AVENUE,PRIMGHAR,IA,51245,43.07788,-95.60149,51346,43.18638,-95.45927,Hartley,IA
1,6.032963999,HORN MEMORIAL HOSPITAL,701 E 2ND ST,IDA GROVE,IA,51445,42.32719,-95.46724,51431,42.34446,-95.35146,Arthur,IA
1,11.676664688,MERCY MEDICAL CENTER - CEDAR RAPIDS,701 10TH STREET SE,CEDAR RAPIDS,IA,52403,41.96813,-91.57964,52338,41.82904,-91.70858,Swisher,IA
1,15.646809834,KOSSUTH REGIONAL HEALTH CENTER,1515 SOUTH PHILLIPS STREET,ALGONA,IA,50511,43.07483,-94.21894,50517,43.30099,-94.23452,Bancroft,IA
1,7.702137222,UNIVERSITY OF IOWA HOSPITAL & CLINICS,200 HAWKINS DRIVE,IOWA CITY,IA,52242,41.66195,-91.54317,52340,41.70615,-91.68019,Tiffin,IA
1,14.969503868,MERCYONE DUBUQUE MEDICAL CENTER,250 MERCY DRIVE,DUBUQUE,IA,52001,42.54819,-90.69348,52071,42.36245,-90.54234,Saint Donatus,IA
1,14.969503868,FINLEY HOSPITAL,350 NORTH GRANDVIEW AVENUE,DUBUQUE,IA,52001,42.54819,-90.69348,52071,42.36245,-90.54234,Saint Donatus,IA
1,4.544448026,GREATER REGIONAL MEDICAL CENTER,1700 WEST TOWNLINE STREET,CRESTON,IA,50801,41.07959,-94.39224,50842,41.03991,-94.4618,Cromwell,IA
1,0,BUCHANAN COUNTY HEALTH CENTER,1600 FIRST ST EAST,INDEPENDENCE,IA,50644,42.47751,-91.89721,50644,42.47751,-91.89721,Independence,IA
1,11.687831200,JEFFERSON COUNTY HEALTH CENTER,2000 S MAIN,FAIRFIELD,IA,52556,41.01842,-91.9264,52533,41.01228,-92.15043,Batavia,IA
1,10.503915392,GUNDERSEN PALMER LUTHERAN HOSPITAL AND CLINICS,112 JEFFERSON STREET,WEST UNION,IA,52175,42.99372,-91.82389,52164,42.85212,-91.89941,Randalia,IA
1,11.732647536,HANCOCK COUNTY HEALTH SYSTEM,532 1ST ST NW,BRITT,IA,50423,43.11054,-93.81244,50430,42.97734,-93.95653,Corwith,IA
1,6.593107829,GENESIS MEDICAL CENTER-DEWITT,1118 11TH STREET,DEWITT,IA,52742,41.83616,-90.51076,52774,41.90743,-90.59596,Welton,IA
1,6.663322650,CRAWFORD COUNTY MEMORIAL HOSPITAL,100 MEDICAL PARKWAY,DENISON,IA,51442,42.02696,-95.35915,51441,42.11784,-95.3157,Deloit,IA
1,7.023934962,MERCYONE CENTERVILLE MEDICAL CENTER,ONE ST JOSEPH'S DRIVE,CENTERVILLE,IA,52544,40.71774,-92.90831,52574,40.80822,-92.96948,Mystic,IA
1,0,GENESIS MEDICAL CENTER-DEWITT,1118 11TH STREET,DEWITT,IA,52742,41.83616,-90.51076,52742,41.83616,-90.51076,De Witt,IA
1,15.162079612,COMPASS MEMORIAL HEALTHCARE,300 W MAY ST,MARENGO,IA,52301,41.78658,-92.09013,52308,41.5733,-92.1592,Millersburg,IA
1,10.903067683,SPENCER MUNICIPAL HOSPITAL,1200 1ST AVENUE EAST,SPENCER,IA,51301,43.15314,-95.14973,51341,43.01665,-95.04132,Gillett Grove,IA
1,0,VAN DIEST MEDICAL CENTER,2350 HOSPITAL DRIVE,WEBSTER CITY,IA,50595,42.46097,-93.82154,50595,42.46097,-93.82154,Webster City,IA
1,0,RINGGOLD COUNTY HOSPITAL,504 NORTH CLEVELAND STREET,MOUNT AYR,IA,50854,40.69089,-94.21977,50854,40.69089,-94.21977,Mount Ayr,IA
1,11.128761001,RINGGOLD COUNTY HOSPITAL,504 NORTH CLEVELAND STREET,MOUNT AYR,IA,50854,40.69089,-94.21977,50845,40.81683,-94.3523,Diagonal,IA
1,9.215564120,MERCYONE PRIMGHAR MEDICAL CENTER,255 N WELCH AVENUE,PRIMGHAR,IA,51245,43.07788,-95.60149,51248,43.20445,-95.65911,Sanborn,IA
1,10.974980235,HANSEN FAMILY HOSPITAL,920 SOUTH OAK STREET,IOWA FALLS,IA,50126,42.50875,-93.24815,50672,42.4247,-93.06545,Steamboat Rock,IA
1,11.034498404,PALO ALTO COUNTY HOSPITAL,3201 1ST STREET,EMMETSBURG,IA,50536,43.11605,-94.69716,50562,42.96158,-94.64173,Mallard,IA
1,9.462648909,GRUNDY COUNTY MEMORIAL HOSPITAL,201 EAST J AVENUE,GRUNDY CENTER,IA,50638,42.35654,-92.79495,50669,42.33309,-92.6124,Reinbeck,IA
1,12.858671967,MERCYONE DES MOINES MEDICAL CENTER,1111 6TH AVE,DES MOINES,IA,50314,41.6049,-93.63102,50263,41.60391,-93.87989,Waukee,IA
1,12.858671967,BROADLAWNS MEDICAL CENTER,1801 HICKMAN ROAD,DES MOINES,IA,50314,41.6049,-93.63102,50263,41.60391,-93.87989,Waukee,IA
1,0,UNITYPOINT HEALTH - DES MOINES IOWA METHODIST MEDI,1200 PLEASANT STREET,DES MOINES,IA,50309,41.58448,-93.62152,50309,41.58448,-93.62152,Des Moines,IA
1,0,MERCYONE DES MOINES MEDICAL CENTER,1111 6TH AVE,DES MOINES,IA,50314,41.6049,-93.63102,50314,41.6049,-93.63102,Des Moines,IA
1,0,BROADLAWNS MEDICAL CENTER,1801 HICKMAN ROAD,DES MOINES,IA,50314,41.6049,-93.63102,50314,41.6049,-93.63102,Des Moines,IA
1,12.220851025,GUNDERSEN PALMER LUTHERAN HOSPITAL AND CLINICS,112 JEFFERSON STREET,WEST UNION,IA,52175,42.99372,-91.82389,52144,43.13961,-91.96075,Fort Atkinson,IA
1,0,REGIONAL HEALTH SERVICES OF HOWARD COUNTY,235 8TH AVENUE WEST,CRESCO,IA,52136,43.37139,-92.11289,52136,43.37139,-92.11289,Cresco,IA
1,9.247232358,MERCYONE DES MOINES MEDICAL CENTER,1111 6TH AVE,DES MOINES,IA,50314,41.6049,-93.63102,50009,41.64313,-93.45945,Altoona,IA
1,9.247232358,BROADLAWNS MEDICAL CENTER,1801 HICKMAN ROAD,DES MOINES,IA,50314,41.6049,-93.63102,50009,41.64313,-93.45945,Altoona,IA
1,9.993276139,REGIONAL MEDICAL CENTER,709 W MAIN STREET,MANCHESTER,IA,52057,42.4916,-91.45333,52050,42.60532,-91.33204,Greeley,IA
1,9.675838285,COMPASS MEMORIAL HEALTHCARE,300 W MAY ST,MARENGO,IA,52301,41.78658,-92.09013,52307,41.79158,-91.90244,Middle Amana,IA
1,18.041369447,MERCYONE NORTH IOWA MEDICAL CENTER,1000 FOURTH STREET SW,MASON CITY,IA,50401,43.15389,-93.20006,50446,43.33821,-93.45394,Joice,IA
1,8.589597450,KNOXVILLE HOSPITAL & CLINICS,1002 SOUTH LINCOLN STREET,KNOXVILLE,IA,50138,41.30246,-93.10534,50062,41.23499,-93.24425,Melcher Dallas,IA
1,6.036239328,DALLAS COUNTY HOSPITAL,610 TENTH STREET,PERRY,IA,50220,41.8366,-94.12293,50039,41.82615,-94.00653,Bouton,IA
1,9.649046047,VAN BUREN COUNTY HOSPITAL,304 FRANKLIN STREET,KEOSAUQUA,IA,52565,40.74005,-91.94332,52542,40.62712,-92.05164,Cantril,IA
1,0,PALO ALTO COUNTY HOSPITAL,3201 1ST STREET,EMMETSBURG,IA,50536,43.11605,-94.69716,50536,43.11605,-94.69716,Emmetsburg,IA
1,14.977399691,KOSSUTH REGIONAL HEALTH CENTER,1515 SOUTH PHILLIPS STREET,ALGONA,IA,50511,43.07483,-94.21894,50539,43.23543,-94.41849,Fenton,IA
1,9.485280515,CHI HEALTH MISSOURI VALLEY,631 N 8TH ST,MISSOURI VALLEY,IA,51555,41.55937,-95.91398,51542,41.43354,-95.84072,Honey Creek,IA
1,8.240273675,GRUNDY COUNTY MEMORIAL HOSPITAL,201 EAST J AVENUE,GRUNDY CENTER,IA,50638,42.35654,-92.79495,50652,42.26454,-92.69234,Lincoln,IA
1,8.114981245,MERCYONE DYERSVILLE MEDICAL CENTER,1111 3RD STREET SW,DYERSVILLE,IA,52040,42.51114,-91.13884,52046,42.44024,-91.0119,Farley,IA
1,12.658423939,HENRY COUNTY HEALTH CENTER,407 S WHITE ST,MOUNT PLEASANT,IA,52641,40.98799,-91.58531,52659,41.13285,-91.43658,Winfield,IA
1,17.487488551,KNOXVILLE HOSPITAL & CLINICS,1002 SOUTH LINCOLN STREET,KNOXVILLE,IA,50138,41.30246,-93.10534,50001,41.3611,-93.43321,Ackworth,IA
1,17.035581032,FLOYD VALLEY HEALTHCARE,714 LINCOLN ST NE,LE MARS,IA,51031,42.80282,-96.18092,51028,42.59909,-95.99199,Kingsley,IA
1,9.630384480,GENESIS MEDICAL CENTER-DEWITT,1118 11TH STREET,DEWITT,IA,52742,41.83616,-90.51076,52730,41.77366,-90.34364,Camanche,IA
1,15.236714859,GENESIS MEDICAL CENTER-DEWITT,1118 11TH STREET,DEWITT,IA,52742,41.83616,-90.51076,52745,41.71502,-90.75783,Dixon,IA
1,17.752325177,GENESIS MEDICAL CENTER-DEWITT,1118 11TH STREET,DEWITT,IA,52742,41.83616,-90.51076,52777,41.84739,-90.85529,Wheatland,IA
1,19.138206326,CHEROKEE REGIONAL MEDICAL CENTER,300 SIOUX VALLEY DRIVE,CHEROKEE,IA,51012,42.74474,-95.56171,51048,42.57963,-95.86412,Pierson,IA
1,7.769698702,HENRY COUNTY HEALTH CENTER,407 S WHITE ST,MOUNT PLEASANT,IA,52641,40.98799,-91.58531,52652,41.09796,-91.5542,Swedesburg,IA
1,7.234828793,MYRTUE MEDICAL CENTER,1213 GARFIELD AVENUE,HARLAN,IA,51537,41.64646,-95.29531,51578,41.72002,-95.39508,Westphalia,IA
1,17.931302229,WASHINGTON COUNTY HOSPITAL AND CLINICS,400 EAST POLK STREET,WASHINGTON,IA,52353,41.29923,-91.71596,52737,41.25918,-91.37478,Columbus City,IA
1,0,BURGESS HEALTH CENTER,1600 DIAMOND STREET,ONAWA,IA,51040,42.03073,-96.0706,51040,42.03073,-96.0706,Onawa,IA
1,3.996846969,CHI HEALTH - MERCY CORNING,603 ROSARY DRIVE,CORNING,IA,50841,41.01147,-94.76342,50839,41.04874,-94.82206,Carbon,IA
1,16.700205661,SPENCER MUNICIPAL HOSPITAL,1200 1ST AVENUE EAST,SPENCER,IA,51301,43.15314,-95.14973,50585,42.91154,-95.1407,Sioux Rapids,IA
1,14.793984192,CHI HEALTH MISSOURI VALLEY,631 N 8TH ST,MISSOURI VALLEY,IA,51555,41.55937,-95.91398,51559,41.46034,-95.66049,Neola,IA
1,9.903904121,REGIONAL MEDICAL CENTER,709 W MAIN STREET,MANCHESTER,IA,52057,42.4916,-91.45333,52330,42.35261,-91.50076,Ryan,IA
1,14.819049686,PALO ALTO COUNTY HOSPITAL,3201 1ST STREET,EMMETSBURG,IA,50536,43.11605,-94.69716,50578,43.30081,-94.54775,Ringsted,IA
1,6.937956208,CHEROKEE REGIONAL MEDICAL CENTER,300 SIOUX VALLEY DRIVE,CHEROKEE,IA,51012,42.74474,-95.56171,51037,42.82567,-95.64269,Meriden,IA
1,11.917928757,MAHASKA  HEALTH PARTNERSHIP,1229 C AVENUE EAST,OSKALOOSA,IA,52577,41.27174,-92.6602,52561,41.22135,-92.44081,Fremont,IA
1,15.447816562,ADAIR COUNTY MEMORIAL HOSPITAL,609 SE KENT,GREENFIELD,IA,50849,41.30004,-94.40176,50837,41.22878,-94.68367,Bridgewater,IA
1,9.016749444,CASS COUNTY MEMORIAL HOSPITAL,1501 EAST TENTH STREET,ATLANTIC,IA,50022,41.41737,-95.00352,51544,41.31316,-95.10817,Lewis,IA
1,18.018679258,GRUNDY COUNTY MEMORIAL HOSPITAL,201 EAST J AVENUE,GRUNDY CENTER,IA,50638,42.35654,-92.79495,50604,42.60484,-92.90299,Aplington,IA
1,6.087985942,MERCYONE OELWEIN MEDICAL CENTER,201 EIGHTH AVENUE SE,OELWEIN,IA,50662,42.68748,-91.93396,50655,42.77232,-91.9016,Maynard,IA
1,13.081420722,CRAWFORD COUNTY MEMORIAL HOSPITAL,100 MEDICAL PARKWAY,DENISON,IA,51442,42.02696,-95.35915,51460,42.1324,-95.571,Ricketts,IA
1,22.504812516,TRINITY MUSCATINE,1518 MULBERRY AVENUE,MUSCATINE,IA,52761,41.43798,-91.05802,52721,41.75588,-90.9633,Bennett,IA
1,8.399227775,COMPASS MEMORIAL HEALTHCARE,300 W MAY ST,MARENGO,IA,52301,41.78658,-92.09013,52209,41.90809,-92.09462,Blairstown,IA
1,7.373055388,FRANKLIN GENERAL HOSPITAL,1720 CENTRAL AVENUE EAST,HAMPTON,IA,50441,42.73938,-93.22146,50041,42.63429,-93.24662,Bradford,IA
1,20.354875154,MERCYONE NORTH IOWA MEDICAL CENTER,1000 FOURTH STREET SW,MASON CITY,IA,50401,43.15389,-93.20006,50459,43.4458,-93.25445,Northwood,IA
1,10.998895689,ST ANTHONY REGIONAL HOSPITAL & NURSING HOME,311 SOUTH CLARK STREET,CARROLL,IA,51401,42.06516,-94.87068,51440,41.9117,-94.81379,Dedham,IA
1,19.798171896,VIRGINIA GAY HOSPITAL,502 NORTH 9TH AVENUE,VINTON,IA,52349,42.17246,-92.00566,52225,42.01289,-92.32636,Elberon,IA
1,8.468191870,VAN DIEST MEDICAL CENTER,2350 HOSPITAL DRIVE,WEBSTER CITY,IA,50595,42.46097,-93.82154,50132,42.39392,-93.68256,Kamrar,IA
1,5.701996669,JACKSON COUNTY REGIONAL HEALTH CENTER,700 W GROVE ST,MAQUOKETA,IA,52060,42.10217,-90.67961,52030,42.15322,-90.59219,Andrew,IA
1,13.708871799,MADISON COUNTY HEALTH CARE SYSTEM,300 WEST HUTCHINGS STREET,WINTERSET,IA,50273,41.32838,-94.05606,50240,41.29368,-93.796,Saint Charles,IA
1,11.797090360,MYRTUE MEDICAL CENTER,1213 GARFIELD AVENUE,HARLAN,IA,51537,41.64646,-95.29531,51521,41.47987,-95.34526,Avoca,IA
1,0,MERCYONE WATERLOO MEDICAL CENTER,3421 WEST NINTH STREET,WATERLOO,IA,50702,42.45745,-92.31283,50702,42.45745,-92.31283,Waterloo,IA
1,0,ALLEN HOSPITAL,1825 LOGAN AVENUE,WATERLOO,IA,50703,42.54817,-92.28195,50703,42.54817,-92.28195,Waterloo,IA
1,15.587405422,VETERANS MEMORIAL HOSPITAL,40 1ST STREET SE,WAUKON,IA,52172,43.27117,-91.48382,52146,43.18826,-91.19588,Harpers Ferry,IA
1,0,GUTTENBERG MUNICIPAL HOSPITAL,200 MAIN STREET,GUTTENBERG,IA,52052,42.7411,-91.12083,52052,42.7411,-91.12083,Guttenberg,IA
1,12.833067121,MONTGOMERY COUNTY MEMORIAL HOSPITAL,2301 EASTERN AVENUE,RED OAK,IA,51566,41.0151,-95.22994,51541,41.13664,-95.41623,Henderson,IA
1,10.408556458,COMPASS MEMORIAL HEALTHCARE,300 W MAY ST,MARENGO,IA,52301,41.78658,-92.09013,52203,41.81035,-91.8906,Amana,IA
1,7.836038135,KOSSUTH REGIONAL HEALTH CENTER,1515 SOUTH PHILLIPS STREET,ALGONA,IA,50511,43.07483,-94.21894,50522,43.18562,-94.18576,Burt,IA
1,13.397654489,MERCYONE NORTH IOWA MEDICAL CENTER,1000 FOURTH STREET SW,MASON CITY,IA,50401,43.15389,-93.20006,50444,43.29258,-93.38601,Hanlontown,IA
1,10.574780703,WAVERLY HEALTH CENTER,312  9TH STREET SW,WAVERLY,IA,50677,42.76363,-92.43775,50670,42.68425,-92.61586,Shell Rock,IA
1,13.736755340,RINGGOLD COUNTY HOSPITAL,504 NORTH CLEVELAND STREET,MOUNT AYR,IA,50854,40.69089,-94.21977,50074,40.85685,-94.07524,Ellston,IA
1,10.119746792,WAYNE COUNTY HOSPITAL,417 SOUTH EAST STREET,CORYDON,IA,50060,40.75508,-93.31922,50052,40.64417,-93.44538,Clio,IA
1,10.902928078,FLOYD COUNTY MEDICAL CENTER,800 11TH ST,CHARLES CITY,IA,50616,43.07978,-92.66104,50658,42.95024,-92.53782,Nashua,IA
1,8.181910660,MERCYONE CLINTON MEDICAL CENTER,1410 NORTH 4TH STREET,CLINTON,IA,52732,41.90126,-90.25083,52771,42.01958,-90.25707,Teeds Grove,IA
1,11.555818469,CHI HEALTH - MERCY CORNING,603 ROSARY DRIVE,CORNING,IA,50841,41.01147,-94.76342,50864,40.97648,-94.98009,Villisca,IA
1,10.066048784,PALO ALTO COUNTY HOSPITAL,3201 1ST STREET,EMMETSBURG,IA,50536,43.11605,-94.69716,51358,43.13033,-94.89579,Ruthven,IA
1,8.958865829,JEFFERSON COUNTY HEALTH CENTER,2000 S MAIN,FAIRFIELD,IA,52556,41.01842,-91.9264,52635,40.99117,-91.75843,Lockridge,IA
1,9.374013156,HUMBOLDT COUNTY MEMORIAL HOSPITAL,1000 NORTH 15TH STREET,HUMBOLDT,IA,50548,42.71275,-94.22645,50545,42.79651,-94.08111,Hardy,IA
1,8.503250700,SANFORD SHELDON MEDICAL CENTER,118 NORTH 7TH AVENUE,SHELDON,IA,51201,43.18331,-95.8657,51232,43.30097,-95.8162,Ashton,IA
1,10.234527587,KEOKUK COUNTY HEALTH CENTER,23019 HIGHWAY 149,SIGOURNEY,IA,52591,41.31988,-92.19465,52568,41.1779,-92.25077,Martinsburg,IA
1,11.063326496,POCAHONTAS COMMUNITY HOSPITAL,606 N W 7TH STREET,POCAHONTAS,IA,50574,42.71891,-94.69967,50575,42.5588,-94.70065,Pomeroy,IA
1,16.659510589,COMPASS MEMORIAL HEALTHCARE,300 W MAY ST,MARENGO,IA,52301,41.78658,-92.09013,52325,41.58028,-91.92305,Parnell,IA
1,15.267847825,GEORGE C GRAPE COMMUNITY HOSPITAL,2959 US HIGHWAY 275,HAMBURG,IA,51640,40.62262,-95.6634,51654,40.831,-95.76038,Thurman,IA
1,10.363489020,GENESIS MEDICAL CENTER-DAVENPORT,1227 EAST RUSHOLME STREET,DAVENPORT,IA,52803,41.53871,-90.55623,52728,41.45907,-90.72592,Buffalo,IA
1,19.424540565,HANCOCK COUNTY HEALTH SYSTEM,532 1ST ST NW,BRITT,IA,50423,43.11054,-93.81244,50453,43.3664,-93.65258,Leland,IA
1,7.634668608,AVERA HOLY FAMILY HOSPITAL,826 NORTH 8TH STREET,ESTHERVILLE,IA,51334,43.40379,-94.80698,51365,43.30652,-94.7349,Wallingford,IA
1,10.315781456,AVERA MERRILL PIONEER HOSPITAL,1100 S 10TH AVE,ROCK RAPIDS,IA,51246,43.42764,-96.16564,51237,43.33885,-96.0005,George,IA
1,7.748040355,DECATUR COUNTY HOSPITAL,1405 NW CHURCH STREET,LEON,IA,50144,40.73327,-93.73615,50103,40.79292,-93.61079,Garden Grove,IA
1,10.801362786,MONROE COUNTY HOSPITAL,6580 165TH STREET,ALBIA,IA,52531,41.02684,-92.81562,50150,41.12771,-92.97404,Lovilia,IA
1,12.859527329,MERCYONE NEWTON MEDICAL CENTER,204 N 4TH AVE E,NEWTON,IA,50208,41.71129,-93.03924,50168,41.77725,-93.27248,Mingo,IA
1,9.779816674,CHEROKEE REGIONAL MEDICAL CENTER,300 SIOUX VALLEY DRIVE,CHEROKEE,IA,51012,42.74474,-95.56171,51029,42.88549,-95.5414,Larrabee,IA
1,0,UNITYPOINT HEALTH - MARSHALLTOWN,55 UNITYPOINT WAY,MARSHALLTOWN,IA,50158,42.05016,-92.90143,50158,42.05016,-92.90143,Marshalltown,IA
1,13.795775836,MERCYONE NORTH IOWA MEDICAL CENTER,1000 FOURTH STREET SW,MASON CITY,IA,50401,43.15389,-93.20006,50448,43.35053,-93.24753,Kensett,IA
1,6.978145313,MITCHELL COUNTY REGIONAL HEALTH,616 NORTH EIGHTH STREET,OSAGE,IA,50461,43.29995,-92.81412,50454,43.38505,-92.73935,Little Cedar,IA
1,0,COMMUNITY MEMORIAL HOSPITAL MEDICAL CENTER,909 WEST FIRST STREET,SUMNER,IA,50674,42.84202,-92.11746,50674,42.84202,-92.11746,Sumner,IA
1,0,SANFORD SHELDON MEDICAL CENTER,118 NORTH 7TH AVENUE,SHELDON,IA,51201,43.18331,-95.8657,51201,43.18331,-95.8657,Sheldon,IA
1,8.810288510,KNOXVILLE HOSPITAL & CLINICS,1002 SOUTH LINCOLN STREET,KNOXVILLE,IA,50138,41.30246,-93.10534,50057,41.17859,-93.14554,Columbia,IA
1,8.528242353,BOONE COUNTY HOSPITAL,1015 UNION STREET,BOONE,IA,50036,42.0892,-93.85378,50152,41.96873,-93.81765,Luther,IA
1,10.488710947,REGIONAL HEALTH SERVICES OF HOWARD COUNTY,235 8TH AVENUE WEST,CRESCO,IA,52136,43.37139,-92.11289,52163,43.21976,-92.10315,Protivin,IA
1,14.593228313,VETERANS MEMORIAL HOSPITAL,40 1ST STREET SE,WAUKON,IA,52172,43.27117,-91.48382,52159,43.07979,-91.36134,Monona,IA
1,8.321770569,UNIVERSITY OF IOWA HOSPITAL & CLINICS,200 HAWKINS DRIVE,IOWA CITY,IA,52242,41.66195,-91.54317,52317,41.76277,-91.63142,North Liberty,IA
1,10.100590288,MERCYONE NEWTON MEDICAL CENTER,204 N 4TH AVE E,NEWTON,IA,50208,41.71129,-93.03924,50127,41.78122,-93.21129,Ira,IA
1,7.739335719,RINGGOLD COUNTY HOSPITAL,504 NORTH CLEVELAND STREET,MOUNT AYR,IA,50854,40.69089,-94.21977,50133,40.71592,-94.07576,Kellerton,IA
1,30.555055921,SOUTHEAST IOWA REGIONAL MEDICAL CENTER,1221 SOUTH GEAR AVENUE,WEST BURLINGTON,IA,52655,40.84768,-91.21174,52632,40.44072,-91.43973,Keokuk,IA
1,23.303165216,KOSSUTH REGIONAL HEALTH CENTER,1515 SOUTH PHILLIPS STREET,ALGONA,IA,50511,43.07483,-94.21894,50590,43.40647,-94.30303,Swea City,IA
1,10.375144312,IOWA SPECIALTY HOSPITAL - CLARION,1316 SOUTH MAIN STREET,CLARION,IA,50525,42.73875,-93.74907,50542,42.7794,-93.94594,Goldfield,IA
1,10.951143802,SOUTHEAST IOWA REGIONAL MEDICAL CENTER,1221 SOUTH GEAR AVENUE,WEST BURLINGTON,IA,52655,40.84768,-91.21174,52660,40.99146,-91.29998,Yarmouth,IA
1,9.257831457,CLARKE COUNTY HOSPITAL,800 S FILLMORE ST,OSCEOLA,IA,50213,41.03292,-93.76557,50275,41.04375,-93.58852,Woodburn,IA
1,10.482448681,MERCYONE DUBUQUE MEDICAL CENTER,250 MERCY DRIVE,DUBUQUE,IA,52001,42.54819,-90.69348,52068,42.42382,-90.81128,Peosta,IA
1,10.482448681,FINLEY HOSPITAL,350 NORTH GRANDVIEW AVENUE,DUBUQUE,IA,52001,42.54819,-90.69348,52068,42.42382,-90.81128,Peosta,IA
1,3.417488590,ST LUKES HOSPITAL,1026 A AVE NE,CEDAR RAPIDS,IA,52402,42.02272,-91.66001,52328,42.07195,-91.66641,Robins,IA
1,17.045508503,BURGESS HEALTH CENTER,1600 DIAMOND STREET,ONAWA,IA,51040,42.03073,-96.0706,51034,42.16241,-95.78947,Mapleton,IA
1,14.266102706,IOWA SPECIALTY HOSPITAL - CLARION,1316 SOUTH MAIN STREET,CLARION,IA,50525,42.73875,-93.74907,50577,42.85774,-93.97902,Renwick,IA
1,2.187538498,MERCYONE WATERLOO MEDICAL CENTER,3421 WEST NINTH STREET,WATERLOO,IA,50702,42.45745,-92.31283,50707,42.4771,-92.27918,Evansdale,IA
1,15.618675579,STEWART MEMORIAL COMMUNITY HOSPITAL,1301 WEST MAIN STREET,LAKE CITY,IA,51449,42.26614,-94.73475,50538,42.28422,-94.43024,Farnhamville,IA
1,5.578282243,MERCYONE CLINTON MEDICAL CENTER,1410 NORTH 4TH STREET,CLINTON,IA,52732,41.90126,-90.25083,52701,41.98198,-90.24908,Andover,IA
1,13.396216054,UNITYPOINT HEALTH - DES MOINES IOWA METHODIST MEDI,1200 PLEASANT STREET,DES MOINES,IA,50309,41.58448,-93.62152,50237,41.54238,-93.36859,Runnells,IA
1,0,HORN MEMORIAL HOSPITAL,701 E 2ND ST,IDA GROVE,IA,51445,42.32719,-95.46724,51445,42.32719,-95.46724,Ida Grove,IA
1,20.269357053,BURGESS HEALTH CENTER,1600 DIAMOND STREET,ONAWA,IA,51040,42.03073,-96.0706,51044,42.30113,-95.91716,Oto,IA
1,16.838068202,BUCHANAN COUNTY HEALTH CENTER,1600 FIRST ST EAST,INDEPENDENCE,IA,50644,42.47751,-91.89721,52344,42.29202,-91.68325,Troy Mills,IA
1,4.044465974,LUCAS COUNTY HEALTH CENTER,1200 NORTH 7TH STREET,CHARITON,IA,50049,41.03741,-93.29566,50272,41.08809,-93.25682,Williamson,IA
1,12.885447989,MYRTUE MEDICAL CENTER,1213 GARFIELD AVENUE,HARLAN,IA,51537,41.64646,-95.29531,51527,41.82875,-95.348,Defiance,IA
1,9.649937673,FRANKLIN GENERAL HOSPITAL,1720 CENTRAL AVENUE EAST,HAMPTON,IA,50441,42.73938,-93.22146,50475,42.87902,-93.21852,Sheffield,IA
1,8.002493346,JONES REGIONAL MEDICAL CENTER,1795 HIGHWAY 64 EAST,ANAMOSA,IA,52205,42.11754,-91.28806,52312,42.00617,-91.24526,Morley,IA
1,6.329894706,WAYNE COUNTY HOSPITAL,417 SOUTH EAST STREET,CORYDON,IA,50060,40.75508,-93.31922,50008,40.67847,-93.38549,Allerton,IA
1,16.447036664,MONTGOMERY COUNTY MEMORIAL HOSPITAL,2301 EASTERN AVENUE,RED OAK,IA,51566,41.0151,-95.22994,51549,41.18253,-95.45445,Macedonia,IA
1,12.122785423,MERCYONE DES MOINES MEDICAL CENTER,1111 6TH AVE,DES MOINES,IA,50314,41.6049,-93.63102,50035,41.7248,-93.45957,Bondurant,IA
1,12.122785423,BROADLAWNS MEDICAL CENTER,1801 HICKMAN ROAD,DES MOINES,IA,50314,41.6049,-93.63102,50035,41.7248,-93.45957,Bondurant,IA
1,8.761651077,SHENANDOAH MEDICAL CENTER,300 PERSHING AVENUE,SHENANDOAH,IA,51601,40.72938,-95.35037,51638,40.83919,-95.26663,Essex,IA
1,0,POCAHONTAS COMMUNITY HOSPITAL,606 N W 7TH STREET,POCAHONTAS,IA,50574,42.71891,-94.69967,50574,42.71891,-94.69967,Pocahontas,IA
1,11.697339110,MERCYONE NEWTON MEDICAL CENTER,204 N 4TH AVE E,NEWTON,IA,50208,41.71129,-93.03924,50141,41.86889,-92.95634,Laurel,IA
1,8.637275380,POCAHONTAS COMMUNITY HOSPITAL,606 N W 7TH STREET,POCAHONTAS,IA,50574,42.71891,-94.69967,50546,42.84388,-94.70347,Havelock,IA
1,7.308173587,GENESIS MEDICAL CENTER-DEWITT,1118 11TH STREET,DEWITT,IA,52742,41.83616,-90.51076,52758,41.74405,-90.44104,McCausland,IA
1,0,MITCHELL COUNTY REGIONAL HEALTH,616 NORTH EIGHTH STREET,OSAGE,IA,50461,43.29995,-92.81412,50461,43.29995,-92.81412,Osage,IA
1,8.045950776,PELLA REGIONAL HEALTH CENTER,404 JEFFERSON STREET,PELLA,IA,50219,41.42243,-92.90132,50119,41.31089,-92.94587,Harvey,IA
1,0,MERCYONE CENTERVILLE MEDICAL CENTER,ONE ST JOSEPH'S DRIVE,CENTERVILLE,IA,52544,40.71774,-92.90831,52544,40.71774,-92.90831,Centerville,IA
1,7.648231570,IOWA SPECIALTY HOSPITAL - CLARION,1316 SOUTH MAIN STREET,CLARION,IA,50525,42.73875,-93.74907,50101,42.66713,-93.63423,Galt,IA
1,9.065605790,UNITYPOINT HEALTH - MARSHALLTOWN,55 UNITYPOINT WAY,MARSHALLTOWN,IA,50158,42.05016,-92.90143,50120,41.93373,-92.9828,Haverhill,IA
1,7.819117803,CHI HEALTH - MERCY CORNING,603 ROSARY DRIVE,CORNING,IA,50841,41.01147,-94.76342,50857,40.94045,-94.88011,Nodaway,IA
1,11.032259249,JEFFERSON COUNTY HEALTH CENTER,2000 S MAIN,FAIRFIELD,IA,52556,41.01842,-91.9264,52540,41.15769,-91.82281,Brighton,IA
1,25.765779093,SOUTHEAST IOWA REGIONAL MEDICAL CENTER,1221 SOUTH GEAR AVENUE,WEST BURLINGTON,IA,52655,40.84768,-91.21174,52639,40.52763,-91.46409,Montrose,IA
1,17.205481524,BURGESS HEALTH CENTER,1600 DIAMOND STREET,ONAWA,IA,51040,42.03073,-96.0706,51564,41.81309,-95.90801,Pisgah,IA
1,8.991220047,BUENA VISTA REGIONAL MEDICAL CENTER,1525 WEST 5TH STREET,STORM LAKE,IA,50588,42.65777,-95.16391,50568,42.62171,-94.99395,Newell,IA
1,17.450247560,ST ANTHONY REGIONAL HOSPITAL & NURSING HOME,311 SOUTH CLARK STREET,CARROLL,IA,51401,42.06516,-94.87068,51466,42.25302,-95.09837,Wall Lake,IA
1,12.201798114,JACKSON COUNTY REGIONAL HEALTH CENTER,700 W GROVE ST,MAQUOKETA,IA,52060,42.10217,-90.67961,52254,41.95232,-90.80538,Lost Nation,IA
1,14.009666214,CHI HEALTH - MERCY CORNING,603 ROSARY DRIVE,CORNING,IA,50841,41.01147,-94.76342,50851,40.90327,-94.53637,Lenox,IA
1,15.717897535,JONES REGIONAL MEDICAL CENTER,1795 HIGHWAY 64 EAST,ANAMOSA,IA,52205,42.11754,-91.28806,52321,42.14168,-90.98307,Onslow,IA
1,14.352747079,MERCYONE NORTH IOWA MEDICAL CENTER,1000 FOURTH STREET SW,MASON CITY,IA,50401,43.15389,-93.20006,50482,43.12356,-93.48167,Ventura,IA
1,12.230965491,MERCYONE SIOUXLAND MEDICAL CENTER,801 5TH ST,SIOUX CITY,IA,51101,42.49413,-96.39361,51007,42.40225,-96.18857,Bronson,IA
1,7.452713232,CASS COUNTY MEMORIAL HOSPITAL,1501 EAST TENTH STREET,ATLANTIC,IA,50022,41.41737,-95.00352,51552,41.48613,-95.11439,Marne,IA
1,6.509774509,CRAWFORD COUNTY MEMORIAL HOSPITAL,100 MEDICAL PARKWAY,DENISON,IA,51442,42.02696,-95.35915,51520,41.9692,-95.4593,Arion,IA
1,7.169522124,IOWA SPECIALTY HOSPITAL - BELMOND,403 FIRST STREET SE,BELMOND,IA,50421,42.84246,-93.62148,50439,42.94578,-93.6345,Goodell,IA
1,7.520328547,GENESIS MEDICAL CENTER-DEWITT,1118 11TH STREET,DEWITT,IA,52742,41.83616,-90.51076,52756,41.72966,-90.54084,Long Grove,IA
1,11.680399912,VIRGINIA GAY HOSPITAL,502 NORTH 9TH AVENUE,VINTON,IA,52349,42.17246,-92.00566,52346,42.01298,-92.08119,Van Horne,IA
1,5.939218079,MERCYONE DYERSVILLE MEDICAL CENTER,1111 3RD STREET SW,DYERSVILLE,IA,52040,42.51114,-91.13884,52041,42.5051,-91.25515,Earlville,IA
1,25.393797318,HANCOCK COUNTY HEALTH SYSTEM,532 1ST ST NW,BRITT,IA,50423,43.11054,-93.81244,50473,43.46402,-93.67429,Scarville,IA
1,6.740423964,DECATUR COUNTY HOSPITAL,1405 NW CHURCH STREET,LEON,IA,50144,40.73327,-93.73615,50067,40.70452,-93.85914,Decatur,IA
1,14.227730465,HENRY COUNTY HEALTH CENTER,407 S WHITE ST,MOUNT PLEASANT,IA,52641,40.98799,-91.58531,52631,40.78308,-91.61209,Houghton,IA
1,8.280201341,REGIONAL MEDICAL CENTER,709 W MAIN STREET,MANCHESTER,IA,52057,42.4916,-91.45333,50654,42.45812,-91.60933,Masonville,IA
1,10.688004222,MERCYONE NORTH IOWA MEDICAL CENTER,1000 FOURTH STREET SW,MASON CITY,IA,50401,43.15389,-93.20006,50469,42.99922,-93.19767,Rockwell,IA
1,17.838155946,CRAWFORD COUNTY MEMORIAL HOSPITAL,100 MEDICAL PARKWAY,DENISON,IA,51442,42.02696,-95.35915,51529,41.8618,-95.62591,Dunlap,IA
1,14.192781140,VAN DIEST MEDICAL CENTER,2350 HOSPITAL DRIVE,WEBSTER CITY,IA,50595,42.46097,-93.82154,50271,42.48444,-93.54489,Williams,IA
1,0,BUENA VISTA REGIONAL MEDICAL CENTER,1525 WEST 5TH STREET,STORM LAKE,IA,50588,42.65777,-95.16391,50588,42.65777,-95.16391,Storm Lake,IA
1,5.716892499,TRINITY - BETTENDORF,4500 UTICA RIDGE ROAD,BETTENDORF,IA,52722,41.56633,-90.4673,52753,41.62544,-90.38989,Le Claire,IA
1,0,ST LUKES HOSPITAL,1026 A AVE NE,CEDAR RAPIDS,IA,52402,42.02272,-91.66001,52402,42.02272,-91.66001,Cedar Rapids,IA
1,0,MERCY MEDICAL CENTER - CEDAR RAPIDS,701 10TH STREET SE,CEDAR RAPIDS,IA,52403,41.96813,-91.57964,52403,41.96813,-91.57964,Cedar Rapids,IA
1,12.820505329,CRAWFORD COUNTY MEMORIAL HOSPITAL,100 MEDICAL PARKWAY,DENISON,IA,51442,42.02696,-95.35915,51454,41.8798,-95.2072,Manilla,IA
1,18.735978932,SOUTHEAST IOWA REGIONAL MEDICAL CENTER,1221 SOUTH GEAR AVENUE,WEST BURLINGTON,IA,52655,40.84768,-91.21174,52646,41.06706,-91.00072,Oakville,IA
1,0,DALLAS COUNTY HOSPITAL,610 TENTH STREET,PERRY,IA,50220,41.8366,-94.12293,50220,41.8366,-94.12293,Perry,IA
1,12.214820569,GENESIS MEDICAL CENTER-DEWITT,1118 11TH STREET,DEWITT,IA,52742,41.83616,-90.51076,52729,41.80063,-90.74312,Calamus,IA
1,2.312505818,ST LUKES HOSPITAL,1026 A AVE NE,CEDAR RAPIDS,IA,52402,42.02272,-91.66001,52233,42.04934,-91.68732,Hiawatha,IA
1,0,MERCYONE NORTH IOWA MEDICAL CENTER,1000 FOURTH STREET SW,MASON CITY,IA,50401,43.15389,-93.20006,50401,43.15389,-93.20006,Mason City,IA
1,10.886492938,JONES REGIONAL MEDICAL CENTER,1795 HIGHWAY 64 EAST,ANAMOSA,IA,52205,42.11754,-91.28806,52219,42.23758,-91.42576,Prairieburg,IA
1,14.111098859,REGIONAL HEALTH SERVICES OF HOWARD COUNTY,235 8TH AVENUE WEST,CRESCO,IA,52136,43.37139,-92.11289,52168,43.20339,-91.95338,Spillville,IA
1,0,IOWA SPECIALTY HOSPITAL - BELMOND,403 FIRST STREET SE,BELMOND,IA,50421,42.84246,-93.62148,50421,42.84246,-93.62148,Belmond,IA
1,14.849263276,AVERA MERRILL PIONEER HOSPITAL,1100 S 10TH AVE,ROCK RAPIDS,IA,51246,43.42764,-96.16564,51241,43.44992,-96.46001,Larchwood,IA
1,16.155626248,DALLAS COUNTY HOSPITAL,610 TENTH STREET,PERRY,IA,50220,41.8366,-94.12293,50233,41.61221,-94.21095,Redfield,IA
1,16.748377249,AVERA HOLY FAMILY HOSPITAL,826 NORTH 8TH STREET,ESTHERVILLE,IA,51334,43.40379,-94.80698,50514,43.41374,-94.47361,Armstrong,IA
1,10.703823432,KOSSUTH REGIONAL HEALTH CENTER,1515 SOUTH PHILLIPS STREET,ALGONA,IA,50511,43.07483,-94.21894,50559,43.20912,-94.32477,Lone Rock,IA
1,15.082808332,VETERANS MEMORIAL HOSPITAL,40 1ST STREET SE,WAUKON,IA,52172,43.27117,-91.48382,52160,43.46733,-91.3521,New Albin,IA
1,6.980226279,STEWART MEMORIAL COMMUNITY HOSPITAL,1301 WEST MAIN STREET,LAKE CITY,IA,51449,42.26614,-94.73475,51433,42.27635,-94.87057,Auburn,IA
1,12.797692707,MADISON COUNTY HEALTH CARE SYSTEM,300 WEST HUTCHINGS STREET,WINTERSET,IA,50273,41.32838,-94.05606,50070,41.45402,-94.23745,Dexter,IA
1,9.694744391,LAKES REGIONAL HEALTHCARE,2301 HIGHWAY 71,SPIRIT LAKE,IA,51360,43.43626,-95.08556,51351,43.31656,-95.18626,Milford,IA
1,10.318103715,HENRY COUNTY HEALTH CENTER,407 S WHITE ST,MOUNT PLEASANT,IA,52641,40.98799,-91.58531,52647,41.1342,-91.54506,Olds,IA
1,3.707037848,UNIVERSITY OF IOWA HOSPITAL & CLINICS,200 HAWKINS DRIVE,IOWA CITY,IA,52242,41.66195,-91.54317,52241,41.69708,-91.59746,Coralville,IA
1,14.603983999,HANSEN FAMILY HOSPITAL,920 SOUTH OAK STREET,IOWA FALLS,IA,50126,42.50875,-93.24815,50122,42.30218,-93.3087,Hubbard,IA
1,0,CASS COUNTY MEMORIAL HOSPITAL,1501 EAST TENTH STREET,ATLANTIC,IA,50022,41.41737,-95.00352,50022,41.41737,-95.00352,Atlantic,IA
1,10.889387795,HANSEN FAMILY HOSPITAL,920 SOUTH OAK STREET,IOWA FALLS,IA,50126,42.50875,-93.24815,50227,42.59388,-93.42818,Popejoy,IA
1,7.632758913,MERCYONE CLINTON MEDICAL CENTER,1410 NORTH 4TH STREET,CLINTON,IA,52732,41.90126,-90.25083,52750,41.933,-90.39302,Goose Lake,IA
1,8.268177057,METHODIST JENNIE EDMUNDSON,933 EAST PIERCE STREET,COUNCIL BLUFFS,IA,51503,41.2304,-95.77795,51510,41.28844,-95.91715,Carter Lake,IA
1,8.268177057,CHI HEALTH MERCY COUNCIL BLUFFS,800 MERCY DRIVE,COUNCIL BLUFFS,IA,51503,41.2304,-95.77795,51510,41.28844,-95.91715,Carter Lake,IA
1,15.292632736,BURGESS HEALTH CENTER,1600 DIAMOND STREET,ONAWA,IA,51040,42.03073,-96.0706,51056,42.23443,-95.95391,Smithland,IA
1,13.811790107,GRINNELL REGIONAL MEDICAL CENTER,210 FOURTH AVENUE,GRINNELL,IA,50112,41.7319,-92.71591,52211,41.75978,-92.45062,Brooklyn,IA
1,4.234197145,LAKES REGIONAL HEALTHCARE,2301 HIGHWAY 71,SPIRIT LAKE,IA,51360,43.43626,-95.08556,51355,43.38996,-95.14082,Okoboji,IA
1,11.856918502,ST LUKES HOSPITAL,1026 A AVE NE,CEDAR RAPIDS,IA,52402,42.02272,-91.66001,52206,41.99187,-91.88718,Atkins,IA
1,12.316335581,MADISON COUNTY HEALTH CARE SYSTEM,300 WEST HUTCHINGS STREET,WINTERSET,IA,50273,41.32838,-94.05606,50149,41.1512,-94.08194,Lorimor,IA
1,0,WAVERLY HEALTH CENTER,312  9TH STREET SW,WAVERLY,IA,50677,42.76363,-92.43775,50677,42.76363,-92.43775,Waverly,IA
1,6.038067808,SPENCER MUNICIPAL HOSPITAL,1200 1ST AVENUE EAST,SPENCER,IA,51301,43.15314,-95.14973,51340,43.2404,-95.15613,Fostoria,IA
1,14.979571108,STEWART MEMORIAL COMMUNITY HOSPITAL,1301 WEST MAIN STREET,LAKE CITY,IA,51449,42.26614,-94.73475,50551,42.48242,-94.75484,Jolley,IA
1,8.449916919,UNITYPOINT HEALTH - MARSHALLTOWN,55 UNITYPOINT WAY,MARSHALLTOWN,IA,50158,42.05016,-92.90143,50005,42.1295,-93.02683,Albion,IA
1,6.856483471,GUTTENBERG MUNICIPAL HOSPITAL,200 MAIN STREET,GUTTENBERG,IA,52052,42.7411,-91.12083,52048,42.73735,-91.25584,Garber,IA
1,13.019932192,STORY COUNTY HOSPITAL,640 SOUTH 19TH STREET,NEVADA,IA,50201,42.03337,-93.44434,50055,41.88456,-93.2889,Collins,IA
1,12.624402201,GUNDERSEN PALMER LUTHERAN HOSPITAL AND CLINICS,112 JEFFERSON STREET,WEST UNION,IA,52175,42.99372,-91.82389,52171,43.07451,-92.04808,Waucoma,IA
1,13.765962690,MADISON COUNTY HEALTH CARE SYSTEM,300 WEST HUTCHINGS STREET,WINTERSET,IA,50273,41.32838,-94.05606,50033,41.36048,-93.79416,Bevington,IA
1,11.035234902,UNITYPOINT HEALTH - DES MOINES IOWA METHODIST MEDI,1200 PLEASANT STREET,DES MOINES,IA,50309,41.58448,-93.62152,50047,41.47551,-93.46556,Carlisle,IA
1,13.382947393,TRINITY MUSCATINE,1518 MULBERRY AVENUE,MUSCATINE,IA,52761,41.43798,-91.05802,52747,41.59758,-90.91147,Durant,IA
1,10.156432807,SOUTHEAST IOWA REGIONAL MEDICAL CENTER,1221 SOUTH GEAR AVENUE,WEST BURLINGTON,IA,52655,40.84768,-91.21174,52624,40.7348,-91.33609,Denmark,IA
1,15.757129427,FRANKLIN GENERAL HOSPITAL,1720 CENTRAL AVENUE EAST,HAMPTON,IA,50441,42.73938,-93.22146,50433,42.92852,-93.04774,Dougherty,IA
1,26.478363234,HANCOCK COUNTY HEALTH SYSTEM,532 1ST ST NW,BRITT,IA,50423,43.11054,-93.81244,50465,43.48703,-93.91056,Rake,IA
1,15.190989212,JONES REGIONAL MEDICAL CENTER,1795 HIGHWAY 64 EAST,ANAMOSA,IA,52205,42.11754,-91.28806,52362,42.05881,-91.00258,Wyoming,IA
1,12.267221986,COMPASS MEMORIAL HEALTHCARE,300 W MAY ST,MARENGO,IA,52301,41.78658,-92.09013,52318,41.89012,-91.89656,Norway,IA
1,8.382303767,GUTTENBERG MUNICIPAL HOSPITAL,200 MAIN STREET,GUTTENBERG,IA,52052,42.7411,-91.12083,52066,42.693,-90.96925,North Buena Vista,IA
1,8.296103760,MERCYONE DUBUQUE MEDICAL CENTER,250 MERCY DRIVE,DUBUQUE,IA,52001,42.54819,-90.69348,52073,42.62331,-90.82069,Sherrill,IA
1,8.296103760,FINLEY HOSPITAL,350 NORTH GRANDVIEW AVENUE,DUBUQUE,IA,52001,42.54819,-90.69348,52073,42.62331,-90.82069,Sherrill,IA
1,10.358347539,MONROE COUNTY HOSPITAL,6580 165TH STREET,ALBIA,IA,52531,41.02684,-92.81562,52571,40.87739,-92.83114,Moravia,IA
1,20.165520161,VAN BUREN COUNTY HOSPITAL,304 FRANKLIN STREET,KEOSAUQUA,IA,52565,40.74005,-91.94332,52625,40.66604,-91.57094,Donnellson,IA
1,10.254577793,BUCHANAN COUNTY HEALTH CENTER,1600 FIRST ST EAST,INDEPENDENCE,IA,50644,42.47751,-91.89721,50682,42.45241,-91.69893,Winthrop,IA
1,10.819066064,IOWA SPECIALTY HOSPITAL - BELMOND,403 FIRST STREET SE,BELMOND,IA,50421,42.84246,-93.62148,50447,42.92719,-93.80118,Kanawha,IA
1,9.559198693,HENRY COUNTY HEALTH CENTER,407 S WHITE ST,MOUNT PLEASANT,IA,52641,40.98799,-91.58531,52644,41.03988,-91.41535,Mount Union,IA
1,10.255403082,ALLEN HOSPITAL,1825 LOGAN AVENUE,WATERLOO,IA,50703,42.54817,-92.28195,50668,42.69087,-92.2265,Readlyn,IA
1,15.896862437,POCAHONTAS COMMUNITY HOSPITAL,606 N W 7TH STREET,POCAHONTAS,IA,50574,42.71891,-94.69967,50563,42.52802,-94.52515,Manson,IA
1,9.180021417,WAYNE COUNTY HOSPITAL,417 SOUTH EAST STREET,CORYDON,IA,50060,40.75508,-93.31922,52583,40.80284,-93.1555,Promise City,IA
1,16.696029847,TRINITY MUSCATINE,1518 MULBERRY AVENUE,MUSCATINE,IA,52761,41.43798,-91.05802,52739,41.3728,-91.36823,Conesville,IA
1,10.755104109,JACKSON COUNTY REGIONAL HEALTH CENTER,700 W GROVE ST,MAQUOKETA,IA,52060,42.10217,-90.67961,52309,42.12415,-90.88733,Monmouth,IA
1,0,SPENCER MUNICIPAL HOSPITAL,1200 1ST AVENUE EAST,SPENCER,IA,51301,43.15314,-95.14973,51301,43.15314,-95.14973,Spencer,IA
1,9.992323462,HANCOCK COUNTY HEALTH SYSTEM,532 1ST ST NW,BRITT,IA,50423,43.11054,-93.81244,50484,43.23609,-93.91084,Woden,IA
1,6.783208527,ORANGE CITY AREA HEALTH SYSTEM,1000 LINCOLN CIRCLE SE,ORANGE CITY,IA,51041,43.02443,-96.07701,51036,42.97074,-96.18938,Maurice,IA
1,11.784615098,GENESIS MEDICAL CENTER-DAVENPORT,1227 EAST RUSHOLME STREET,DAVENPORT,IA,52803,41.53871,-90.55623,52773,41.62187,-90.75529,Walcott,IA
1,10.773474930,MITCHELL COUNTY REGIONAL HEALTH,616 NORTH EIGHTH STREET,OSAGE,IA,50461,43.29995,-92.81412,50472,43.42265,-92.94644,Saint Ansgar,IA
1,5.851843459,GRUNDY COUNTY MEMORIAL HOSPITAL,201 EAST J AVENUE,GRUNDY CENTER,IA,50638,42.35654,-92.79495,50642,42.44024,-92.81243,Holland,IA
1,12.044470279,MERCYONE ELKADER MEDICAL CENTER,901 DAVIDSON STREET NW,ELKADER,IA,52043,42.84403,-91.42201,52169,42.84739,-91.65971,Wadena,IA
1,0,GRUNDY COUNTY MEMORIAL HOSPITAL,201 EAST J AVENUE,GRUNDY CENTER,IA,50638,42.35654,-92.79495,50638,42.35654,-92.79495,Grundy Center,IA
1,10.386718711,KNOXVILLE HOSPITAL & CLINICS,1002 SOUTH LINCOLN STREET,KNOXVILLE,IA,50138,41.30246,-93.10534,50256,41.2664,-92.91114,Tracy,IA
1,0,GREENE COUNTY MEDICAL CENTER,1000 WEST LINCOLN WAY,JEFFERSON,IA,50129,42.01335,-94.3764,50129,42.01335,-94.3764,Jefferson,IA
1,0,VAN BUREN COUNTY HOSPITAL,304 FRANKLIN STREET,KEOSAUQUA,IA,52565,40.74005,-91.94332,52565,40.74005,-91.94332,Keosauqua,IA
1,11.983814756,MADISON COUNTY HEALTH CARE SYSTEM,300 WEST HUTCHINGS STREET,WINTERSET,IA,50273,41.32838,-94.05606,50261,41.47014,-93.92286,Van Meter,IA
1,12.799355384,GRUNDY COUNTY MEMORIAL HOSPITAL,201 EAST J AVENUE,GRUNDY CENTER,IA,50638,42.35654,-92.79495,50269,42.26236,-93.01064,Whitten,IA
1,17.056480727,CHI HEALTH MISSOURI VALLEY,631 N 8TH ST,MISSOURI VALLEY,IA,51555,41.55937,-95.91398,51579,41.75171,-95.7069,Woodbine,IA
1,11.623047957,VETERANS MEMORIAL HOSPITAL,40 1ST STREET SE,WAUKON,IA,52172,43.27117,-91.48382,52162,43.11062,-91.55266,Postville,IA
1,19.656606703,HORN MEMORIAL HOSPITAL,701 E 2ND ST,IDA GROVE,IA,51445,42.32719,-95.46724,51016,42.46907,-95.80113,Correctionville,IA
1,0,STORY COUNTY HOSPITAL,640 SOUTH 19TH STREET,NEVADA,IA,50201,42.03337,-93.44434,50201,42.03337,-93.44434,Nevada,IA
1,7.756009257,MERCYONE NORTH IOWA MEDICAL CENTER,1000 FOURTH STREET SW,MASON CITY,IA,50401,43.15389,-93.20006,50467,43.20916,-93.06608,Rock Falls,IA
1,14.625274937,STORY COUNTY HOSPITAL,640 SOUTH 19TH STREET,NEVADA,IA,50201,42.03337,-93.44434,50239,42.14431,-93.20144,Saint Anthony,IA
1,9.634496522,CASS COUNTY MEMORIAL HOSPITAL,1501 EAST TENTH STREET,ATLANTIC,IA,50022,41.41737,-95.00352,50042,41.53326,-94.90004,Brayton,IA
1,11.248952295,"SARTORI MEMORIAL HOSPITAL, INC",515 COLLEGE STREET,CEDAR FALLS,IA,50613,42.53358,-92.49069,50673,42.52505,-92.7113,Stout,IA
1,7.875859055,MERCY MEDICAL CENTER-NEW HAMPTON,308 NORTH MAPLE AVENUE,NEW HAMPTON,IA,50659,43.08749,-92.3221,50645,43.02174,-92.44952,Ionia,IA
1,6.858843754,ST LUKES HOSPITAL,1026 A AVE NE,CEDAR RAPIDS,IA,52402,42.02272,-91.66001,52341,42.10535,-91.7341,Toddville,IA
1,14.498496390,BROADLAWNS MEDICAL CENTER,1801 HICKMAN ROAD,DES MOINES,IA,50314,41.6049,-93.63102,50109,41.76802,-93.80775,Granger,IA
1,14.498496390,MERCYONE DES MOINES MEDICAL CENTER,1111 6TH AVE,DES MOINES,IA,50314,41.6049,-93.63102,50109,41.76802,-93.80775,Granger,IA
1,5.995141531,STEWART MEMORIAL COMMUNITY HOSPITAL,1301 WEST MAIN STREET,LAKE CITY,IA,51449,42.26614,-94.73475,51451,42.1846,-94.69471,Lanesboro,IA
1,0,ORANGE CITY AREA HEALTH SYSTEM,1000 LINCOLN CIRCLE SE,ORANGE CITY,IA,51041,43.02443,-96.07701,51041,43.02443,-96.07701,Orange City,IA
1,7.869667630,HANCOCK COUNTY HEALTH SYSTEM,532 1ST ST NW,BRITT,IA,50423,43.11054,-93.81244,50432,43.22394,-93.79794,Crystal Lake,IA
1,10.540502932,COMPASS MEMORIAL HEALTHCARE,300 W MAY ST,MARENGO,IA,52301,41.78658,-92.09013,52361,41.6446,-92.0154,Williamsburg,IA
1,10.340389995,MADISON COUNTY HEALTH CARE SYSTEM,300 WEST HUTCHINGS STREET,WINTERSET,IA,50273,41.32838,-94.05606,50072,41.46984,-94.12115,Earlham,IA
1,8.142617075,VAN BUREN COUNTY HOSPITAL,304 FRANKLIN STREET,KEOSAUQUA,IA,52565,40.74005,-91.94332,52620,40.7032,-91.79563,Bonaparte,IA
1,7.704769502,HAWARDEN REGIONAL HEALTHCARE,1111 11TH STREET,HAWARDEN,IA,51023,43.00893,-96.46845,51027,42.96575,-96.32791,Ireton,IA
1,8.485310412,MERCYONE DES MOINES MEDICAL CENTER,1111 6TH AVE,DES MOINES,IA,50314,41.6049,-93.63102,50023,41.72768,-93.63412,Ankeny,IA
1,8.485310412,BROADLAWNS MEDICAL CENTER,1801 HICKMAN ROAD,DES MOINES,IA,50314,41.6049,-93.63102,50023,41.72768,-93.63412,Ankeny,IA
1,6.646514119,FRANKLIN GENERAL HOSPITAL,1720 CENTRAL AVENUE EAST,HAMPTON,IA,50441,42.73938,-93.22146,50427,42.83557,-93.22116,Chapin,IA
1,8.480351255,COMPASS MEMORIAL HEALTHCARE,300 W MAY ST,MARENGO,IA,52301,41.78658,-92.09013,52334,41.73084,-91.94355,South Amana,IA
1,7.414330688,JONES REGIONAL MEDICAL CENTER,1795 HIGHWAY 64 EAST,ANAMOSA,IA,52205,42.11754,-91.28806,52305,42.01801,-91.34207,Martelle,IA
1,8.663979996,MERCYONE PRIMGHAR MEDICAL CENTER,255 N WELCH AVENUE,PRIMGHAR,IA,51245,43.07788,-95.60149,51046,42.96621,-95.67949,Paullina,IA
1,9.186619355,VAN DIEST MEDICAL CENTER,2350 HOSPITAL DRIVE,WEBSTER CITY,IA,50595,42.46097,-93.82154,50532,42.46212,-94.00175,Duncombe,IA
1,17.164682979,SPENCER MUNICIPAL HOSPITAL,1200 1ST AVENUE EAST,SPENCER,IA,51301,43.15314,-95.14973,51033,42.91653,-95.25324,Linn Grove,IA
1,10.275831495,UNITYPOINT HEALTH - MARSHALLTOWN,55 UNITYPOINT WAY,MARSHALLTOWN,IA,50158,42.05016,-92.90143,50148,42.18142,-92.99567,Liscomb,IA
1,10.786138438,HUMBOLDT COUNTY MEMORIAL HOSPITAL,1000 NORTH 15TH STREET,HUMBOLDT,IA,50548,42.71275,-94.22645,50520,42.80524,-94.39772,Bradgate,IA
1,0,STEWART MEMORIAL COMMUNITY HOSPITAL,1301 WEST MAIN STREET,LAKE CITY,IA,51449,42.26614,-94.73475,51449,42.26614,-94.73475,Lake City,IA
1,13.501891650,REGIONAL MEDICAL CENTER,709 W MAIN STREET,MANCHESTER,IA,52057,42.4916,-91.45333,50650,42.61915,-91.65429,Lamont,IA
1,5.963400295,ST ANTHONY REGIONAL HOSPITAL & NURSING HOME,311 SOUTH CLARK STREET,CARROLL,IA,51401,42.06516,-94.87068,51452,42.12242,-94.78366,Lidderdale,IA
1,9.163227973,METHODIST JENNIE EDMUNDSON,933 EAST PIERCE STREET,COUNCIL BLUFFS,IA,51503,41.2304,-95.77795,51575,41.24111,-95.60218,Treynor,IA
1,9.163227973,CHI HEALTH MERCY COUNCIL BLUFFS,800 MERCY DRIVE,COUNCIL BLUFFS,IA,51503,41.2304,-95.77795,51575,41.24111,-95.60218,Treynor,IA
1,10.525006137,HANSEN FAMILY HOSPITAL,920 SOUTH OAK STREET,IOWA FALLS,IA,50126,42.50875,-93.24815,50601,42.56612,-93.05665,Ackley,IA
1,9.524493219,MERCYONE PRIMGHAR MEDICAL CENTER,255 N WELCH AVENUE,PRIMGHAR,IA,51245,43.07788,-95.60149,51009,42.94499,-95.55142,Calumet,IA
1,16.678867970,FRANKLIN GENERAL HOSPITAL,1720 CENTRAL AVENUE EAST,HAMPTON,IA,50441,42.73938,-93.22146,50611,42.8193,-92.91114,Bristow,IA
1,0,MERCY MEDICAL CENTER-NEW HAMPTON,308 NORTH MAPLE AVENUE,NEW HAMPTON,IA,50659,43.08749,-92.3221,50659,43.08749,-92.3221,New Hampton,IA
1,7.909484025,VIRGINIA GAY HOSPITAL,502 NORTH 9TH AVENUE,VINTON,IA,52349,42.17246,-92.00566,52332,42.09861,-91.88772,Shellsburg,IA
1,8.686484928,MERCYONE DES MOINES MEDICAL CENTER,1111 6TH AVE,DES MOINES,IA,50314,41.6049,-93.63102,50325,41.61475,-93.79864,Clive,IA
1,8.686484928,BROADLAWNS MEDICAL CENTER,1801 HICKMAN ROAD,DES MOINES,IA,50314,41.6049,-93.63102,50325,41.61475,-93.79864,Clive,IA
1,11.193592269,GREATER REGIONAL MEDICAL CENTER,1700 WEST TOWNLINE STREET,CRESTON,IA,50801,41.07959,-94.39224,50830,41.0242,-94.19037,Afton,IA
1,4.538101994,MERCYONE WATERLOO MEDICAL CENTER,3421 WEST NINTH STREET,WATERLOO,IA,50702,42.45745,-92.31283,50667,42.47003,-92.22545,Raymond,IA
1,9.796265195,OSCEOLA COMMUNITY HOSPITAL,600 9TH AVENUE NORTH,SIBLEY,IA,51249,43.41068,-95.73203,51350,43.30752,-95.59827,Melvin,IA
1,14.313861744,MERCYONE SIOUXLAND MEDICAL CENTER,801 5TH ST,SIOUX CITY,IA,51101,42.49413,-96.39361,51052,42.31063,-96.26343,Salix,IA
1,11.459753744,IOWA SPECIALTY HOSPITAL - BELMOND,403 FIRST STREET SE,BELMOND,IA,50421,42.84246,-93.62148,50449,43.00129,-93.55629,Klemme,IA
1,9.511325251,CLARINDA REGIONAL HEALTH CENTER,220 ESSIE DAVISON DRIVE,CLARINDA,IA,51632,40.7478,-95.04939,51637,40.62046,-95.11832,College Springs,IA
1,8.928466542,DECATUR COUNTY HOSPITAL,1405 NW CHURCH STREET,LEON,IA,50144,40.73327,-93.73615,50065,40.60859,-93.78089,Davis City,IA
1,6.446695536,WAYNE COUNTY HOSPITAL,417 SOUTH EAST STREET,CORYDON,IA,50060,40.75508,-93.31922,50165,40.84808,-93.30937,Millerton,IA
1,0,TRINITY MUSCATINE,1518 MULBERRY AVENUE,MUSCATINE,IA,52761,41.43798,-91.05802,52761,41.43798,-91.05802,Muscatine,IA
1,16.164518277,MYRTUE MEDICAL CENTER,1213 GARFIELD AVENUE,HARLAN,IA,51537,41.64646,-95.29531,51563,41.5769,-95.59405,Persia,IA
1,10.074352540,KOSSUTH REGIONAL HEALTH CENTER,1515 SOUTH PHILLIPS STREET,ALGONA,IA,50511,43.07483,-94.21894,50598,43.08023,-94.41841,Whittemore,IA
1,14.285543425,REGIONAL MEDICAL CENTER,709 W MAIN STREET,MANCHESTER,IA,52057,42.4916,-91.45333,52218,42.2946,-91.53826,Coggon,IA
1,0,MYRTUE MEDICAL CENTER,1213 GARFIELD AVENUE,HARLAN,IA,51537,41.64646,-95.29531,51537,41.64646,-95.29531,Harlan,IA
1,11.041497789,GEORGE C GRAPE COMMUNITY HOSPITAL,2959 US HIGHWAY 275,HAMBURG,IA,51640,40.62262,-95.6634,51648,40.74215,-95.80325,Percival,IA
1,14.150602415,GRINNELL REGIONAL MEDICAL CENTER,210 FOURTH AVENUE,GRINNELL,IA,50112,41.7319,-92.71591,50171,41.58434,-92.52584,Montezuma,IA
1,0,OTTUMWA REGIONAL HEALTH CENTER,1001 E PENNSYLVANIA,OTTUMWA,IA,52501,41.03828,-92.43252,52501,41.03828,-92.43252,Ottumwa,IA
1,12.618203456,MONROE COUNTY HOSPITAL,6580 165TH STREET,ALBIA,IA,52531,41.02684,-92.81562,52569,40.97968,-93.04939,Melrose,IA
1,13.823513999,MERCYONE DES MOINES MEDICAL CENTER,1111 6TH AVE,DES MOINES,IA,50314,41.6049,-93.63102,50007,41.80365,-93.60043,Alleman,IA
1,13.823513999,BROADLAWNS MEDICAL CENTER,1801 HICKMAN ROAD,DES MOINES,IA,50314,41.6049,-93.63102,50007,41.80365,-93.60043,Alleman,IA
1,2.330819761,TRINITY - BETTENDORF,4500 UTICA RIDGE ROAD,BETTENDORF,IA,52722,41.56633,-90.4673,52767,41.57356,-90.42326,Pleasant Valley,IA
1,9.532514000,KEOKUK COUNTY HEALTH CENTER,23019 HIGHWAY 149,SIGOURNEY,IA,52591,41.31988,-92.19465,52355,41.4576,-92.18387,Webster,IA
1,0,CHI HEALTH MISSOURI VALLEY,631 N 8TH ST,MISSOURI VALLEY,IA,51555,41.55937,-95.91398,51555,41.55937,-95.91398,Missouri Valley,IA
1,18.140280680,COMPASS MEMORIAL HEALTHCARE,300 W MAY ST,MARENGO,IA,52301,41.78658,-92.09013,52215,41.91018,-92.40106,Chelsea,IA
1,6.958510401,AUDUBON COUNTY MEMORIAL HOSPITAL,515 PACIFIC AVENUE,AUDUBON,IA,50025,41.75628,-94.92034,50110,41.84424,-94.98612,Gray,IA
1,0,CLARKE COUNTY HOSPITAL,800 S FILLMORE ST,OSCEOLA,IA,50213,41.03292,-93.76557,50213,41.03292,-93.76557,Osceola,IA
1,11.231727397,MAHASKA  HEALTH PARTNERSHIP,1229 C AVENUE EAST,OSKALOOSA,IA,52577,41.27174,-92.6602,50207,41.43344,-92.6381,New Sharon,IA
1,0,HANCOCK COUNTY HEALTH SYSTEM,532 1ST ST NW,BRITT,IA,50423,43.11054,-93.81244,50423,43.11054,-93.81244,Britt,IA
1,0,MARY GREELEY MEDICAL CENTER,1111 DUFF AVENUE,AMES,IA,50010,42.03316,-93.58761,50010,42.03316,-93.58761,Ames,IA
1,8.376773133,FINLEY HOSPITAL,350 NORTH GRANDVIEW AVENUE,DUBUQUE,IA,52001,42.54819,-90.69348,52039,42.53807,-90.85745,Durango,IA
1,8.376773133,MERCYONE DUBUQUE MEDICAL CENTER,250 MERCY DRIVE,DUBUQUE,IA,52001,42.54819,-90.69348,52039,42.53807,-90.85745,Durango,IA
1,7.327917678,DALLAS COUNTY HOSPITAL,610 TENTH STREET,PERRY,IA,50220,41.8366,-94.12293,50167,41.74613,-94.04871,Minburn,IA
1,14.669823408,"SARTORI MEMORIAL HOSPITAL, INC",515 COLLEGE STREET,CEDAR FALLS,IA,50613,42.53358,-92.49069,50665,42.58078,-92.7717,Parkersburg,IA
1,10.244359749,PELLA REGIONAL HEALTH CENTER,404 JEFFERSON STREET,PELLA,IA,50219,41.42243,-92.90132,50251,41.56883,-92.87007,Sully,IA
1,9.239937000,GRUNDY COUNTY MEMORIAL HOSPITAL,201 EAST J AVENUE,GRUNDY CENTER,IA,50638,42.35654,-92.79495,50680,42.44956,-92.92505,Wellsburg,IA
1,0,FLOYD COUNTY MEDICAL CENTER,800 11TH ST,CHARLES CITY,IA,50616,43.07978,-92.66104,50616,43.07978,-92.66104,Charles City,IA
1,24.775337622,VAN BUREN COUNTY HOSPITAL,304 FRANKLIN STREET,KEOSAUQUA,IA,52565,40.74005,-91.94332,52619,40.5246,-91.56566,Argyle,IA
1,11.366670160,POCAHONTAS COMMUNITY HOSPITAL,606 N W 7TH STREET,POCAHONTAS,IA,50574,42.71891,-94.69967,50554,42.84648,-94.84118,Laurens,IA
1,7.991583106,TRINITY REGIONAL MEDICAL CENTER,802 KENYON RD,FORT DODGE,IA,50501,42.49244,-94.18967,50566,42.43925,-94.32889,Moorland,IA
1,5.448171902,ST LUKES HOSPITAL,1026 A AVE NE,CEDAR RAPIDS,IA,52402,42.02272,-91.66001,52302,42.0656,-91.57091,Marion,IA
1,7.149385498,MERCYONE OELWEIN MEDICAL CENTER,201 EIGHTH AVENUE SE,OELWEIN,IA,50662,42.68748,-91.93396,50664,42.70698,-92.07222,Oran,IA
1,0,UNIVERSITY OF IOWA HEALTH CARE MEDICAL CENTER DOWN,500 E MARKET STREET,IOWA CITY,IA,52245,41.67071,-91.50666,52245,41.67071,-91.50666,Iowa City,IA
1,0,UNIVERSITY OF IOWA HOSPITAL & CLINICS,200 HAWKINS DRIVE,IOWA CITY,IA,52242,41.66195,-91.54317,52242,41.66195,-91.54317,Iowa City,IA
1,6.359240475,FLOYD VALLEY HEALTHCARE,714 LINCOLN ST NE,LE MARS,IA,51031,42.80282,-96.18092,51045,42.82019,-96.05772,Oyens,IA
1,7.920984320,MONTGOMERY COUNTY MEMORIAL HOSPITAL,2301 EASTERN AVENUE,RED OAK,IA,51566,41.0151,-95.22994,51533,41.03606,-95.37933,Emerson,IA
1,6.359498280,UNIVERSITY OF IOWA HOSPITAL & CLINICS,200 HAWKINS DRIVE,IOWA CITY,IA,52242,41.66195,-91.54317,52235,41.57024,-91.53281,Hills,IA
1,12.980907040,BUENA VISTA REGIONAL MEDICAL CENTER,1525 WEST 5TH STREET,STORM LAKE,IA,50588,42.65777,-95.16391,51053,42.4938,-95.28842,Schaller,IA
1,11.656660770,BUENA VISTA REGIONAL MEDICAL CENTER,1525 WEST 5TH STREET,STORM LAKE,IA,50588,42.65777,-95.16391,50510,42.76084,-94.98216,Albert City,IA
1,7.842718467,REGIONAL HEALTH SERVICES OF HOWARD COUNTY,235 8TH AVENUE WEST,CRESCO,IA,52136,43.37139,-92.11289,52165,43.30671,-91.98465,Ridgeway,IA
1,11.034552606,TRINITY REGIONAL MEDICAL CENTER,802 KENYON RD,FORT DODGE,IA,50501,42.49244,-94.18967,50521,42.3462,-94.10276,Burnside,IA
1,12.710180673,MERCY MEDICAL CENTER - CEDAR RAPIDS,701 10TH STREET SE,CEDAR RAPIDS,IA,52403,41.96813,-91.57964,52253,41.89713,-91.35154,Lisbon,IA
1,12.940800109,HANCOCK COUNTY HEALTH SYSTEM,532 1ST ST NW,BRITT,IA,50423,43.11054,-93.81244,50436,43.26256,-93.66242,Forest City,IA
1,13.806415740,IOWA SPECIALTY HOSPITAL - CLARION,1316 SOUTH MAIN STREET,CLARION,IA,50525,42.73875,-93.74907,50071,42.64931,-93.50597,Dows,IA
1,13.284140672,VAN BUREN COUNTY HOSPITAL,304 FRANKLIN STREET,KEOSAUQUA,IA,52565,40.74005,-91.94332,52630,40.80375,-91.7038,Hillsboro,IA
1,10.510983377,CHI HEALTH MERCY COUNCIL BLUFFS,800 MERCY DRIVE,COUNCIL BLUFFS,IA,51503,41.2304,-95.77795,51571,41.14582,-95.60994,Silver City,IA
1,10.510983377,METHODIST JENNIE EDMUNDSON,933 EAST PIERCE STREET,COUNCIL BLUFFS,IA,51503,41.2304,-95.77795,51571,41.14582,-95.60994,Silver City,IA
1,12.079309003,MYRTUE MEDICAL CENTER,1213 GARFIELD AVENUE,HARLAN,IA,51537,41.64646,-95.29531,51570,41.52271,-95.46039,Shelby,IA
1,15.063497002,OSCEOLA COMMUNITY HOSPITAL,600 9TH AVENUE NORTH,SIBLEY,IA,51249,43.41068,-95.73203,51345,43.4181,-95.43209,Harris,IA
1,7.803914440,DALLAS COUNTY HOSPITAL,610 TENTH STREET,PERRY,IA,50220,41.8366,-94.12293,50235,41.92974,-94.20873,Rippey,IA
1,12.259385512,GREENE COUNTY MEDICAL CENTER,1000 WEST LINCOLN WAY,JEFFERSON,IA,50129,42.01335,-94.3764,50031,42.03881,-94.14003,Beaver,IA
1,14.043654645,VIRGINIA GAY HOSPITAL,502 NORTH 9TH AVENUE,VINTON,IA,52349,42.17246,-92.00566,52352,42.28706,-91.77897,Walker,IA
1,9.376295114,SPENCER MUNICIPAL HOSPITAL,1200 1ST AVENUE EAST,SPENCER,IA,51301,43.15314,-95.14973,51357,43.06215,-95.28762,Royal,IA
1,9.274125358,CHI HEALTH - MERCY CORNING,603 ROSARY DRIVE,CORNING,IA,50841,41.01147,-94.76342,50859,41.06505,-94.60027,Prescott,IA
1,10.092592098,VAN BUREN COUNTY HOSPITAL,304 FRANKLIN STREET,KEOSAUQUA,IA,52565,40.74005,-91.94332,52551,40.81877,-92.1058,Douds,IA
1,10.080053427,MERCYONE NEWTON MEDICAL CENTER,204 N 4TH AVE E,NEWTON,IA,50208,41.71129,-93.03924,50054,41.68729,-93.23196,Colfax,IA
1,17.521519944,UNITYPOINT HEALTH - DES MOINES IOWA METHODIST MEDI,1200 PLEASANT STREET,DES MOINES,IA,50309,41.58448,-93.62152,50125,41.33286,-93.57957,Indianola,IA
1,0,DECATUR COUNTY HOSPITAL,1405 NW CHURCH STREET,LEON,IA,50144,40.73327,-93.73615,50144,40.73327,-93.73615,Leon,IA
1,10.627361167,VAN BUREN COUNTY HOSPITAL,304 FRANKLIN STREET,KEOSAUQUA,IA,52565,40.74005,-91.94332,52651,40.85819,-91.81323,Stockport,IA
1,8.099181644,MERCYONE OELWEIN MEDICAL CENTER,201 EIGHTH AVENUE SE,OELWEIN,IA,50662,42.68748,-91.93396,50629,42.64222,-92.081,Fairbank,IA
1,13.452830134,METHODIST JENNIE EDMUNDSON,933 EAST PIERCE STREET,COUNCIL BLUFFS,IA,51503,41.2304,-95.77795,51534,41.04092,-95.71853,Glenwood,IA
1,13.452830134,CHI HEALTH MERCY COUNCIL BLUFFS,800 MERCY DRIVE,COUNCIL BLUFFS,IA,51503,41.2304,-95.77795,51534,41.04092,-95.71853,Glenwood,IA
1,0,MONROE COUNTY HOSPITAL,6580 165TH STREET,ALBIA,IA,52531,41.02684,-92.81562,52531,41.02684,-92.81562,Albia,IA
1,7.251985678,MERCYONE ELKADER MEDICAL CENTER,901 DAVIDSON STREET NW,ELKADER,IA,52043,42.84403,-91.42201,52044,42.76808,-91.32328,Elkport,IA
1,13.523759646,UNIVERSITY OF IOWA HEALTH CARE MEDICAL CENTER DOWN,500 E MARKET STREET,IOWA CITY,IA,52245,41.67071,-91.50666,52776,41.5795,-91.275,West Liberty,IA
1,15.906082786,KEOKUK COUNTY HEALTH CENTER,23019 HIGHWAY 149,SIGOURNEY,IA,52591,41.31988,-92.19465,52316,41.53727,-92.09367,North English,IA
1,10.833630333,MADISON COUNTY HEALTH CARE SYSTEM,300 WEST HUTCHINGS STREET,WINTERSET,IA,50273,41.32838,-94.05606,50155,41.21288,-94.19713,Macksburg,IA
1,10.929302659,MERCYONE OELWEIN MEDICAL CENTER,201 EIGHTH AVENUE SE,OELWEIN,IA,50662,42.68748,-91.93396,50607,42.60872,-91.74747,Aurora,IA
1,12.097087111,VIRGINIA GAY HOSPITAL,502 NORTH 9TH AVENUE,VINTON,IA,52349,42.17246,-92.00566,52213,42.1995,-91.77222,Center Point,IA
1,15.084756484,VIRGINIA GAY HOSPITAL,502 NORTH 9TH AVENUE,VINTON,IA,52349,42.17246,-92.00566,52249,42.01202,-92.20517,Keystone,IA
1,13.269283076,JACKSON COUNTY REGIONAL HEALTH CENTER,700 W GROVE ST,MAQUOKETA,IA,52060,42.10217,-90.67961,52069,42.05772,-90.4279,Preston,IA
1,10.111158527,COMMUNITY MEMORIAL HOSPITAL MEDICAL CENTER,909 WEST FIRST STREET,SUMNER,IA,50674,42.84202,-92.11746,50631,42.88254,-92.30929,Frederika,IA
1,6.319211630,JONES REGIONAL MEDICAL CENTER,1795 HIGHWAY 64 EAST,ANAMOSA,IA,52205,42.11754,-91.28806,52252,42.19712,-91.22727,Langworthy,IA
1,8.715046204,IOWA SPECIALTY HOSPITAL - BELMOND,403 FIRST STREET SE,BELMOND,IA,50421,42.84246,-93.62148,50420,42.80621,-93.45677,Alexander,IA
1,10.866019137,HENRY COUNTY HEALTH CENTER,407 S WHITE ST,MOUNT PLEASANT,IA,52641,40.98799,-91.58531,52645,40.91429,-91.40138,New London,IA
1,9.785387988,MERCYONE NORTH IOWA MEDICAL CENTER,1000 FOURTH STREET SW,MASON CITY,IA,50401,43.15389,-93.20006,50458,43.15969,-93.00609,Nora Springs,IA
1,9.843777277,GUNDERSEN PALMER LUTHERAN HOSPITAL AND CLINICS,112 JEFFERSON STREET,WEST UNION,IA,52175,42.99372,-91.82389,52161,43.12733,-91.75623,Ossian,IA
1,15.138668819,MITCHELL COUNTY REGIONAL HEALTH,616 NORTH EIGHTH STREET,OSAGE,IA,50461,43.29995,-92.81412,50466,43.38782,-92.53815,Riceville,IA
1,7.957085755,UNITYPOINT HEALTH - MARSHALLTOWN,55 UNITYPOINT WAY,MARSHALLTOWN,IA,50158,42.05016,-92.90143,50078,41.93862,-92.8629,Ferguson,IA
1,24.457622795,MERCYONE NORTH IOWA MEDICAL CENTER,1000 FOURTH STREET SW,MASON CITY,IA,50401,43.15389,-93.20006,50450,43.42045,-93.51998,Lake Mills,IA
1,10.434328239,MYRTUE MEDICAL CENTER,1213 GARFIELD AVENUE,HARLAN,IA,51537,41.64646,-95.29531,51446,41.77663,-95.19277,Irwin,IA
1,18.116382431,HANSEN FAMILY HOSPITAL,920 SOUTH OAK STREET,IOWA FALLS,IA,50126,42.50875,-93.24815,50206,42.25018,-93.18941,New Providence,IA
1,9.160325817,ST LUKES REGIONAL MEDICAL CENTER,2720 STONE PARK BOULEVARD,SIOUX CITY,IA,51104,42.53518,-96.40389,51024,42.6201,-96.26564,Hinton,IA
1,0,HUMBOLDT COUNTY MEMORIAL HOSPITAL,1000 NORTH 15TH STREET,HUMBOLDT,IA,50548,42.71275,-94.22645,50548,42.71275,-94.22645,Humboldt,IA
1,10.861135364,MITCHELL COUNTY REGIONAL HEALTH,616 NORTH EIGHTH STREET,OSAGE,IA,50461,43.29995,-92.81412,50476,43.4527,-92.76311,Stacyville,IA
1,9.939573789,GREENE COUNTY MEDICAL CENTER,1000 WEST LINCOLN WAY,JEFFERSON,IA,50129,42.01335,-94.3764,50064,42.10671,-94.229,Dana,IA
1,15.783744075,MERCYONE PRIMGHAR MEDICAL CENTER,255 N WELCH AVENUE,PRIMGHAR,IA,51245,43.07788,-95.60149,51047,42.93523,-95.35752,Peterson,IA
1,3.964250287,ALLEN HOSPITAL,1825 LOGAN AVENUE,WATERLOO,IA,50703,42.54817,-92.28195,50623,42.52693,-92.20962,Dewar,IA
1,9.814154856,MERCY MEDICAL CENTER-NEW HAMPTON,308 NORTH MAPLE AVENUE,NEW HAMPTON,IA,50659,43.08749,-92.3221,50603,43.18893,-92.45834,Alta Vista,IA
